name,lat,lng,type,state,district,line,operator
Ramesh Nagar,28.6527444,77.1316496,metro_station,,,,Delhi Metro Rail Corporation Limited
Patel Nagar,28.6450127,77.1692817,metro_station,,,,Delhi Metro Rail Corporation Limited
Rithala,28.7208064,77.1071813,metro_station,,,,Delhi Metro Rail Corporation Limited
Pratap Nagar,28.6667177,77.1988974,metro_station,,,,Delhi Metro Rail Corporation Limited
Pul Bangash,28.6664068,77.2074156,metro_station,,,,Delhi Metro Rail Corporation Limited
Kashmere Gate,28.6674493,77.2282488,metro_station,,,,Delhi Metro Rail Corporation Limited
Kohat Enclave,28.6980415,77.1405393,metro_station,,,,Delhi Metro Rail Corporation Limited
Karol Bagh,28.6440122,77.1885235,metro_station,,,,Delhi Metro Rail Corporation Limited
Kirti Nagar (Blue Line),28.655746,77.1506635,metro_station,,,,Delhi Metro Rail Corporation Limited
Shadipur,28.6515829,77.1582587,metro_station,,,,Delhi Metro Rail Corporation Limited
Moti Nagar,28.657859,77.1424288,metro_station,,,,Delhi Metro Rail Corporation Limited
Sikanderpur,28.4812716,77.0930017,metro_station,,,,Delhi Metro Rail Corporation Limited
Delhi Aerocity,28.5487786,77.1207949,metro_station,,,,Delhi Metro Rail Corporation Limited
Hauz Khas (Yellow Line),28.5442564,77.2067072,metro_station,,,,Delhi Metro Rail Corporation Limited
Shivaji Stadium,28.6288963,77.2113218,metro_station,,,,Delhi Metro Rail Corporation Limited
New Delhi,28.6434826,77.2227421,metro_station,,,,Delhi Metro Rail Corporation Limited
Tis Hazari,28.6671626,77.2166306,metro_station,,,,Delhi Metro Rail Corporation Limited
Mannadi,13.095369,80.2860786,metro_station,,,,Chennai Metro Rail Limited
அரசினர் தோட்டம்,13.0697128,80.2730041,metro_station,,,,Chennai Metro Rail Limited
Shastri Park,28.6684339,77.2505301,metro_station,,,,Delhi Metro Rail Corporation Limited
Seelampur,28.6698165,77.2668137,metro_station,,,,Delhi Metro Rail Corporation Limited
Welcome (Red Line),28.6717907,77.2778473,metro_station,,,,Delhi Metro Rail Corporation Limited
Shahdara,28.6734298,77.2898858,metro_station,,,,Delhi Metro Rail Corporation Limited
Jhilmil,28.6757197,77.3123949,metro_station,,,,Delhi Metro Rail Corporation Limited
Shastri Nagar,28.6700885,77.1818589,metro_station,,,,Delhi Metro Rail Corporation Limited
Inderlok (Red Line),28.6735891,77.1703467,metro_station,,,,Delhi Metro Rail Corporation Limited
Kanhaiya Nagar,28.6824082,77.1647754,metro_station,,,,Delhi Metro Rail Corporation Limited
Keshav Puram,28.6889264,77.1616833,metro_station,,,,Delhi Metro Rail Corporation Limited
Netaji Subhash Place (Red Line),28.6960485,77.1524856,metro_station,,,,Delhi Metro Rail Corporation Limited
Pitam Pura,28.7032676,77.1322497,metro_station,,,,Delhi Metro Rail Corporation Limited
Rohini East,28.7075774,77.1259971,metro_station,,,,Delhi Metro Rail Corporation Limited
GTB Nagar,28.6981333,77.2063998,metro_station,,,,Delhi Metro Rail Corporation Limited
IGI Airport,28.5564626,77.0866995,metro_station,,,,Delhi Metro Rail Corporation Limited
Kalkaji Mandir,28.5494785,77.25909,metro_station,,,,Delhi Metro Rail Corporation Limited
Dhaula Kuan,28.5918719,77.1617158,metro_station,,,,Delhi Metro Rail Corporation Limited
New Delhi Airport Express Terminal,28.6424786,77.2231116,metro_station,,,,Delhi Metro Rail Corporation Limited
Durgapura Metro (u/c),26.8355542,75.7936432,metro_station,,,,NWR
Ambabadi Metro (u/c),26.9397287,75.7777965,metro_station,,,,Jaipur Metro Rail Corporation Limited
Jungametta (u/c),17.3353179,78.4683887,metro_station,,,,Hyderabad Metro Rail Limited
Charminar (u/c),17.3619252,78.4799909,metro_station,,,,Hyderabad Metro Rail Limited
Shamserganj (u/c),17.3408101,78.4683869,metro_station,,,,Hyderabad Metro Rail Limited
Shah Ali Banda (u/c),17.3507744,78.4723504,metro_station,,Hyderabad,,Hyderabad Metro Rail Limited
Falaknuma Terminal (u/c),17.3317141,78.4699981,metro_station,,,,Hyderabad Metro Rail Limited
Salar Jung Museum (u/c),17.3717823,78.4822609,metro_station,,,,Hyderabad Metro Rail Limited
Madavara,13.0574214,77.4728055,metro_station,,,,Bangalore Metro Rail Corporation Limited
Chikkabidarakallu,13.0523616,77.4879154,metro_station,,,,Bangalore Metro Rail Corporation Limited
Manjunathanagara,13.0500898,77.4944461,metro_station,,,,Bangalore Metro Rail Corporation Limited
Nagawara (Proposed),13.0422794,77.6248577,metro_station,,,,Bangalore Metro Rail Corporation Limited
Kirti Nagar (Green Line),28.6545409,77.1513605,metro_station,,,,Delhi Metro Rail Corporation Limited
Satguru Ramsingh Marg,28.6620531,77.1577026,metro_station,,,,Delhi Metro Rail Corporation Limited
Rohini West,28.7149569,77.115385,metro_station,,,,Delhi Metro Rail Corporation Limited
Belvedere Towers,28.4917023,77.0881318,metro_station,,,,Haryana Mass Rapid Transport Corporation Limited
DLF Phase 2,28.4875596,77.0929909,metro_station,,,,Haryana Mass Rapid Transport Corporation Limited
Sikanderpur RMRG Station,28.4809969,77.0944367,metro_station,,,,Haryana Mass Rapid Transport Corporation Limited
Kothrud,18.5038889,73.807673,metro_station,,,,
Begumpet,17.4375661,78.4569341,metro_station,,,,Hyderabad Metro Rail Limited
Moulsari Avenue Station,28.5007775,77.0946306,metro_station,,,,Haryana Mass Rapid Transport Corporation Limited
Phase 3 Station,28.4935677,77.093661,metro_station,,,,Haryana Mass Rapid Transport Corporation Limited
Dhansa Bus Stand,28.6119086,76.9785264,metro_station,,,,Delhi Metro Rail Corporation Limited
Hauz Khas (Magenta Line),28.5433691,77.2050447,metro_station,,,,Delhi Metro Rail Corporation Limited
Munirka,28.5568967,77.1750592,metro_station,,,,Delhi Metro Rail Corporation Limited
Sukhdev Vihar,28.5597477,77.2749004,metro_station,,,,Delhi Metro Rail Corporation Limited
Vasant Vihar,28.557827,77.1611168,metro_station,,,,Delhi Metro Rail Corporation Limited
Shankar Vihar,28.5608462,77.1402814,metro_station,,,,Delhi Metro Rail Corporation Limited
Sadar Bazar Cantonment,28.5771145,77.1111279,metro_station,,,,Delhi Metro Rail Corporation Limited
Palam,28.5889102,77.0830764,metro_station,,,,Delhi Metro Rail Corporation Limited
Dashrath Puri,28.60185,77.0823751,metro_station,,,,Delhi Metro Rail Corporation Limited
Janakpuri West,28.6289471,77.0779492,metro_station,,,,Delhi Metro Rail Corporation Limited
Okhla Bird Sanctuary,28.5529418,77.321595,metro_station,,,,Delhi Metro Rail Corporation Limited
Greater Kailash,28.5419077,77.2384925,metro_station,,,,Delhi Metro Rail Corporation Limited
Kalindi Kunj,28.542916,77.3101107,metro_station,,,,Delhi Metro Rail Corporation Limited
Kalkaji Mandir,28.5503522,77.2569441,metro_station,,,,Delhi Metro Rail Corporation Limited
Okhla Vihar,28.5613002,77.2919304,metro_station,,,,Delhi Metro Rail Corporation Limited
Panchsheel Park,28.5423747,77.2210916,metro_station,,,,Delhi Metro Rail Corporation Limited
R. K. Puram,28.5503805,77.1855231,metro_station,,,,Delhi Metro Rail Corporation Limited
Jasola Vihar Shaheen Bagh,28.5458279,77.2966578,metro_station,,,,Delhi Metro Rail Corporation Limited
Botanical Garden (Magenta Line),28.5639051,77.3338373,metro_station,,,,Delhi Metro Rail Corporation Limited
Terminal 1 IGI Airport,28.564835,77.1226566,metro_station,,,,Delhi Metro Rail Corporation Limited
Trilokpuri Sanjay Lake,28.613453,77.3088549,metro_station,,,,Delhi Metro Rail Corporation Limited
Anand Vihar (Blue Line),28.6468336,77.3158749,metro_station,,,,Delhi Metro Rail Corporation Limited
Karkarduma (Pink Line),28.6493434,77.3060686,metro_station,,,,Delhi Metro Rail Corporation Limited
Samaypur Badli,28.7446411,77.1382701,metro_station,,,,Delhi Metro Rail Corporation Limited
"Rohini Sector 18, 19",28.7383795,77.1398526,metro_station,,,,Delhi Metro Rail Corporation Limited
Sector 54 Chowk,28.4329768,77.1048971,metro_station,,,,Haryana Mass Rapid Transport Corporation Limited
Sector 53-54,28.4463829,77.1004632,metro_station,,,,Haryana Mass Rapid Transport Corporation Limited
Sector 42-43,28.4574254,77.0969529,metro_station,,,,Haryana Mass Rapid Transport Corporation Limited
Jamia Millia Islamia,28.5630488,77.2863387,metro_station,,,,Delhi Metro Rail Corporation Limited
Jayadeva Hospital,12.916731,77.5999663,metro_station,,,,Bangalore Metro Rail Corporation Limited
Chirag Delhi,28.5411108,77.2303164,metro_station,,,,Delhi Metro Rail Corporation Limited
DLF Phase 1,28.4714258,77.0939606,metro_station,,,,Haryana Mass Rapid Transport Corporation Limited
Sector 55–56,28.4233556,77.1051327,metro_station,,,,Haryana Mass Rapid Transport Corporation Limited
Alambagh Bus Station,26.8184732,80.9072927,metro_station,,,,Lucknow Metro Rail Corporation Limited
Alambagh,26.8140101,80.9025123,metro_station,,,,Lucknow Metro Rail Corporation Limited
Krishna Nagar,26.794391,80.891762,metro_station,,,,Lucknow Metro Rail Corporation Limited
Mawaiya,26.8253101,80.9098575,metro_station,,,,Lucknow Metro Rail Corporation Limited
Singar Nagar,26.8030998,80.8964272,metro_station,,,,Lucknow Metro Rail Corporation Limited
Noida Sector 143,28.4942558,77.4223772,metro_station,,,,NR
Noida Sector 148,28.4480552,77.4766042,metro_station,,,,NR
Alpha 1,28.4710345,77.5127373,metro_station,,,,NR
Delta 1,28.4784766,77.5257314,metro_station,,,,NR
GNIDA Office,28.4846826,77.5365039,metro_station,,,,Noida Metro Rail Corporation Limited (NMRC)
Noida Sector 147,28.4592889,77.4661552,metro_station,,,,NR
Noida Sector 144,28.4862877,77.433077,metro_station,,,,NR
Charbagh Railway Station,26.8324023,80.9231133,metro_station,,,,Lucknow Metro Rail Corporation Limited
Durgapuri,26.8320029,80.9154077,metro_station,,,,Lucknow Metro Rail Corporation Limited
Sachivalaya,26.8415965,80.9399056,metro_station,,,,Lucknow Metro Rail Corporation Limited
Noida Sector 83,28.5222688,77.3964456,metro_station,,,,NR
Noida Sector 137,28.5107689,77.4036068,metro_station,,,,NR
Benniganahalli,12.996496,77.6684788,metro_station,,,,Bangalore Metro Rail Corporation Limited
IP Extension,28.6319032,77.310718,metro_station,,,,Delhi Metro Rail Corporation Limited
Karkarduma Court,28.6536001,77.2957877,metro_station,,,,Delhi Metro Rail Corporation Limited
East Vinod Nagar - Mayur Vihar - II,28.6200437,77.3054069,metro_station,,,,Delhi Metro Rail Corporation Limited
Mandawali - West Vinod Nagar,28.624979,77.3044525,metro_station,,,,Delhi Metro Rail Corporation Limited
Noida Sector 146,28.4687544,77.4552023,metro_station,,,,NR
Noida Sector 145,28.4789957,77.44241,metro_station,,,,NR
NSEZ,28.5324041,77.3947544,metro_station,,,,NR
Depot Station,28.4890137,77.5440093,metro_station,,,,
Aluva,10.1100952,76.3495159,metro_station,,,,Kochi Metro Rail Limited
Ambattukavu,10.0794208,76.3387004,metro_station,,,,Kochi Metro Rail Limited
Changampuzha Park,10.0151019,76.3024538,metro_station,,,,Kochi Metro Rail Limited
Cochin University,10.0466793,76.3183086,metro_station,,,,Kochi Metro Rail Limited
Companypady,10.0873039,76.3425681,metro_station,,,,Kochi Metro Rail Limited
Edappally,10.025487,76.3079848,metro_station,,,,Kochi Metro Rail Limited
JLN Stadium,10.0002723,76.2990841,metro_station,,,,Kochi Metro Rail Limited
Kalamassery Town,10.0585393,76.3221673,metro_station,,,,Kochi Metro Rail Limited
Kaloor,9.9942991,76.2916664,metro_station,,,,Kochi Metro Rail Limited
Muttom,10.0727253,76.3337157,metro_station,,,,Kochi Metro Rail Limited
Palarivattom,10.00633,76.3049281,metro_station,,,,Kochi Metro Rail Limited
Pathadipalam,10.0359805,76.314485,metro_station,,,,Kochi Metro Rail Limited
Pulinchodu,10.0950475,76.3467836,metro_station,,,,Kochi Metro Rail Limited
M. G. Road,9.9833224,76.2824385,metro_station,,,,Kochi Metro Rail Limited
Noida Sector 101,28.5560481,77.3849489,metro_station,,,,NR
Noida Sector 51,28.5857189,77.3752593,metro_station,,,,NR
Noida Sector 76,28.5653305,77.3796581,metro_station,,,,NR
Noida Sector 81,28.5492993,77.3899489,metro_station,,,,NR
Hindon River,28.6734288,77.4065374,metro_station,,,,Delhi Metro Rail Corporation Limited
Burari,28.7298286,77.1995697,metro_station,,,,Delhi Metro Rail Corporation Limited
Jagatpur Village,28.7211162,77.223995,metro_station,,,,Delhi Metro Rail Corporation Limited
Khajoorikhas,28.7057735,77.2524068,metro_station,,,,Delhi Metro Rail Corporation Limited
Surghat,28.7102223,77.2274526,metro_station,,,,Delhi Metro Rail Corporation Limited
Dahanukarwadi,19.2062315,72.8348068,metro_station,,,,
Kandivali (West),19.2140036,72.8373054,metro_station,,,,
Borivali (West),19.2313925,72.8408607,metro_station,,,,
Mandapeshwar - I.C. Colony,19.2495856,72.8458001,metro_station,,,,
Kandarpada,19.2566337,72.850504,metro_station,,,,
Anand Nagar,19.2572087,72.8663486,metro_station,,,,
Shimpoli,19.2228332,72.8409432,metro_station,,,,
Eksar,19.2403773,72.8434456,metro_station,,,,
CSMI Airport International T2,19.1023335,72.8744692,metro_station,,,,Mumbai Metro Rail Corporation Ltd
Bandra Kurla Complex (BKC),19.0606629,72.8546797,metro_station,,,,Mumbai Metro Rail Corporation Ltd
Maharaja's College,9.9733747,76.2851082,metro_station,,,,Kochi Metro Rail Limited
Town Hall,9.9912053,76.2884381,metro_station,,,,Kochi Metro Rail Limited
ஆலந்தூர்,13.0042558,80.2014525,metro_station,,,,Chennai Metro Rail Limited
பரங்கிமலை,12.995,80.198582,metro_station,,,,Chennai Metro Rail Limited
சென்னை விமான நிலையம்,12.9807725,80.1641832,metro_station,,,,Chennai Metro Rail Limited
மீனம்பாக்கம்,12.9876388,80.1764698,metro_station,,,,Chennai Metro Rail Limited
Nanganallur Road,12.9998483,80.1940028,metro_station,,,,Chennai Metro Rail Limited
ஈக்காட்டுத்தாங்கல்,13.0169222,80.2054236,metro_station,,,,Chennai Metro Rail Limited
அசோக் நகர்,13.0354768,80.2111075,metro_station,,,,Chennai Metro Rail Limited
வடபழநி,13.0509304,80.2120661,metro_station,,,,Chennai Metro Rail Limited
அரும்பாக்கம்,13.0616746,80.2116557,metro_station,,,,Chennai Metro Rail Limited
சின்னமலை,13.0146226,80.2241682,metro_station,,,,Chennai Metro Rail Limited
கிண்டி,13.0092314,80.2130951,metro_station,,,,Chennai Metro Rail Limited
சென்னை புறநகர் பேருந்து நிலையம்,13.0685246,80.2039625,metro_station,,,,Chennai Metro Rail Limited
கோயம்பேடு,13.0734496,80.1948363,metro_station,,,,Chennai Metro Rail Limited
Pachaiyappa's College,13.0755466,80.2328522,metro_station,,,,Chennai Metro Rail Limited
Kilpauk,13.0776371,80.2426191,metro_station,,,,Chennai Metro Rail Limited
Nehru Park,13.0787841,80.250473,metro_station,,,,Chennai Metro Rail Limited
Egmore Metro,13.0802807,80.2630546,metro_station,,,,Chennai Metro Rail Limited
சைதாப்பேட்டை,13.0239394,80.2280916,metro_station,,,,Chennai Metro Rail Limited
நந்தனம்,13.0316813,80.2411933,metro_station,,,,Chennai Metro Rail Limited
தேனாம்பேட்டை,13.0368085,80.2464553,metro_station,,,,Chennai Metro Rail Limited
ஆயிரம் விளக்கு,13.0585155,80.2587833,metro_station,,,,Chennai Metro Rail Limited
ஏ ஜி டி.எம்.எஸ்,13.0458615,80.2483032,metro_station,,,,Chennai Metro Rail Limited
எல் ஐ சி,13.0643716,80.2658465,metro_station,,,,Chennai Metro Rail Limited
அரசினர் தோட்டம்,13.0696345,80.2730362,metro_station,,,,Chennai Metro Rail Limited
Mannadi,13.0953587,80.2861592,metro_station,,,,Chennai Metro Rail Limited
High Court,13.0872681,80.2849845,metro_station,,,,Chennai Metro Rail Limited
Mannadi,13.0954465,80.2861312,metro_station,,,,Chennai Metro Rail Limited
வண்ணாரப்பேட்டை,13.1078469,80.280949,metro_station,,,,Chennai Metro Rail Limited
Sindhi Camp,26.9226849,75.7998222,metro_station,,,,Jaipur Metro Rail Corporation Limited
Railway Station,26.9181132,75.790129,metro_station,,,,Jaipur Metro Rail Corporation Limited
Haiderpur Badli Mor,28.7299398,77.1491044,metro_station,,,,Delhi Metro Rail Corporation Limited
Central,22.5724857,88.3587427,metro_station,,,,"Metro Railway, Kolkata"
Park Street,22.5551591,88.3501171,metro_station,,,,"Metro Railway, Kolkata"
Kavi Nazrul,22.4642505,88.3804604,metro_station,,,,"Metro Railway, Kolkata"
Shahid Khudiram,22.4659847,88.3915408,metro_station,,,,"Metro Railway, Kolkata"
Kavi Subhash (Blue Line),22.4721697,88.397961,metro_station,,,,"Metro Railway, Kolkata"
Netaji,22.4809928,88.3460002,metro_station,,,,"Metro Railway, Kolkata"
Mahanayak Uttam Kumar,22.4947692,88.3450879,metro_station,,,,"Metro Railway, Kolkata"
Dum Dum,22.6211141,88.3928973,metro_station,,,,"Metro Railway, Kolkata"
Rabindra Sarobar,22.5072216,88.3454936,metro_station,,,,"Metro Railway, Kolkata"
Kalighat,22.5168752,88.3458448,metro_station,,,,"Metro Railway, Kolkata"
Jatin Das Park,22.5241535,88.3464729,metro_station,,,,"Metro Railway, Kolkata"
Netaji Bhavan,22.5331821,88.3459269,metro_station,,,,"Metro Railway, Kolkata"
Rabindra Sadan,22.5414899,88.3473493,metro_station,,,,"Metro Railway, Kolkata"
Maidan,22.5494672,88.3487883,metro_station,,,,"Metro Railway, Kolkata"
Chandni Chowk,22.5670118,88.3541581,metro_station,,,,"Metro Railway, Kolkata"
Esplanade (Line 1),22.5636143,88.3512099,metro_station,,,,"Metro Railway, Kolkata"
Mahatma Gandhi Road,22.5809206,88.3613271,metro_station,,,,"Metro Railway, Kolkata"
Girish Park,22.5871445,88.3629415,metro_station,,,,"Metro Railway, Kolkata"
Shobhabazar Sutanuti,22.595881,88.3651996,metro_station,,,,"Metro Railway, Kolkata"
Shyambazar,22.601335,88.3724974,metro_station,,,,"Metro Railway, Kolkata"
Belgachia,22.6059241,88.3863913,metro_station,,,,"Metro Railway, Kolkata"
Noapara,22.6398418,88.3941343,metro_station,,,,"Metro Railway, Kolkata"
Central Secretariat,28.6158794,77.2122822,metro_station,,,,Delhi Metro Rail Corporation Limited
Dwarka Sector 11,28.586443,77.0494433,metro_station,,,,Delhi Metro Rail Corporation Limited
ஏ ஜி டி.எம்.எஸ்,13.0458703,80.2482567,metro_station,,,,Chennai Metro Rail Limited
தேனாம்பேட்டை,13.0368236,80.2463929,metro_station,,,,Chennai Metro Rail Limited
நந்தனம்,13.0317226,80.2411721,metro_station,,,,Chennai Metro Rail Limited
சைதாப்பேட்டை,13.023975,80.2280614,metro_station,,,,Chennai Metro Rail Limited
Whitefield (Kadugodi),12.9957428,77.7579489,metro_station,,,,Bangalore Metro Rail Corporation Limited
Hopefarm Channasandra,12.9873426,77.7538033,metro_station,,,,Bangalore Metro Rail Corporation Limited
Pattandur Agrahara,12.9876393,77.7377718,metro_station,,,,Bangalore Metro Rail Corporation Limited
Sri Sathya Sai Hospital,12.9811949,77.7275361,metro_station,,,,Bangalore Metro Rail Corporation Limited
Nallurahalli,12.9766408,77.7248845,metro_station,,,,Bangalore Metro Rail Corporation Limited
Kundalahalli,12.977594,77.7155586,metro_station,,,,Bangalore Metro Rail Corporation Limited
Seetharampalya,12.9808558,77.7087854,metro_station,,,,Bangalore Metro Rail Corporation Limited
Hoodi,12.9888029,77.711326,metro_station,,,,Bangalore Metro Rail Corporation Limited
Garudacharpalya,12.9934505,77.7036768,metro_station,,,,Bangalore Metro Rail Corporation Limited
Singayyanapalya,12.9965445,77.6927176,metro_station,,,,Bangalore Metro Rail Corporation Limited
Krishnarajapura,12.9999024,77.6776703,metro_station,,,,Bangalore Metro Rail Corporation Limited
Benniganahalli,12.9965158,77.6684619,metro_station,,,,Bangalore Metro Rail Corporation Limited
Delta Electronics Bommasandra,12.8193944,77.6883453,metro_station,,,,Bangalore Metro Rail Corporation Limited
Huskur Road,12.8391572,77.6773716,metro_station,,,,Bangalore Metro Rail Corporation Limited
Infosys Foundation Konappana Agrahara,12.8464134,77.6711655,metro_station,,,,Bangalore Metro Rail Corporation Limited
Electronic City,12.8565053,77.6635228,metro_station,,,,Bangalore Metro Rail Corporation Limited
Beratena Agrahara,12.8638665,77.6578624,metro_station,,,,Bangalore Metro Rail Corporation Limited
Hosa Road,12.8707491,77.652447,metro_station,,,,Bangalore Metro Rail Corporation Limited
Singasandra,12.8808178,77.6448456,metro_station,,,,Bangalore Metro Rail Corporation Limited
Kudlu Gate,12.8899259,77.6392156,metro_station,,,,Bangalore Metro Rail Corporation Limited
Hongasandra,12.9016952,77.6319861,metro_station,,,,Bangalore Metro Rail Corporation Limited
Bommanahalli,12.9106157,77.6264782,metro_station,,,,Bangalore Metro Rail Corporation Limited
Central Silk Board,12.9165816,77.620567,metro_station,,,,Bangalore Metro Rail Corporation Limited
BTM Layout,12.9165878,77.6081182,metro_station,,,,Bangalore Metro Rail Corporation Limited
Ragigudda,12.9170807,77.5883015,metro_station,,,,Bangalore Metro Rail Corporation Limited
Rajendra Place,28.6424955,77.1782756,metro_station,,,,Delhi Metro Rail Corporation Limited
SEEPZ,19.1259985,72.8737266,metro_station,,,,Mumbai Metro Rail Corporation Ltd
MIDC - Andheri,19.1173537,72.8735966,metro_station,,,,Mumbai Metro Rail Corporation Ltd
Marol Naka (Line 3),19.1085041,72.878578,metro_station,,,,Mumbai Metro Rail Corporation Ltd
Nehru Enclave,28.5460584,77.2515057,metro_station,,,,Delhi Metro Rail Corporation Limited
Dasarahalli,13.0432607,77.5125535,metro_station,,,,Bangalore Metro Rail Corporation Limited
Jalahalli,13.0394104,77.5197351,metro_station,,,,Bangalore Metro Rail Corporation Limited
Srirampura,12.9965253,77.5631963,metro_station,,,,Bangalore Metro Rail Corporation Limited
Andheri L1,19.1205638,72.8488433,metro_station,,,,
Shiv Vihar,28.721381,77.2894599,metro_station,,,,Delhi Metro Rail Corporation Limited
Johri Enclave,28.7128806,77.2901293,metro_station,,,,Delhi Metro Rail Corporation Limited
Gokulpuri,28.7024752,77.2861253,metro_station,,,,Delhi Metro Rail Corporation Limited
Maujpur-Babarpur,28.6920781,77.2796973,metro_station,,,,Delhi Metro Rail Corporation Limited
Jaffrabad,28.6826822,77.2748055,metro_station,,,,Delhi Metro Rail Corporation Limited
Welcome (Pink Line),28.6724018,77.2770239,metro_station,,,,Delhi Metro Rail Corporation Limited
East Azad Nagar,28.6646764,77.2848431,metro_station,,,,Delhi Metro Rail Corporation Limited
Krishna Nagar,28.6578127,77.2901199,metro_station,,,,Delhi Metro Rail Corporation Limited
Saket,28.521168,77.2022237,metro_station,,,,Delhi Metro Rail Corporation Limited
Majlis Park,28.7244312,77.181964,metro_station,,,,Delhi Metro Rail Corporation Limited
Vinobapuri,28.565871,77.2492973,metro_station,,,,Delhi Metro Rail Corporation Limited
Mayur Vihar - I (Pink Line),28.6036425,77.2909319,metro_station,,,,Delhi Metro Rail Corporation Limited
Mayur Vihar Pocket 1,28.6058619,77.2987023,metro_station,,,,Delhi Metro Rail Corporation Limited
Sarai Kale Khan - Nizamuddin,28.5887494,77.2572494,metro_station,,,,Delhi Metro Rail Corporation Limited
Ashram,28.5724231,77.2585979,metro_station,,,,Delhi Metro Rail Corporation Limited
Nanganallur Road,12.9998739,80.1939756,metro_station,,,,Chennai Metro Rail Limited
நங்கநல்லூர் சாலை,12.9998798,80.1940099,metro_station,,,,Chennai Metro Rail Limited
மீனம்பாக்கம்,12.9876709,80.1764378,metro_station,,,,Chennai Metro Rail Limited
மீனம்பாக்கம்,12.9876728,80.1764787,metro_station,,,,Chennai Metro Rail Limited
சென்னை விமான நிலையம்,12.9808178,80.1641592,metro_station,,,,Chennai Metro Rail Limited
சென்னை விமான நிலையம்,12.9808092,80.1642026,metro_station,,,,Chennai Metro Rail Limited
தேனாம்பேட்டை,13.0368003,80.2464194,metro_station,,,,Chennai Metro Rail Limited
நந்தனம்,13.0317092,80.2411957,metro_station,,,,Chennai Metro Rail Limited
சைதாப்பேட்டை,13.0239952,80.2281244,metro_station,,,,Chennai Metro Rail Limited
சின்னமலை,13.0146778,80.2241109,metro_station,,,,Chennai Metro Rail Limited
சின்னமலை,13.0146634,80.2241669,metro_station,,,,Chennai Metro Rail Limited
கிண்டி,13.0092951,80.2130723,metro_station,,,,Chennai Metro Rail Limited
கிண்டி,13.0092746,80.2130846,metro_station,,,,Chennai Metro Rail Limited
ஏ ஜி டி.எம்.எஸ்,13.0458852,80.2482846,metro_station,,,,Chennai Metro Rail Limited
Central Metro,13.0816876,80.2739223,metro_station,,,,Chennai Metro Rail Limited
Central Metro,13.0817126,80.2739184,metro_station,,,,Chennai Metro Rail Limited
Chennai Central,13.0817254,80.273916,metro_station,,,,Chennai Metro Rail Limited
வண்ணாரப்பேட்டை,13.1079591,80.281025,metro_station,,,,Chennai Metro Rail Limited
வண்ணாரப்பேட்டை,13.1079711,80.2809437,metro_station,,,,Chennai Metro Rail Limited
High Court,13.0872148,80.2849401,metro_station,,,,Chennai Metro Rail Limited
High Court,13.0872079,80.2849935,metro_station,,,,Chennai Metro Rail Limited
அரசினர் தோட்டம்,13.0696147,80.2731105,metro_station,,,,Chennai Metro Rail Limited
எல் ஐ சி,13.0643478,80.265862,metro_station,,,,Chennai Metro Rail Limited
எல் ஐ சி,13.0643999,80.26583,metro_station,,,,Chennai Metro Rail Limited
ஆயிரம் விளக்கு,13.0586219,80.2587519,metro_station,,,,Chennai Metro Rail Limited
ஆயிரம் விளக்கு,13.0585796,80.258773,metro_station,,,,Chennai Metro Rail Limited
Arthala,28.676999,77.3918919,metro_station,,,,Delhi Metro Rail Corporation Limited
Shaheed Nagar,28.6766619,77.3339154,metro_station,,,,Delhi Metro Rail Corporation Limited
Mohan Nagar,28.6785372,77.3840026,metro_station,,,,Delhi Metro Rail Corporation Limited
Shyam Park,28.6782281,77.3706454,metro_station,,,,Delhi Metro Rail Corporation Limited
Major Mohit Sharma Rajendra Nagar,28.6776112,77.3581426,metro_station,,,,Delhi Metro Rail Corporation Limited
Raj Bagh,28.6770876,77.3468279,metro_station,,,,Delhi Metro Rail Corporation Limited
Baiyappanahalli,12.9907594,77.6523612,metro_station,,,,Bangalore Metro Rail Corporation Limited
Swami Vivekananda Road,12.9859306,77.644897,metro_station,,,,Bangalore Metro Rail Corporation Limited
Indiranagar,12.9783325,77.6386612,metro_station,,,,Bangalore Metro Rail Corporation Limited
Halasuru,12.9764992,77.626686,metro_station,,,,Bangalore Metro Rail Corporation Limited
Trinity,12.9730218,77.6170205,metro_station,,,,Bangalore Metro Rail Corporation Limited
Mahatma Gandhi Road,12.9755264,77.6067902,metro_station,,,,Bangalore Metro Rail Corporation Limited
Cubbon Park,12.9809575,77.5975756,metro_station,,,,Bangalore Metro Rail Corporation Limited
"Dr. B. R. Ambedkar Station, Vidhana Soudha",12.9787419,77.5916385,metro_station,,,,Bangalore Metro Rail Corporation Limited
"Sir M. Visvesvaraya Stn., Central College",12.9745197,77.58422,metro_station,,,,Bangalore Metro Rail Corporation Limited
"Nadaprabhu Kempegowda Station, Majestic",12.9757079,77.5728757,metro_station,,,,Bangalore Metro Rail Corporation Limited
Krantivira Sangolli Rayanna Railway Station,12.9758768,77.5653767,metro_station,,,,Bangalore Metro Rail Corporation Limited
Magadi Road,12.975632,77.5553523,metro_station,,,,Bangalore Metro Rail Corporation Limited
"Sri Balagangadharanatha Swamiji Station, Hosahalli",12.9742933,77.5456215,metro_station,,,,Bangalore Metro Rail Corporation Limited
Vijayanagar,12.9709559,77.5374044,metro_station,,,,Bangalore Metro Rail Corporation Limited
Attiguppe,12.9618931,77.5335788,metro_station,,,,Bangalore Metro Rail Corporation Limited
Deepanjali Nagar,12.9520578,77.5370122,metro_station,,,,Bangalore Metro Rail Corporation Limited
Mysore Road,12.9467183,77.5301588,metro_station,,,,Bangalore Metro Rail Corporation Limited
Mantri Square Sampige Road,12.9904629,77.5707293,metro_station,,,,Bangalore Metro Rail Corporation Limited
Mahakavi Kuvempu Road,12.9985297,77.5568986,metro_station,,,,Bangalore Metro Rail Corporation Limited
Rajajinagar,13.0005247,77.5496568,metro_station,,,,Bangalore Metro Rail Corporation Limited
Mahalakshmi,13.0080475,77.5488066,metro_station,,,,Bangalore Metro Rail Corporation Limited
Sandal Soap Factory,13.0146544,77.5539839,metro_station,,,,Bangalore Metro Rail Corporation Limited
Peenya,13.0330189,77.533201,metro_station,,,,Bangalore Metro Rail Corporation Limited
Peenya Industry,13.0363176,77.5254924,metro_station,,,,Bangalore Metro Rail Corporation Limited
Yelachenahalli,12.8960498,77.5701194,metro_station,,,,Bangalore Metro Rail Corporation Limited
Jaya Prakash Nagar,12.9074747,77.5731279,metro_station,,,,Bangalore Metro Rail Corporation Limited
Banashankari,12.9152208,77.573598,metro_station,,,,Bangalore Metro Rail Corporation Limited
Rashtreeya Vidyalaya Road,12.9215807,77.5802015,metro_station,,,,Bangalore Metro Rail Corporation Limited
Jayanagar,12.9295069,77.5801439,metro_station,,,,Bangalore Metro Rail Corporation Limited
South End Circle,12.9382573,77.5800556,metro_station,,,,Bangalore Metro Rail Corporation Limited
Lalbagh,12.9465265,77.580016,metro_station,,,,Bangalore Metro Rail Corporation Limited
National College,12.9505266,77.5736898,metro_station,,,,Bangalore Metro Rail Corporation Limited
Krishna Rajendra Market,12.9608788,77.5746578,metro_station,,,,Bangalore Metro Rail Corporation Limited
Chickpete,12.9668974,77.5745566,metro_station,,,,Bangalore Metro Rail Corporation Limited
S. R. Nagar,17.4431396,78.4407903,metro_station,,,,Hyderabad Metro Rail Limited
HITEC City,17.4490055,78.3831376,metro_station,,,,Hyderabad Metro Rail Limited
Hussainganj,26.8384284,80.93433,metro_station,,,,Lucknow Metro Rail Corporation Limited
Nagole,17.3907683,78.5588222,metro_station,,,,Hyderabad Metro Rail Limited
Ameerpet (Red Line),17.4357214,78.4447933,metro_station,,,,Hyderabad Metro Rail Limited
Sir M. Vishweshwaraiah Moti Bagh,28.5785326,77.175741,metro_station,,,,Delhi Metro Rail Corporation Limited
Bhikaji Cama Place,28.5702618,77.1878709,metro_station,,,,Delhi Metro Rail Corporation Limited
Dilli Haat - INA (Pink Line),28.5736524,77.2075857,metro_station,,,,Delhi Metro Rail Corporation Limited
Lajpat Nagar (Pink Line),28.56958,77.2385055,metro_station,,,,Delhi Metro Rail Corporation Limited
South Extension,28.5685664,77.2205677,metro_station,,,,Delhi Metro Rail Corporation Limited
Mayapuri,28.6371795,77.1297333,metro_station,,,,Delhi Metro Rail Corporation Limited
Rajouri Garden (Pink Line),28.6511896,77.1242597,metro_station,,,,Delhi Metro Rail Corporation Limited
Rajouri Garden (Blue Line),28.6490563,77.1227198,metro_station,,,,Delhi Metro Rail Corporation Limited
Netaji Subhash Place (Pink Line),28.6947146,77.1542607,metro_station,,,,Delhi Metro Rail Corporation Limited
Azadpur (Pink Line),28.7057821,77.1819488,metro_station,,,,Delhi Metro Rail Corporation Limited
Azadpur (Yellow Line),28.7070448,77.1803722,metro_station,,,,Delhi Metro Rail Corporation Limited
Dilli Haat - INA (Yellow Line),28.5741769,77.2093017,metro_station,,,,Delhi Metro Rail Corporation Limited
Lajpat Nagar (Violet Line),28.5705968,77.2364011,metro_station,,,,Delhi Metro Rail Corporation Limited
Anand Vihar (Pink Line),28.6466157,77.3155317,metro_station,,,,Delhi Metro Rail Corporation Limited
Karkarduma (Blue Line),28.6483176,77.3055178,metro_station,,,,Delhi Metro Rail Corporation Limited
Delhi Cantt,28.6086201,77.1404187,metro_station,,,,Delhi Metro Rail Corporation Limited
Shalimar Bagh,28.7019574,77.1654317,metro_station,,,,Delhi Metro Rail Corporation Limited
Shakurpur,28.6857668,77.1496094,metro_station,,,,Delhi Metro Rail Corporation Limited
Sarojini Nagar,28.575817,77.1980786,metro_station,,,,Delhi Metro Rail Corporation Limited
Punjabi Bagh West,28.6727671,77.1391976,metro_station,,,,Delhi Metro Rail Corporation Limited
Naraina Vihar,28.6243852,77.1364438,metro_station,,,,Delhi Metro Rail Corporation Limited
ESI - Basaidarapur,28.6580737,77.1272678,metro_station,,,,Delhi Metro Rail Corporation Limited
Inderlok (Green Line),28.6727066,77.1691872,metro_station,,,,Delhi Metro Rail Corporation Limited
Ashok Park Main,28.6716045,77.155291,metro_station,,,,Delhi Metro Rail Corporation Limited
Punjabi Bagh,28.672995,77.1461239,metro_station,,,,Delhi Metro Rail Corporation Limited
Shivaji Park,28.6750317,77.1304722,metro_station,,,,Delhi Metro Rail Corporation Limited
Madipur,28.6764752,77.1193599,metro_station,,,,Delhi Metro Rail Corporation Limited
Paschim Vihar East,28.6773563,77.1122823,metro_station,,,,Delhi Metro Rail Corporation Limited
Peera Garhi,28.6798074,77.0926793,metro_station,,,,Delhi Metro Rail Corporation Limited
Udyog Nagar,28.681103,77.0808492,metro_station,,,,Delhi Metro Rail Corporation Limited
Surajmal Stadium,28.6818775,77.074,metro_station,,,,Delhi Metro Rail Corporation Limited
Nangloi,28.6824007,77.0647319,metro_station,,,,Delhi Metro Rail Corporation Limited
Nangloi Railway Station,28.6822009,77.0562463,metro_station,,,,Delhi Metro Rail Corporation Limited
Rajdhani Park,28.6823085,77.0439437,metro_station,,,,Delhi Metro Rail Corporation Limited
Mundka,28.6824341,77.0305741,metro_station,,,,Delhi Metro Rail Corporation Limited
Mundka Industrial Area,28.6833701,77.0171485,metro_station,,,,Delhi Metro Rail Corporation Limited
Ghevra,28.6852384,76.9961591,metro_station,,,,Delhi Metro Rail Corporation Limited
Tikri Kalan,28.6868849,76.9772082,metro_station,,,,Delhi Metro Rail Corporation Limited
Tikri Border,28.6880254,76.9640828,metro_station,,,,Delhi Metro Rail Corporation Limited
Pandit Shree Ram Sharma,28.689281,76.9511988,metro_station,,,,Delhi Metro Rail Corporation Limited
Bahadurgarh City,28.6907783,76.9354807,metro_station,,,,Delhi Metro Rail Corporation Limited
Brigadier Hoshiyar Singh,28.6974603,76.9192027,metro_station,,,,Delhi Metro Rail Corporation Limited
IIT Delhi,28.5470121,77.1945546,metro_station,,,,Delhi Metro Rail Corporation Limited
Indraprastha,28.6206019,77.249551,metro_station,,,,Delhi Metro Rail Corporation Limited
Yamuna Bank,28.6233124,77.268013,metro_station,,,,Delhi Metro Rail Corporation Limited
New Ashok Nagar,28.5890885,77.3015085,metro_station,,,,Delhi Metro Rail Corporation Limited
Noida City Centre,28.5747334,77.3561638,metro_station,,,,Delhi Metro Rail Corporation Limited
Golf Course,28.5673755,77.3463247,metro_station,,,,Delhi Metro Rail Corporation Limited
Botanical Garden (Blue Line),28.5639434,77.3343995,metro_station,,,,Delhi Metro Rail Corporation Limited
Noida Sector 18,28.5707583,77.3260756,metro_station,,,,Delhi Metro Rail Corporation Limited
Noida Sector 16,28.578081,77.3177778,metro_station,,,,Delhi Metro Rail Corporation Limited
Noida Sector 15,28.5848835,77.3116118,metro_station,,,,Delhi Metro Rail Corporation Limited
Mayur Vihar - I (Blue Line),28.604064,77.2895398,metro_station,,,,Delhi Metro Rail Corporation Limited
Dwarka Sector 12,28.5922362,77.0407315,metro_station,,,,Delhi Metro Rail Corporation Limited
Jhandewalan,28.6443188,77.1999165,metro_station,,,,Delhi Metro Rail Corporation Limited
Ramakrishna Ashram Marg,28.6392436,77.2085787,metro_station,,,,Delhi Metro Rail Corporation Limited
Rajiv Chowk,28.6327062,77.2193123,metro_station,,,,Delhi Metro Rail Corporation Limited
Barakhambha Road,28.6297676,77.2250046,metro_station,,,,Delhi Metro Rail Corporation Limited
Mandi House,28.6256122,77.2341966,metro_station,,,,Delhi Metro Rail Corporation Limited
Supreme Court,28.6234752,77.2425278,metro_station,,,,Delhi Metro Rail Corporation Limited
Dwarka Sector 10,28.5810577,77.0574996,metro_station,,,,Delhi Metro Rail Corporation Limited
Dwarka Sector 9,28.574272,77.0653316,metro_station,,,,Delhi Metro Rail Corporation Limited
Dwarka Sector 8,28.5656109,77.0670366,metro_station,,,,Delhi Metro Rail Corporation Limited
Dwarka Sector 21,28.5519218,77.0585605,metro_station,,,,Delhi Metro Rail Corporation Limited
Noida Sector 62,28.6169861,77.3735885,metro_station,,,,Delhi Metro Rail Corporation Limited
Noida Sector 59,28.6065279,77.3726828,metro_station,,,,Delhi Metro Rail Corporation Limited
Noida Sector 61,28.5975854,77.3722663,metro_station,,,,Delhi Metro Rail Corporation Limited
Noida Sector 52,28.5868739,77.3730237,metro_station,,,,Delhi Metro Rail Corporation Limited
Noida Sector 34,28.5802538,77.3634917,metro_station,,,,Delhi Metro Rail Corporation Limited
Noida Electronic City,28.6282627,77.3750033,metro_station,,,,Delhi Metro Rail Corporation Limited
Janakpuri West,28.6295839,77.078085,metro_station,,,,Delhi Metro Rail Corporation Limited
Uttam Nagar East,28.6248465,77.0652861,metro_station,,,,Delhi Metro Rail Corporation Limited
Uttam Nagar West,28.621757,77.0557122,metro_station,,,,Delhi Metro Rail Corporation Limited
Nawada,28.6202758,77.0450787,metro_station,,,,Delhi Metro Rail Corporation Limited
Dwarka Mor,28.61931,77.0332792,metro_station,,,,Delhi Metro Rail Corporation Limited
Dwarka (Grey Line),28.6158874,77.0224342,metro_station,,,,Delhi Metro Rail Corporation Limited
Dwarka (Blue Line),28.6149362,77.0227628,metro_station,,,,Delhi Metro Rail Corporation Limited
Dwarka Sector 14,28.6022218,77.0259765,metro_station,,,,Delhi Metro Rail Corporation Limited
Dwarka Sector 13,28.597009,77.0335407,metro_station,,,,Delhi Metro Rail Corporation Limited
Adarsh Nagar,28.7165805,77.1704223,metro_station,,,,Delhi Metro Rail Corporation Limited
Jahangirpuri,28.7259717,77.162658,metro_station,,,,Delhi Metro Rail Corporation Limited
Janakpuri East,28.633021,77.086757,metro_station,,,,Delhi Metro Rail Corporation Limited
Tilak Nagar,28.6365482,77.0964961,metro_station,,,,Delhi Metro Rail Corporation Limited
Subhash Nagar,28.6404593,77.1051815,metro_station,,,,Delhi Metro Rail Corporation Limited
Tagore Garden,28.6437265,77.11282,metro_station,,,,Delhi Metro Rail Corporation Limited
Yusufguda,17.4351132,78.4273216,metro_station,,,,Hyderabad Metro Rail Limited
Ameerpet (Blue Line),17.4352864,78.4447834,metro_station,,,,Hyderabad Metro Rail Limited
Kadavanthra,9.9666766,76.2982044,metro_station,,,,Kochi Metro Rail Limited
Elamkulam,9.9672669,76.3084361,metro_station,,,,Kochi Metro Rail Limited
Thykoodam,9.9601104,76.3237287,metro_station,,,,Kochi Metro Rail Limited
Ernakulam South,9.9686172,76.2894579,metro_station,,,,Kochi Metro Rail Limited
Jubilee Hills Checkpost,17.4281969,78.4137145,metro_station,,,,Hyderabad Metro Rail Limited
Civil Lines,26.9096783,75.7812494,metro_station,,,,Jaipur Metro Rail Corporation Limited
Rahate Colony,21.1276692,79.0756888,metro_station,,,,MahaMetro
Congress Nagar,21.1281984,79.0825531,metro_station,,,,MahaMetro
Guru Dronacharya,28.4820212,77.1022685,metro_station,,,,Delhi Metro Rail Corporation Limited
Model Town,28.7027136,77.1939912,metro_station,,,,Delhi Metro Rail Corporation Limited
M G Road,28.4795543,77.0798926,metro_station,,,,Delhi Metro Rail Corporation Limited
IFFCO Chowk,28.4723277,77.0724222,metro_station,,,,Delhi Metro Rail Corporation Limited
A.I.I.M.S.,28.5668602,77.2078058,metro_station,,,,Delhi Metro Rail Corporation Limited
Green Park,28.5580071,77.2067933,metro_station,,,,Delhi Metro Rail Corporation Limited
Civil Lines,28.6768508,77.2250299,metro_station,,,,Delhi Metro Rail Corporation Limited
Vidhan Sabha,28.6863222,77.2217271,metro_station,,,,Delhi Metro Rail Corporation Limited
Vishwa Vidyalaya,28.6950772,77.2147459,metro_station,,,,Delhi Metro Rail Corporation Limited
Millennium City Centre Gurugram,28.4593429,77.0726571,metro_station,,,,Delhi Metro Rail Corporation Limited
Malviya Nagar,28.5290656,77.2048241,metro_station,,,,Delhi Metro Rail Corporation Limited
Chhatarpur,28.5067242,77.1750019,metro_station,,,,Delhi Metro Rail Corporation Limited
Sultanpur,28.4991235,77.1613745,metro_station,,,,Delhi Metro Rail Corporation Limited
Chandni Chowk,28.6584227,77.2303375,metro_station,,,,Delhi Metro Rail Corporation Limited
Chawri Bazaar,28.6492649,77.2265153,metro_station,,,,Delhi Metro Rail Corporation Limited
Patel Chowk,28.6229664,77.214031,metro_station,,,,Delhi Metro Rail Corporation Limited
Udyog Bhavan,28.6095136,77.211796,metro_station,,,,Delhi Metro Rail Corporation Limited
Lok Kalyan Marg,28.5973513,77.2110967,metro_station,,,,Delhi Metro Rail Corporation Limited
Jor Bagh,28.5865094,77.2125273,metro_station,,,,Delhi Metro Rail Corporation Limited
Qutab Minar,28.512951,77.1864532,metro_station,,,,Delhi Metro Rail Corporation Limited
Ghitorni,28.493751,77.1491866,metro_station,,,,Delhi Metro Rail Corporation Limited
Arjan Garh,28.4807352,77.1257622,metro_station,,,,Delhi Metro Rail Corporation Limited
Nangli,28.6173003,77.0104375,metro_station,,,,Delhi Metro Rail Corporation Limited
Kukatpally,17.4850883,78.411638,metro_station,,,,Hyderabad Metro Rail Limited
"Zaveri Nursing Home, Nagpur",21.1699068,79.1101322,metro_station,Maharashtra,Nagpur,,
Uppal,17.3999384,78.5601591,metro_station,,,,Hyderabad Metro Rail Limited
Stadium,17.4074002,78.5542531,metro_station,,,,Hyderabad Metro Rail Limited
NGRI,17.4148264,78.5463345,metro_station,,,,Hyderabad Metro Rail Limited
Habsiguda,17.42018,78.540548,metro_station,,,,Hyderabad Metro Rail Limited
Tarnaka,17.4282965,78.5284415,metro_station,,,,Hyderabad Metro Rail Limited
Mettuguda,17.4355207,78.5195754,metro_station,,,,Hyderabad Metro Rail Limited
Secunderabad East,17.4357184,78.5054623,metro_station,,,,Hyderabad Metro Rail Limited
Parade Grounds (Blue Line),17.4431943,78.4974687,metro_station,,,,Hyderabad Metro Rail Limited
Paradise,17.4434668,78.4862436,metro_station,,,,Hyderabad Metro Rail Limited
Rasoolpura,17.443612,78.4764053,metro_station,,,,Hyderabad Metro Rail Limited
Prakash Nagar,17.4448889,78.4658749,metro_station,,,,Hyderabad Metro Rail Limited
Madhura Nagar,17.4369652,78.4390993,metro_station,,,,Hyderabad Metro Rail Limited
Road No 5 Jubilee Hills,17.4300489,78.4232069,metro_station,,,,Hyderabad Metro Rail Limited
Peddamma Gudi,17.4306512,78.4083721,metro_station,,,,Hyderabad Metro Rail Limited
Raidurg,17.44218,78.3771819,metro_station,,,,Hyderabad Metro Rail Limited
Parade Grounds (Green Line),17.4444775,78.497584,metro_station,,,,Hyderabad Metro Rail Limited
JBS,17.4488181,78.4964843,metro_station,,,,Hyderabad Metro Rail Limited
RTC Cross Roads,17.4070321,78.4968023,metro_station,,,,Hyderabad Metro Rail Limited
Mahatma Gandhi Bus Station (Red Line),17.3798572,78.4862022,metro_station,,,,Hyderabad Metro Rail Limited
Mahatma Gandhi Bus Station (Green Line),17.3796948,78.4858635,metro_station,,,,Hyderabad Metro Rail Limited
Malakpet,17.3771888,78.4939356,metro_station,,,,Hyderabad Metro Rail Limited
Musarambagh,17.3710728,78.5119483,metro_station,,,,Hyderabad Metro Rail Limited
Nehru Place,28.5514171,77.2517386,metro_station,,,,Delhi Metro Rail Corporation Limited
Kailash Colony,28.5553298,77.2419637,metro_station,,,,Delhi Metro Rail Corporation Limited
Lal Quila,28.657483,77.2366607,metro_station,,,,Delhi Metro Rail Corporation Limited
Khan Market,28.6022446,77.2291281,metro_station,,,,Delhi Metro Rail Corporation Limited
Delhi Gate,28.6392174,77.2407795,metro_station,,,Violet Line,Delhi Metro Rail Corporation Limited
Sultan Bazar,17.3844473,78.4840241,metro_station,,,,Hyderabad Metro Rail Limited
Narayanaguda,17.3943658,78.4899578,metro_station,,,,Hyderabad Metro Rail Limited
Chikkadpally,17.4003634,78.4948964,metro_station,,,,Hyderabad Metro Rail Limited
Musheerabad,17.4178744,78.4995051,metro_station,,,,Hyderabad Metro Rail Limited
Gandhi Hospital,17.4255155,78.501956,metro_station,,,,Hyderabad Metro Rail Limited
Secunderabad West,17.4338034,78.4995181,metro_station,,,,Hyderabad Metro Rail Limited
Kengeri,12.9079284,77.4765748,metro_station,,,,Bangalore Metro Rail Corporation Limited
Jayadeva Interchange (u/c),12.9167281,77.5999985,metro_station,,,,Bangalore Metro Rail Corporation Limited
Pettah,9.9524963,76.3301852,metro_station,,,,Kochi Metro Rail Limited
Kendriya Vidyalaya,23.2402447,77.4315823,metro_station,,,,
Board Office Chauraha,23.2324642,77.4316668,metro_station,,,,
DRM Office,23.216162,77.4432707,metro_station,,,,
Alkapuri,23.2164843,77.4510393,metro_station,,,,
Subhash Nagar,23.2477971,77.429998,metro_station,,,,
AIIMS,23.2098432,77.456049,metro_station,,,,
Rani Kamalapati Railway Station,23.2212714,77.4383506,metro_station,,,,
MP Nagar,23.2276529,77.4352055,metro_station,,,,
Kalupur Railway Station,23.0246913,72.6031447,metro_station,,,,
Kankaria East,23.0154573,72.6070016,metro_station,,,,
Shahpur Station,23.0392105,72.5810327,metro_station,,,,
Gheekanta,23.028794,72.5867752,metro_station,,,,
Gurudev Chauraha,26.4915749,80.2843697,metro_station,,,,Uttar Pradesh Metro Rail Corporation
Bada Chauraha,26.4726897,80.3523972,metro_station,,,,Uttar Pradesh Metro Rail Corporation
Vishwavidyalaya,26.496489,80.267272,metro_station,,,,Uttar Pradesh Metro Rail Corporation
Rawatpur,26.4828664,80.3000734,metro_station,,,,Uttar Pradesh Metro Rail Corporation
Naveen Market,26.4740673,80.3454472,metro_station,,,,Uttar Pradesh Metro Rail Corporation
Geeta Nagar,26.4870224,80.2921052,metro_station,,,,Uttar Pradesh Metro Rail Corporation
SPM Hospital,26.4988957,80.2589004,metro_station,,,,Uttar Pradesh Metro Rail Corporation
IIT Kanpur,26.5092071,80.2483111,metro_station,,,,Uttar Pradesh Metro Rail Corporation
Chunniganj,26.4770395,80.3370699,metro_station,,,,Uttar Pradesh Metro Rail Corporation
Nayaganj,26.4641599,80.3595041,metro_station,,,,Uttar Pradesh Metro Rail Corporation
LLR Hospital,26.4792656,80.311601,metro_station,,,,Uttar Pradesh Metro Rail Corporation
Phugewadi,18.5911058,73.8311472,metro_station,,,,
Mangalwar Peth,18.5300875,73.8654426,metro_station,,,,Maha Metro
Dapodi,18.5837649,73.8337656,metro_station,,,,
PMC Bhavan,18.5228092,73.8533687,metro_station,,,,
Ruby Hall Clinic,18.5327176,73.8777486,metro_station,,,,
District Court (Aqua Line),18.5271448,73.8580006,metro_station,,,,
Pune Railway Station,18.529751,73.872596,metro_station,,,,
Sant Tukaram Nagar,18.6145248,73.8157455,metro_station,,,,Pune Metro
मंडई,18.5129081,73.8569695,metro_station,,,,MahaMetro
Kasarwadi,18.5996201,73.8272644,metro_station,,,,
Nashik Phata,18.609303,73.8200965,metro_station,,,,Pune Metro
स्वारगेट,18.4997453,73.8574604,metro_station,,,,
Bopodi,18.5696675,73.8381109,metro_station,,,,
Unknown Metro Station,21.1513518,79.0904608,metro_station,,,,
Vadakkekotta,9.9528098,76.339488,metro_station,,,,Kochi Metro Rail Limited
Nari Road,21.1795001,79.1097781,metro_station,,,,
Chitaroli Square,21.1496469,79.110395,metro_station,,,,
Zero Mile,25.5856705,85.1867521,metro_station,,,,
Automotive Square,21.1857923,79.1195065,metro_station,,,,
Taj East Gate,27.1584153,78.0579059,metro_station,,,,
Agrasen Square,21.1510532,79.1029132,metro_station,,,,
Ambedkar Square,21.148325,79.1294936,metro_station,,,,
Mankameshwar,27.177536,78.0178819,metro_station,,,,
Kadvi Square,21.1686674,79.0924243,metro_station,,,,
Rajendra Nagar Station,25.6022321,85.1626265,metro_station,,,,
Dosar Vaisya Square,21.1529727,79.094916,metro_station,,,,
Basai,27.1578436,78.0507366,metro_station,,,,
Vaishnodevi Square,21.1480272,79.1364057,metro_station,,,,
SN Junction,9.9546771,76.3460351,metro_station,,,,Kochi Metro Rail Limited
Moin-ul-Haq Stadium,25.6081428,85.1663911,metro_station,,,,
Telephone Exchange,21.148814,79.1182431,metro_station,,,,
Indora Square,21.1736873,79.1007283,metro_station,,,,
Gaddi Godam Square,21.1616305,79.083725,metro_station,,,,
Prajapati Nagar,21.1501485,79.148823,metro_station,,,,
Bhootnath,25.5854746,85.1735758,metro_station,,,,
Fatehabad Road,27.1601993,78.0427027,metro_station,,,,
Karunamoyee,22.58638,88.4215312,metro_station,,,,Kolkata Metro Rail Corporation Limited (KMRCL)
Central Park,22.5904737,88.4156247,metro_station,,,,Kolkata Metro Rail Corporation Limited (KMRCL)
City Centre,22.5870993,88.4078908,metro_station,,,,Kolkata Metro Rail Corporation Limited (KMRCL)
Bengal Chemical,22.5800666,88.4012962,metro_station,,,,
Salt Lake Stadium,22.5731115,88.4030891,metro_station,,,,
Phoolbagan,22.5721268,88.3902408,metro_station,,,,
Salt Lake Sector V,22.5809434,88.4290872,metro_station,,,,Kolkata Metro Rail Corporation Limited (KMRCL)
Chaudhary Charan Singh International Airport,26.7662824,80.8836391,metro_station,,,,Lucknow Metro Rail Corporation Limited
Transport Nagar,26.777877,80.8826512,metro_station,,,,Lucknow Metro Rail Corporation Limited
Amausi,26.7713636,80.8786976,metro_station,,,,Lucknow Metro Rail Corporation Limited
Rajiv Chowk,28.6327786,77.2196985,metro_station,,,,Delhi Metro Rail Corporation Limited
Chandpole,26.9266005,75.807892,metro_station,,,,Jaipur Metro Rail Corporation Limited
Choti Chaupar,26.9247317,75.8184589,metro_station,,,,Jaipur Metro Rail Corporation Limited
Badi Chaupar,26.9229585,75.8268223,metro_station,,,,Jaipur Metro Rail Corporation Limited
Manasarovar,26.8794402,75.7502389,metro_station,,,,Jaipur Metro Rail Corporation Limited
Shyam Nagar,26.8964768,75.7706279,metro_station,,,,Jaipur Metro Rail Corporation Limited
Vivek Vihar,26.8884539,75.768407,metro_station,,,,Jaipur Metro Rail Corporation Limited
New Aatish Market,26.880154,75.764466,metro_station,,,,Jaipur Metro Rail Corporation Limited
தியாகராயா கல்லூரி,13.1157545,80.2847439,metro_station,,,,Chennai Metro Rail Limited
தொண்டையார்பேட்டை,13.1245276,80.2888557,metro_station,,,,Chennai Metro Rail Limited
விம்கோ நகர்,13.1792903,80.3073435,metro_station,,,,Chennai Metro Rail Limited
திருவொற்றியூர்,13.1718028,80.3052689,metro_station,,,,Chennai Metro Rail Limited
காலடிபேட்டை,13.1506672,80.2993928,metro_station,,,,Chennai Metro Rail Limited
சுங்கச்சாவடி,13.1431344,80.2963291,metro_station,,,,Chennai Metro Rail Limited
புது வண்ணாரப்பேட்டை,13.1345195,80.2930011,metro_station,,,,Chennai Metro Rail Limited
Convention Center;કન્વેન્શન સેન્ટર,21.1220065,72.7993175,metro_station,,,,
Baranagar,22.6530765,88.3805962,metro_station,,,,"Metro Railway, Kolkata"
Kengeri,12.9078971,77.4765871,metro_station,,,,Bangalore Metro Rail Corporation Limited
Jnanabharathi,12.9354357,77.5124063,metro_station,,,,Bangalore Metro Rail Corporation Limited
Pantharapalya - Nayandahalli,12.9416715,77.5251166,metro_station,,,,Bangalore Metro Rail Corporation Limited
Kengeri Bus Terminal,12.914689,77.4878557,metro_station,,,,Bangalore Metro Rail Corporation Limited
Kengeri,12.9079105,77.4765784,metro_station,,,,Bangalore Metro Rail Corporation Limited
Rajarajeshwari Nagar,12.9365996,77.5196788,metro_station,,,,Bangalore Metro Rail Corporation Limited
Pattanagere,12.9242505,77.4983509,metro_station,,,,Bangalore Metro Rail Corporation Limited
Paschim Vihar West,28.678613,77.1022154,metro_station,,,,Delhi Metro Rail Corporation Limited
New Airport,21.0660407,79.0558315,metro_station,,,,MahaMetro
Teen Hath Naka Station,19.1870457,72.9615868,metro_station,,,,
Shaheed Sthal,28.6706449,77.4154736,metro_station,,,,Delhi Metro Rail Corporation Limited
Madhapur,17.4372637,78.4004257,metro_station,,,,Hyderabad Metro Rail Limited
Najafgarh,28.6124504,76.9865067,metro_station,,,,Delhi Metro Rail Corporation Limited
Behala Bazar,22.4987585,88.3173872,metro_station,,,,"Metro Railway, Kolkata"
Behala Chowrasta,22.4873548,88.3133794,metro_station,,,,"Metro Railway, Kolkata"
Laxmi Nagar,28.6305974,77.277523,metro_station,,,,Delhi Metro Rail Corporation Limited
Preet Vihar,28.6414176,77.2952819,metro_station,,,,Delhi Metro Rail Corporation Limited
Badhkal Mor,28.4227134,77.3103481,metro_station,,,,Delhi Metro Rail Corporation Limited
Raja Nahar Singh,28.340002,77.3164509,metro_station,,,,Delhi Metro Rail Corporation Limited
திருவொற்றியூர் தேரடி,13.1602152,80.3024483,metro_station,,,,Chennai Metro Rail Limited
Moolchand,28.5644044,77.2342555,metro_station,,,,Delhi Metro Rail Corporation Limited
Jangpura,28.5830386,77.2393151,metro_station,,,,Delhi Metro Rail Corporation Limited
Jawaharlal Nehru Stadium,28.5882347,77.2337833,metro_station,,,,Delhi Metro Rail Corporation Limited
Janpath,28.6240485,77.2192587,metro_station,,,,Delhi Metro Rail Corporation Limited
ITO,28.6281909,77.2410437,metro_station,,,,Delhi Metro Rail Corporation Limited
Govind Puri,28.5445521,77.2642761,metro_station,,,,Delhi Metro Rail Corporation Limited
Harkesh Nagar Okhla,28.5429338,77.2750407,metro_station,,,,Delhi Metro Rail Corporation Limited
Vanaz,18.5071853,73.8051948,metro_station,,,,
Anandnagar,18.5095724,73.8140749,metro_station,,,,
Ideal Colony,18.508885,73.822144,metro_station,,,,
Nalstop,18.5073567,73.8287815,metro_station,,,,
Garware College,18.5119886,73.8380505,metro_station,,,,
Dahisar (East) [Line 7],19.2506981,72.8666664,metro_station,,,,
Dahisar (East) [Line 2],19.2517331,72.8673322,metro_station,,,,
Aarey,19.1693242,72.8587918,metro_station,,,,
Dindoshi,19.1797579,72.8582976,metro_station,,,,
Kurar,19.1872999,72.8584547,metro_station,,,,
Akurli,19.1981585,72.8604905,metro_station,,,,
Poisar,19.2035171,72.8631041,metro_station,,,,
Magathane,19.2167968,72.8668012,metro_station,,,,
Devipada,19.2240357,72.8643251,metro_station,,,,
Rashtriya Udyan,19.2348129,72.8630608,metro_station,,,,MMRDA
Ovaripada,19.2431487,72.8641377,metro_station,,,,MMRDA
Lekhraj Market,26.8709686,80.9738961,metro_station,,,,Lucknow Metro Rail Corporation Limited
Munshipulia,26.8879654,80.9959863,metro_station,,,,Lucknow Metro Rail Corporation Limited
Indira Nagar,26.8727659,80.9909732,metro_station,,,,Lucknow Metro Rail Corporation Limited
Bhootnath Market,26.8722368,80.9823474,metro_station,,,,Lucknow Metro Rail Corporation Limited
Badshah Nagar,26.8706977,80.9610133,metro_station,,,,Lucknow Metro Rail Corporation Limited
IT College,26.8710268,80.9456475,metro_station,,,,Lucknow Metro Rail Corporation Limited
Vishwavidyalaya,26.865529,80.9395458,metro_station,,,,Lucknow Metro Rail Corporation Limited
KD Singh Babu Stadium,26.8539449,80.9368084,metro_station,,,,Lucknow Metro Rail Corporation Limited
Hazratganj,26.8500335,80.9415944,metro_station,,,,Lucknow Metro Rail Corporation Limited
விம்கோ நகர் டிப்போ,13.1839706,80.3089939,metro_station,,,,Chennai Metro Rail Limited
Sealdah,22.5666059,88.3697815,metro_station,,,,
Jayadeva Interchange (u/c),12.9167328,77.5999289,metro_station,,,,Bangalore Metro Rail Corporation Limited
Challaghatta,12.8973539,77.4612877,metro_station,,,,Bangalore Metro Rail Corporation Limited
Silk Institute,12.8617298,77.5299545,metro_station,,,,Bangalore Metro Rail Corporation Limited
Thalaghattapura,12.8714097,77.5383958,metro_station,,,,Bangalore Metro Rail Corporation Limited
Vajarahalli,12.8774369,77.5447414,metro_station,,,,Bangalore Metro Rail Corporation Limited
Doddakallasandra,12.8846435,77.5527546,metro_station,,,,Bangalore Metro Rail Corporation Limited
Konanakunte Cross,12.8889671,77.5626665,metro_station,,,,Bangalore Metro Rail Corporation Limited
Mandi House,28.6255149,77.2341926,metro_station,,,,Delhi Metro Rail Corporation Limited
Dabri Mor - Janakpuri South,28.61572,77.0851893,metro_station,,,,Delhi Metro Rail Corporation Limited
Dakshineshwar,22.6540325,88.3637533,metro_station,,,,"Metro Railway, Kolkata"
Rainbow Metro Station,28.5743583,77.3782348,metro_station,,,,NR
Pimpri Chinchwad Municipal Corporation (PCMC),18.6293185,73.8032857,metro_station,,,,
New Market,17.3734268,78.5031775,metro_station,,,,Hyderabad Metro Rail Limited
Thakurpukur,22.4643677,88.3075322,metro_station,,,,"Metro Railway, Kolkata"
Sakher Bazar,22.4748533,88.3099593,metro_station,,,,"Metro Railway, Kolkata"
Taratala,22.5076863,88.3203842,metro_station,,,,"Metro Railway, Kolkata"
Joka,22.452347,88.3018236,metro_station,,,,"Metro Railway, Kolkata"
Nirman Vihar,28.6364592,77.2868145,metro_station,,,,Delhi Metro Rail Corporation Limited
Vaishali,28.6496701,77.339575,metro_station,,,,Delhi Metro Rail Corporation Limited
Kaushambi,28.6452857,77.3243429,metro_station,,,,Delhi Metro Rail Corporation Limited
Gundavali,19.1145125,72.8551556,metro_station,,,,
Mogra,19.1284364,72.8554558,metro_station,,,,
Jogeshwari (East),19.1429455,72.855185,metro_station,,,,
Goregaon (East),19.1524492,72.8565966,metro_station,,,,
Andheri (West),19.1291337,72.8314307,metro_station,,,,
Lower Oshiwara,19.1406979,72.8317139,metro_station,,,,
Oshiwara,19.1460351,72.833952,metro_station,,,,
Goregaon (West),19.1530241,72.8356664,metro_station,,,,
Lower Malad,19.1730984,72.8364801,metro_station,,,,
Malad (West),19.1852851,72.8358611,metro_station,,,,
Valnai-Meeth Chowky,19.1968293,72.8337752,metro_station,,,,
Modinagar South,28.8177287,77.5567409,metro_station,,,,National Capital Region Transport Corporation
Meerut South,28.9047287,77.6328394,metro_station,,,,National Capital Region Transport Corporation
Murad Nagar,28.7703816,77.5107041,metro_station,,,,National Capital Region Transport Corporation
Modinagar North,28.8434879,77.5831957,metro_station,,,,National Capital Region Transport Corporation
Mansarovar Park,28.675385,77.3008678,metro_station,,,,Delhi Metro Rail Corporation Limited
Agra Fort Station,27.1749679,78.0222048,metro_station,,,,
Taj Mahal,27.168399,78.0355997,metro_station,,,,
Shivaji Nagar,18.532172,73.8496602,metro_station,,,,
District Court,18.5292042,73.8570209,metro_station,,,,
Chhatrapati Sambhaji Udyan,18.5201583,73.8474797,metro_station,,,,
Deccan Gymkhana,18.5164599,73.8443734,metro_station,,,,
Kashmere Gate,28.6686728,77.228051,metro_station,,,,
Yashobhoomi Dwarka Sector 25,28.5508323,77.0453073,metro_station,,,,Delhi Metro Rail Corporation Limited
Benniganahalli,12.9965359,77.6684581,metro_station,,,,Bangalore Metro Rail Corporation Limited
Challaghatta,12.8973303,77.4612175,metro_station,,,,Bangalore Metro Rail Corporation Limited
Challaghatta,12.897289,77.4612476,metro_station,,,,Bangalore Metro Rail Corporation Limited
Duhai Depot Station,28.7422822,77.4676413,metro_station,,,,National Capital Region Transport Corporation
Duhai,28.7270172,77.4714071,metro_station,,,,National Capital Region Transport Corporation
Ghaziabad,28.6725546,77.4137315,metro_station,,,,National Capital Region Transport Corporation
Guldhar,28.6995434,77.4457502,metro_station,,,,National Capital Region Transport Corporation
CBD Belapur,19.0205999,73.0402663,metro_station,,,,CIDCO
RBI Colony,19.0229846,73.0479433,metro_station,,,,CIDCO
Kasturchand Park,21.1543646,79.081477,metro_station,,,,MahaMetro
Zero Mile,21.1466946,79.0806347,metro_station,,,,MahaMetro
Sitabuldi,21.1414478,79.0824843,metro_station,,,,MahaMetro
Chhatrapati Square,21.109139,79.0696114,metro_station,,,,MahaMetro
Ajni Square,21.1182122,79.0721071,metro_station,,,,MahaMetro
Ujjwal Nagar,21.0963504,79.0663192,metro_station,,,,MahaMetro
Jaiprakash Nagar,21.1036395,79.068179,metro_station,,,,MahaMetro
Airport,21.0862162,79.0637884,metro_station,,,,MahaMetro
Airport South,21.0790559,79.0605257,metro_station,,,,MahaMetro
Khapri,21.0493478,79.0478446,metro_station,,,,MahaMetro
Institute of Engineers,21.1383147,79.0700943,metro_station,,,,MahaMetro
Jhasi Rani Square,21.1407181,79.0778268,metro_station,,,,MahaMetro
Rachna Ring Road,21.121523,79.0294117,metro_station,,,,MahaMetro
Vasudev Nagar,21.1187853,79.0194659,metro_station,,,,MahaMetro
Bansi Nagar,21.1161997,79.0126033,metro_station,,,,MahaMetro
Lokmanya Nagar,21.1108046,79.001754,metro_station,,,,MahaMetro
Shankar Nagar Square,21.1362125,79.0616442,metro_station,,,,MahaMetro
LAD College,21.1329162,79.054798,metro_station,,,,MahaMetro
Ambazari Lake,21.1286919,79.0457448,metro_station,,,,MahaMetro
Subhash Nagar,21.1233162,79.0420532,metro_station,,,,MahaMetro
Hemanta Mukhopadhyay,22.5148514,88.4014276,metro_station,,,,"Metro Railway, Kolkata"
Kavi Sukanta,22.5053017,88.4009957,metro_station,,,,"Metro Railway, Kolkata"
Jyotirindra Nandi,22.4956263,88.398449,metro_station,,,,"Metro Railway, Kolkata"
Satyajit Ray,22.4846775,88.3926447,metro_station,,,,"Metro Railway, Kolkata"
Biocon Hebbagodi,12.8290325,77.6813744,metro_station,,,,Bangalore Metro Rail Corporation Limited
DG Corner  Stationery,25.2634583,82.986968,metro_station,,,,
Mahakaran,22.5720777,88.3505275,metro_station,,,,"Metro Railway, Kolkata"
Howrah,22.5833648,88.3403452,metro_station,,,,"Metro Railway, Kolkata"
Howrah Maidan,22.5838585,88.3339983,metro_station,,,,"Metro Railway, Kolkata"
Majerhat,22.5191466,88.3236555,metro_station,,,,"Metro Railway, Kolkata"
Thrippunithura Terminal,9.9505728,76.3517236,metro_station,,,,Kochi Metro Rail Limited
Bund Garden,18.5405933,73.8834394,metro_station,,,,
Yerwada,18.5453173,73.8866882,metro_station,,,,
Kalyani Nagar,18.5444806,73.9056979,metro_station,,,,
Ramwadi,18.5571183,73.9086071,metro_station,,,,
Esplanade (Line 2),22.5641292,88.3502752,metro_station,,,,"Metro Railway, Kolkata"
Kavi Subhash,22.4711093,88.3980989,metro_station,,,,"Metro Railway, Kolkata"
Thousand Lights Metro Rail Station - தௌசன்ட் லைட்ஸ் மெட்ரோ ரயில் ஸ்டேஷன்,13.0579367,80.2581872,metro_station,,Chennai,,
JNTU College,17.4986555,78.3888661,metro_station,,,,Hyderabad Metro Rail Limited
KPHB Colony,17.4938025,78.4017651,metro_station,,,,Hyderabad Metro Rail Limited
Miyapur,17.4965392,78.3730252,metro_station,,,,Hyderabad Metro Rail Limited
Victoria Memorial,17.3618537,78.5439302,metro_station,,,,Hyderabad Metro Rail Limited
Dilsukh Nagar,17.3685518,78.5257172,metro_station,,,,Hyderabad Metro Rail Limited
L. B. Nagar Metro Station,17.3498286,78.5479138,metro_station,,,,Hyderabad Metro Rail Limited
Osmania Medical College,17.3823471,78.4811327,metro_station,,,,Hyderabad Metro Rail Limited
Nampally,17.3923995,78.4701477,metro_station,,,,Hyderabad Metro Rail Limited
Moosapet,17.4719703,78.4260361,metro_station,,,,Hyderabad Metro Rail Limited
Lakdi-ka-pul,17.4039063,78.4650247,metro_station,,,,Hyderabad Metro Rail Limited
Khairatabad,17.4115319,78.4608458,metro_station,,,,Hyderabad Metro Rail Limited
Irrum Manzil,17.4205559,78.456101,metro_station,,,,Hyderabad Metro Rail Limited
Gandhi Bhavan,17.3861073,78.4730995,metro_station,,,,Hyderabad Metro Rail Limited
ESI Hospital,17.4474042,78.4383501,metro_station,,,,Hyderabad Metro Rail Limited
Erragadda,17.4573276,78.4334618,metro_station,,,,Hyderabad Metro Rail Limited
Chaitanyapuri,17.368286,78.5359409,metro_station,,,,Hyderabad Metro Rail Limited
Bharat Nagar,17.4641604,78.4300051,metro_station,,,,Hyderabad Metro Rail Limited
Balanagar,17.4768224,78.4219645,metro_station,,,,Hyderabad Metro Rail Limited
Assembly,17.3981092,78.4708176,metro_station,,,,Hyderabad Metro Rail Limited
Panjagutta,17.4286312,78.4511322,metro_station,,,,Hyderabad Metro Rail Limited
Nagasandra,13.0479536,77.5001422,metro_station,,,,Bangalore Metro Rail Corporation Limited
Yeshwantpur,13.0232678,77.5498751,metro_station,,,,Bangalore Metro Rail Corporation Limited
Kadugodi Tree Park,12.9856503,77.7470121,metro_station,,,,Bangalore Metro Rail Corporation Limited
Bandra Colony,19.0699627,72.8493601,metro_station,,,,Mumbai Metro Rail Corporation Ltd
Santacruz,19.0792887,72.8471185,metro_station,,,,Mumbai Metro Rail Corporation Ltd
CSMI Airport Domestic T1,19.093899,72.8535765,metro_station,,,,Mumbai Metro Rail Corporation Ltd
Sahar Road,19.102196,72.8652361,metro_station,,,,Mumbai Metro Rail Corporation Ltd
Krishna Park Extension,28.6477823,77.0844169,metro_station,,,,Delhi Metro Rail Corporation Limited
Bangur Nagar,19.1624723,72.8348708,metro_station,,,,
Juna Koba,23.1419718,72.6386122,metro_station,,,,Gujarat Metro Rail Corporation Limited
Koba Circle,23.1322508,72.631042,metro_station,,,,Gujarat Metro Rail Corporation Limited
Narmada Canal,23.1251457,72.6220979,metro_station,,,,Gujarat Metro Rail Corporation Limited
Tapovan Circle,23.1201271,72.6157987,metro_station,,,,Gujarat Metro Rail Corporation Limited
Vishwakarma College,23.1141999,72.6083864,metro_station,,,,Gujarat Metro Rail Corporation Limited
Koteshwar Road,23.1031114,72.6021329,metro_station,,,,Gujarat Metro Rail Corporation Limited
Raysan,23.1663954,72.6483252,metro_station,,,,Gujarat Metro Rail Corporation Limited
Randesan,23.1790845,72.6472905,metro_station,,,,Gujarat Metro Rail Corporation Limited
Dholakuva Circle,23.1859445,72.6433202,metro_station,,,,Gujarat Metro Rail Corporation Limited
Infocity,23.1922574,72.6397126,metro_station,,,,Gujarat Metro Rail Corporation Limited
Sector-1,23.2049077,72.6431519,metro_station,,,,Gujarat Metro Rail Corporation Limited
GNLU,23.1544724,72.6474689,metro_station,,,,Gujarat Metro Rail Corporation Limited
GIFT City,23.1533555,72.6855536,metro_station,,,,Gujarat Metro Rail Corporation Limited
AEC,23.0751088,72.593291,metro_station,,,,Gujarat Metro Rail Corporation Limited
Sabarmati,23.0856303,72.592206,metro_station,,,,Gujarat Metro Rail Corporation Limited
Motera Stadium,23.0967726,72.596692,metro_station,,,,Gujarat Metro Rail Corporation Limited
Hathi gate station,21.9359285,75.1391726,metro_station,,Barwani,,
कसबा पेठ,18.5214436,73.8595779,metro_station,,,,
Teen Hath Naka Station,19.1870891,72.9615683,metro_station,,,,
Thaltej,23.049748,72.5160152,metro_station,,,,Gujarat Metro Rail Corporation Limited
Thaltej Gam,23.0502062,72.5070123,metro_station,,,,Gujarat Metro Rail Corporation Limited
Elamkulam Station,9.9669452,76.3086175,metro_station,,,,Kochi Metro Rail Limited
miyapur metro,17.4963825,78.3727487,metro_station,,,,
Kukatpally Metro,17.4852053,78.4115793,metro_station,,,,
Balanagar Metro,17.4768693,78.4219076,metro_station,,,,
PDPU,23.1548645,72.6612117,metro_station,,,,Gujarat Metro Rail Corporation Limited
Dadar,19.0236238,72.8392214,metro_station,,,,Mumbai Metro Rail Corporation Ltd
Shitala Devi Mandir,19.0384641,72.8419646,metro_station,,,,Mumbai Metro Rail Corporation Ltd
Dharavi,19.0462612,72.849741,metro_station,,,,Mumbai Metro Rail Corporation Ltd
Acharya Atre Chowk,18.9978202,72.8177201,metro_station,,,,Mumbai Metro Rail Corporation Ltd
Worli,19.0086057,72.8192741,metro_station,,,,Mumbai Metro Rail Corporation Ltd
Siddhivinayak Temple,19.0158935,72.8309199,metro_station,,,,Mumbai Metro Rail Corporation Ltd
Sachivalaya,23.2150688,72.6587511,metro_station,,,,Gujarat Metro Rail Corporation Limited
Sector-10A,23.2114841,72.6501927,metro_station,,,,Gujarat Metro Rail Corporation Limited
Gandhi Nagar,22.7390002,75.7974981,metro_station,,,,
Super Corridor 6,22.7453322,75.8009181,metro_station,,,,
Super Corridor 5,22.7540767,75.8042463,metro_station,,,,
Super Corridor 4,22.7631039,75.8111477,metro_station,,,,
Veerangana Jhalkari Bai,22.771801,75.8189403,metro_station,,,,
Kalyanpur,26.5037242,80.2525656,metro_station,,,,Uttar Pradesh Metro Rail Corporation
Moti Jheel,26.4791286,80.3178935,metro_station,,,,Uttar Pradesh Metro Rail Corporation
Kanpur Central,26.4538778,80.3517886,metro_station,,,,Uttar Pradesh Metro Rail Corporation
Beleghata,22.5507084,88.4039852,metro_station,,,,"Metro Railway, Kolkata"
Barun Sengupta,22.5438072,88.3992762,metro_station,,,,"Metro Railway, Kolkata"
Ritwik Ghatak,22.5329995,88.3964191,metro_station,,,,"Metro Railway, Kolkata"
VIP Bazar,22.5246847,88.3962331,metro_station,,,,"Metro Railway, Kolkata"
Jai Hind,22.6473058,88.4373029,metro_station,,,,"Metro Railway, Kolkata"
Jessore Road,22.6392646,88.4297701,metro_station,,,,"Metro Railway, Kolkata"
Dum Dum Cantonment,22.6375936,88.4121618,metro_station,,,,"Metro Railway, Kolkata"
ડ્રીમ સિટી,21.1111703,72.7979449,metro_station,,,,
Jagannath Shankar Sheth Metro,18.9699923,72.8211795,metro_station,,,,Mumbai Metro Rail Corporation Ltd
Mahalaxmi,18.979467,72.8254006,metro_station,,,,Mumbai Metro Rail Corporation Ltd
Science Museum,18.9908949,72.8213521,metro_station,,,,Mumbai Metro Rail Corporation Ltd
Cuffe Parade,18.9135692,72.8207152,metro_station,,,,Mumbai Metro Rail Corporation Ltd
Vidhan Bhavan,18.9247813,72.8254934,metro_station,,,,Mumbai Metro Rail Corporation Ltd
Churchgate,18.9314946,72.8269394,metro_station,,,,Mumbai Metro Rail Corporation Ltd
Hutatma Chowk,18.9341849,72.8325037,metro_station,,,,Mumbai Metro Rail Corporation Ltd
Chhatrapati Shivaji Maharaj Terminus,18.9408329,72.831861,metro_station,,,,Mumbai Metro Rail Corporation Ltd
Kalbadevi,18.946329,72.827193,metro_station,,,,Mumbai Metro Rail Corporation Ltd
Girgaon,18.9521015,72.8222065,metro_station,,,,Mumbai Metro Rail Corporation Ltd
Grant Road,18.9632181,72.8180437,metro_station,,,,Mumbai Metro Rail Corporation Ltd
Patliputra Bus Terminal,25.5763224,85.1897525,metro_station,,,,
Malahi Pakri,25.5935082,85.1571167,metro_station,,,,
Mandale,19.0495787,72.9386763,metro_station,,,,
Shivaji Chowk,19.0479345,72.9069699,metro_station,,,,
BSNL,19.0448287,72.9175244,metro_station,,,,
Mankhurd,19.049192,72.9311514,metro_station,,,,
Cyber City,28.4980703,77.0892567,metro_station,,,,Haryana Mass Rapid Transport Corporation Limited
Junpat Village,28.4952335,77.5548429,metro_station,,,,NMRC
Bodaki,28.5075914,77.5635279,metro_station,,,,NMRC
Noida Sector 70,28.6007345,77.3832359,metro_station,,,,NMRC
Noida Sector 61,28.5975718,77.3724805,metro_station,,,,NMRC
Noida Sector 44,28.5512763,77.3352465,metro_station,,,,NMRC
Noida Office,28.5453808,77.3377141,metro_station,,,,NMRC
Akshardham,23.2236772,72.6641817,metro_station,,,,Gujarat Metro Rail Corporation Limited
Juna Sachivalaya,23.228926,72.6594151,metro_station,,,,Gujarat Metro Rail Corporation Limited
Sector-16,23.2338826,72.6501659,metro_station,,,,Gujarat Metro Rail Corporation Limited
Sector-24,23.2385075,72.6414782,metro_station,,,,Gujarat Metro Rail Corporation Limited
Mahatma Mandir,23.2339412,72.6338714,metro_station,,,,Gujarat Metro Rail Corporation Limited
