name,lat,lng,type,state,district
Vidyarambh Play School,12.913892,77.6770532,preschool,,
Srujan Play Home,13.0604817,77.6251237,preschool,,
Vinus Play Home and Day Care,13.0250166,77.6435019,preschool,,
Orkids,13.0233653,77.636232,preschool,,
Little Elly,13.0238997,77.6349809,preschool,,
Smiley Kids,13.0242154,77.6356384,preschool,,
Shemrock Bright,13.0224361,77.6308334,preschool,,
Small World,13.0196337,77.6342441,preschool,,
Orchid Academy,13.017623,77.6341168,preschool,,
Masti ki Pathshala (Teach India),28.5158272,77.0453164,preschool,,
Adarsh Pre School,31.5356215,76.8980328,preschool,,
Kara4Kids,13.0016562,77.596687,preschool,,
Harvest Tender Roots,17.2541555,80.1593708,preschool,,
mominan anganwadi,17.2443434,80.1483127,preschool,,
Holymoon,17.2502555,80.1456498,preschool,,
RR Disney,17.2638295,80.1429513,preschool,,
Daffodils Play School,11.0407408,76.9821129,preschool,,
Preschool,17.4647297,78.3656126,preschool,,
Preschool,17.4392089,78.3616271,preschool,,
Apple Kids,12.9838028,77.7489996,preschool,,
Sanskar,18.4729716,73.8149253,preschool,,
Apple Kids,12.922219,80.1984015,preschool,,
Manas Microsystems Pvt. Ltd.,18.6278783,73.8369404,preschool,,
Little Feet,19.1103536,72.8522706,preschool,,
Preschool,17.4946996,78.3639995,preschool,,
UPS Thirumala,8.5064144,76.9994904,preschool,,
Klay Day Care,12.9831083,77.707991,preschool,,
Bhegas Kinder Garden,17.4529037,78.5287131,preschool,,
Viha,12.9687203,77.7446763,preschool,,
Kidzee Play school,12.9272988,77.6375732,preschool,,
Preschool,12.9286689,77.6354869,preschool,,
New Presidency School,13.1302265,78.1143633,preschool,,
Anganawadi,13.1472717,77.3344365,preschool,,
Blossom Prenursery,13.004565,77.549383,preschool,,
St. Joseph's Womens' College,9.4985211,76.3290518,preschool,,
amrita Technologies,10.0337894,76.2919651,preschool,,
Amrita School Of Nursing,10.0320885,76.2903665,preschool,,
Anubhav Play school,12.9370761,77.6204976,preschool,,
Vanita Vidyalaya,15.8604224,74.5074009,preschool,,
Maple Bear Canadian Pre-School,12.9724603,77.7506679,preschool,,
Joy Of Learning,12.911762,77.637224,preschool,,
Aloha Kinderstart,13.0139207,80.181246,preschool,,
Nursery,10.8668889,72.1959914,preschool,,
Preschool,28.6023098,77.0450914,preschool,,
The Hope Project,28.5903058,77.2419,preschool,,
Floretz Montessori,12.9088046,77.6497344,preschool,,
Bal Vidya Mandir,17.0460183,75.213895,preschool,,
Euro Kids,12.2864669,76.6284274,preschool,,
"LPS, Thiruvallam",8.4411374,76.9573759,preschool,,
Little Elly,12.9270725,77.6690293,preschool,,
Daffodil Pre School,12.9742243,77.7466743,preschool,,
Sneha Kiran,12.9970813,75.3360636,preschool,,
Your Kids Are Our Kids,12.8483294,77.6625545,preschool,,
TreeHouse,18.9174556,72.8265135,preschool,,
Jumbo Kids,12.9156658,77.5902764,preschool,,
Podar Happy Kids,12.915569,77.5902817,preschool,,
Shristi Montessari,12.9170174,77.6723225,preschool,,
Pearls Nursery,12.9708076,80.2184332,preschool,,
Preschool,28.6178334,76.9843272,preschool,,
MAP,26.2288262,81.2482871,preschool,,
Shemrock Happy Hearts,13.001038,77.6623051,preschool,,
Samaj Mandir,18.4701962,73.8559466,preschool,,
Samaj Mandir,18.4705862,73.8558528,preschool,,
Kids R Us,13.0280878,80.1325689,preschool,,
Euro Kids,12.892272,77.6104915,preschool,,
Little Millenium,12.8926145,77.6107222,preschool,,
Rayen Kids,12.8927015,77.6192826,preschool,,
Amma Nursery,8.4915902,76.9316091,preschool,,
St.Anne's Kindergarten,8.1542425,77.4230695,preschool,,
Serra PreSchool,12.9726902,77.6389158,preschool,,
Urs Child Hut,30.8375803,76.1903385,preschool,,
Kids at Play DayCare Center,13.0223009,80.173833,preschool,,
apple kids,12.3328074,75.1088476,preschool,,
Edify Kids,12.8836176,77.5821892,preschool,,
Aura Montessori House of Children,12.8896231,77.5823913,preschool,,
Kindergarten School,9.1853974,78.020072,preschool,,
Preschool,8.9042786,77.3604843,preschool,,
Podar Jumbo Kids,12.94432,80.2396488,preschool,,
Euro Kids,12.9352086,80.231659,preschool,,
Kidzee,12.9627123,80.2421107,preschool,,
Atam Nursery School,30.8865416,75.8510876,preschool,,
Glendale Edufun,17.4294359,78.4567918,preschool,,
Preschool,12.2890375,76.6294424,preschool,,
Euro Kids,12.885152,77.595731,preschool,,
Preschool,8.3715738,77.9488512,preschool,,
SP Memorial Primary School,25.46388,81.863747,preschool,,
Alamelu Mangai thayarammal Montessori School,13.0752066,80.272253,preschool,,
Euro Kids,15.3495129,75.1042302,preschool,,
Kindergarden,12.0033413,79.8086751,preschool,,
Kids Meadows,28.5561109,77.0571541,preschool,,
"Anganwadi, Rampatna",12.33183,76.322917,preschool,,
Anganwadi,12.304025,76.269202,preschool,,
Anganwadi Channasoge,12.28215,76.260803,preschool,,
Anganwadi Biranahalli Kavalu,12.253278,76.239529,preschool,,
Anganwadi Biranahalli,12.246415,76.237733,preschool,,
Anganwadi Hoskote,12.277801,76.243993,preschool,,
Anganwadi Kodluru,12.25888,76.250928,preschool,,
Anganwadi Bijapura kalony,12.28579,76.196145,preschool,,
Anganwadi Nagamangala,12.322907,76.210496,preschool,,
Anganwadi Mutturayanahahosahalli,12.3081269,76.1889959,preschool,,
Anganwadi Hunasegala,12.3025569,76.219556,preschool,,
Anganwadi Adiganahalli,12.30554,76.230518,preschool,,
Anganwadi Kallahalli,12.316586,76.219495,preschool,,
Anganwadi Attiguppe,12.330483,76.206876,preschool,,
Anganwadi Kallabettakaloni,12.341396,76.205632,preschool,,
Anganwadi Chilkunda,12.33713,76.187378,preschool,,
Anganwadi Habbanakuppe,12.3598789,76.188078,preschool,,
Anganwadi Hosakoppalu,12.350766,76.189839,preschool,,
Anganwadi Harinahalli,12.304222,76.180352,preschool,,
Anganwadi Kalkada,12.29193,76.178838,preschool,,
Anganwadi Kanagal,12.314413,76.175304,preschool,,
Anganwadi Vadlimanuganahalli,12.3093629,76.161273,preschool,,
Anganwadi Devarajakaloni,12.284829,76.174012,preschool,,
Anganwadi Hemmige Hardy,12.2670449,76.180392,preschool,,
Anganwadi Hemmige,12.275763,76.179032,preschool,,
Anganwadi Hemmigekaloni,12.280519,76.17419,preschool,,
Anganwadi Karnakuppe,12.2915549,76.160948,preschool,,
Anganwadi Biratammanahallikloni,12.2754279,76.157846,preschool,,
Anganwadi Biratammanahalli,12.265669,76.148719,preschool,,
Anganwadi Kademanuganakalli,12.258259,76.139795,preschool,,
Anganwadi Thundhebbala,12.245194,76.135568,preschool,,
Anganwadi Hebbala,12.242041,76.133992,preschool,,
Anganwadi Kalabuchanahalli,12.2279789,76.127235,preschool,,
Anganwadi Neralakuppe,12.219572,76.135878,preschool,,
Anganwadi Neralakuppe,12.220156,76.136319,preschool,,
Anganwadi Kachuvinahalli,12.220821,76.146419,preschool,,
Anganwadi Shettahalli,12.221485,76.164279,preschool,,
"Anganwadi B,AR,Kawal",12.2488049,76.161453,preschool,,
Rayen Kids,12.8999647,77.6214378,preschool,,
Anganwadi Boovekaloni,12.248915,76.143515,preschool,,
Anganwadi Ballenahosahalli,12.19661,76.138962,preschool,,
Anganwadi Sindenahalli,12.2074963,76.176612,preschool,,
Anganwadi Negatturu,12.208358,76.163779,preschool,,
Anganwadi Abburu,12.218837,76.179814,preschool,,
"Anganwadi, Hagaranahalli",12.357333,76.36671,preschool,,
Anganwadi (3 ) Kattemalalawadi,12.354427,76.290158,preschool,,
Anganwadi Kattemalalawadi,12.349245,76.289898,preschool,,
Anganwadi (1 ) Kattemalalawadi,12.353359,76.28805,preschool,,
Anganwadi (5) Kattemalalawadi,12.356413,76.290582,preschool,,
Anganwadi Kattemalalawadi Koppalu,12.347993,76.308873,preschool,,
Preschool,14.4454309,75.9000352,preschool,,
Anganawadi,16.5364101,77.0420389,preschool,,
Anganwadi Chinthanhalli Thanda,16.8081335,77.3112933,preschool,,
Anganwadi Kandakoor,16.7771208,77.3284507,preschool,,
EuroKids Manapakkam,13.0141464,80.1727814,preschool,,
Anganawadi,16.7773143,77.1832951,preschool,,
Tree House Play School,19.176005,72.8730118,preschool,,
Anganawadi,12.2364022,76.1875044,preschool,,
Anganwadi,16.7756181,77.395581,preschool,,
Anganwadi 2,16.7353619,77.3815357,preschool,,
"Anganwadi, Konkal",16.7358033,77.380144,preschool,,
Anganwadi,16.7169949,77.3937713,preschool,,
Anganwadi,16.6908678,77.3844058,preschool,,
"Anganwadi, Karemuddenhalli",12.2033378,76.3791221,preschool,,
"Anganwadi, Thammadhalli",12.3293678,76.2567009,preschool,,
"Anganwadi,Naganhalli",12.3321661,76.2632378,preschool,,
Anganawadi,12.342586,76.2629392,preschool,,
"Anganawadi, Yashodarapura",12.3112398,76.2531201,preschool,,
"Anganawadi, Sannena halli",12.3499492,76.2586483,preschool,,
Anganwadi 2,13.9887144,76.1747535,preschool,,
Anganwadi_1,13.990514,76.1763018,preschool,,
Anganawadi,12.223127,76.411277,preschool,,
Anganwadi,12.2178244,76.4095525,preschool,,
Anganwadi,12.2230925,76.4123619,preschool,,
Anganawadi,12.1890804,76.4151234,preschool,,
Anganawadi,12.1980695,76.4336471,preschool,,
Anganawadi,12.3816501,76.4573831,preschool,,
Anganwadi,12.3800129,76.4638617,preschool,,
Anganwadi,12.256421,76.418054,preschool,,
Anganwadi,12.258312,76.42823,preschool,,
Anganwadi,12.265033,76.397069,preschool,,
Anganwadi,12.27654,76.414659,preschool,,
Anganwadi,12.279698,76.388794,preschool,,
Anganwadi,12.283649,76.392637,preschool,,
Anganwadi,12.285499,76.423587,preschool,,
Anganwadi,12.308672,76.448039,preschool,,
Anganwadi,12.314334,76.451361,preschool,,
Anganwadi,12.319354,76.442603,preschool,,
Anganwadi,12.321175,76.460344,preschool,,
Anganwadi,12.341529,76.439956,preschool,,
Vivero International Preschool,12.9680875,77.7487636,preschool,,
Anganwadi,12.380995,76.442168,preschool,,
Anganwadi,12.38132,76.443935,preschool,,
Anganwadi,12.394023,76.445424,preschool,,
Anganwadi,12.40195,76.444254,preschool,,
Anganwadi,12.403257,76.45068,preschool,,
Anganwadi,12.3606561,76.4606863,preschool,,
Anganwadi,12.3612354,76.4702451,preschool,,
Preschool,11.7965206,76.0066062,preschool,,
Preschool,11.8001228,76.0056406,preschool,,
Anganwadi,16.5950805,77.0563972,preschool,,
Anganwadi,16.600186,77.035909,preschool,,
Anganwadi,16.630103,77.06018,preschool,,
Anganwadi,16.6408721,77.0901151,preschool,,
Anganwadi,16.642823,77.08258,preschool,,
Anganwadi,16.645966,77.081835,preschool,,
Anganwadi,16.6609327,77.0758936,preschool,,
Anganwadi,16.6779136,77.0645818,preschool,,
Anganwadi (138),16.578401,76.849093,preschool,,
Anganwadi (189),16.5885246,76.8164165,preschool,,
Anganwadi,16.5753814,76.8362794,preschool,,
Anganwadi,16.583526,76.815894,preschool,,
Anganwadi,16.5893505,76.8141173,preschool,,
Anganwadi,16.6017721,76.8827563,preschool,,
Anganwadi,16.602802,76.8825729,preschool,,
Anganwadi,16.6029287,76.8809293,preschool,,
Anganwadi,16.6302788,76.8490985,preschool,,
Anganwadi,16.630251,76.853259,preschool,,
Anganwadi,16.6307989,76.8529987,preschool,,
Anganwadi,16.6499684,76.8513936,preschool,,
Anganwadi(86),16.66138,76.8564488,preschool,,
Anganwadi(87),16.66195,76.8581877,preschool,,
Old Anganwadi,16.5759352,76.8371679,preschool,,
Euro Kids,12.921123,77.5812781,preschool,,
Toddler's Garden,26.3245326,94.5152814,preschool,,
Babyland,26.3246553,94.5154986,preschool,,
Loharu Montessori Childrens' School,26.9039855,75.7821092,preschool,,
Rayen Kids,12.8914778,77.6197053,preschool,,
Saraswathi Vidyalaya,12.9830589,80.1889595,preschool,,
Mohd Colony Anganwadi,16.691934,76.847727,preschool,,
Anganwadi,16.5608971,76.8639039,preschool,,
Anganwadi,16.5615752,76.8681134,preschool,,
Anganawadi,16.5448744,76.8767419,preschool,,
Anganwadi,16.5459395,76.8794306,preschool,,
Anganwadi,16.5041803,76.9118269,preschool,,
Anganwadi,16.5002576,76.8884948,preschool,,
Anganwadi,16.5121458,76.9340837,preschool,,
Cildren Welfare Association,19.0620152,72.8457943,preschool,,
Podar Jumbo Kids,12.8857556,77.5823701,preschool,,
Bachpan,12.8841397,77.5827195,preschool,,
Touch Stone,12.891665,77.5785483,preschool,,
Holy Saint High School,12.965202,77.5380586,preschool,,
Anganawadi,16.5883738,77.0410464,preschool,,
Anganwadi,16.5687722,77.0589395,preschool,,
Anganwadi,16.6502389,77.0372376,preschool,,
Anganwadi,16.6496555,77.0369908,preschool,,
Poovathumchola Chalidom Anganwadi,11.5368788,75.8582325,preschool,,
Odikkuzhi Anganwadi,11.5410225,75.8536969,preschool,,
Roots Montessori,12.8885561,77.5790692,preschool,,
Little Elly,12.8887777,77.5791574,preschool,,
Preschool,11.5318404,75.8582748,preschool,,
Convent Play School,20.8299116,85.6176846,preschool,,
Anganwadi,16.8460308,76.996765,preschool,,
Anganavadi,14.931127,76.5643411,preschool,,
Anganwadi,16.8389315,77.1309109,preschool,,
Anganwadi,16.8376607,77.1316689,preschool,,
Krishnapuram School,11.2422225,78.1212322,preschool,,
Periyur School,11.2345779,78.1214919,preschool,,
Jamati Montessri,12.9662697,77.6361076,preschool,,
Rainbow Playschool,12.9661911,77.636518,preschool,,
Baliram Patil School,19.8962463,75.3580028,preschool,,
Hajari Nurshing Home,19.8742646,75.3224426,preschool,,
Eurokids,12.9855216,80.2200277,preschool,,
Little Millenium,12.9680288,77.7488554,preschool,,
Anganwadi (156),16.5601701,76.9127108,preschool,,
Anganwadi,16.5530507,76.9302566,preschool,,
Anganwadi,16.5355173,76.9569371,preschool,,
Anganwadi,16.5372247,76.9555046,preschool,,
Anganwadi,16.5107308,76.9513313,preschool,,
Anganwadi,16.735856,76.740854,preschool,,
Anganwadi,16.737354,76.748312,preschool,,
Anganwadi,16.6003844,76.9167798,preschool,,
Anganwadi,16.578499,76.925838,preschool,,
Anganwadi,16.562421,76.959375,preschool,,
Anganwadi,16.5634573,76.9595521,preschool,,
Anganwadi,16.565029,76.955144,preschool,,
Anganwadi,16.5714041,76.993265,preschool,,
Anganwadi,16.5573564,77.0125708,preschool,,
Anganwadi,16.535008,77.041456,preschool,,
Anganwadi,16.5578957,77.0268031,preschool,,
Anganwadi,16.5331424,77.0205221,preschool,,
Anganwadi,16.5138989,77.0204154,preschool,,
New Horizon Vidya Mandir,12.9262377,77.6988568,preschool,,
Your kids r our kids,12.9296663,77.6009087,preschool,,
Anganvadi,9.7224738,76.5355618,preschool,,
Kinder World,22.5800138,88.3739903,preschool,,
Anganvaadi,9.7120085,76.6366811,preschool,,
Klay prep school and daycare,12.9553777,77.6418351,preschool,,
Maple Bear,12.9648261,77.6382967,preschool,,
cheruvu,19.4765823,79.584403,preschool,,
Preschool,17.5584317,78.4635403,preschool,,
Anganwadi,32.1941468,76.3640517,preschool,,
Shubodhaya Children Care Centre,13.0181725,77.5645445,preschool,,
Eurokids PreSchool,13.0114286,76.105808,preschool,,
Kidzee,15.3978572,74.000444,preschool,,
Golden Bead Montessory School,12.9704001,77.6171095,preschool,,
Balavadi Laha Division,9.3683046,76.9027067,preschool,,
Ranni-Perunadu High School,9.3651764,76.8595123,preschool,,
Bethway St. Mary's Girls HSS,9.3629558,76.8652173,preschool,,
TT Thomas Memmorial Higher Secondary School,9.3394997,76.8287,preschool,,
Govt L P School Vadasserikkara,9.339339,76.8283027,preschool,,
GOvt Welfare LP School Kuzhimavu,9.4598353,76.9577147,preschool,,
St Mary's English Medium School Angel Valley,9.4276031,76.9546752,preschool,,
Christraj LP School Manipuzha,9.4568357,76.8583091,preschool,,
Govt Tribal LP School Bhandaramadom,9.5051243,76.8865677,preschool,,
Sree Narayana Public School,9.5288817,76.8856746,preschool,,
Govt Tribal LP School Thumarampara,9.4694802,76.8840155,preschool,,
St Mary's Convent School,9.4572389,76.883989,preschool,,
Jawahar Navodaya Vidhyalaya,9.4216127,76.8634501,preschool,,
C M S Lower Primary School,9.4331514,76.8519883,preschool,,
Govt ITI Nedumkavu Vayal,9.4544467,76.8446487,preschool,,
St Thomas High School,9.4427617,76.8538601,preschool,,
Govt LP School chathanthara,9.4226314,76.8826016,preschool,,
St Josephs Sunday School Mannadissala,9.4180442,76.8605611,preschool,,
Govt HSST Kadumeenchira,9.3969653,76.853512,preschool,,
CMS LP School,9.5383604,76.8827781,preschool,,
Govt. Welfare Lower Primary school,9.4559872,76.8451499,preschool,,
Government Upper Primary School Karimtharuvi,9.6635147,77.0026896,preschool,,
Chithambaram Memorial GHSS,9.5707863,77.0001387,preschool,,
Mariagiri EMHS School,9.580089,76.982653,preschool,,
Panchayath Hss Vandiperiyar,9.5734558,77.0765829,preschool,,
LP School,9.6436772,77.1723335,preschool,,
Kallivayalil Pappan Memmorial Public School and Juniour College,9.5381124,76.9035846,preschool,,
"Kumaran Ashan Memorial LP School ,36th Mile",9.5379731,76.9134933,preschool,,
Peruvanthanam UP School,9.5528238,76.9273132,preschool,,
St Antonys High School,9.5392957,76.8912208,preschool,,
St Joseph's HSS,9.5504486,76.9364371,preschool,,
St Louis LP School,9.5389254,76.8966335,preschool,,
St. Xaviour's Nursery School,11.6418764,75.8052324,preschool,,
Arpit Kid Care,30.1376169,74.1922826,preschool,,
Anganavadi Pottipara,10.9798791,76.1279507,preschool,,
Lakshamveedu Anganvadi,10.9835717,76.1306081,preschool,,
SECRWWO's Kindergarten Ajni,21.1264362,79.0912706,preschool,,
Shishu Vihar,20.7632327,78.5891015,preschool,,
Petals School,28.5803757,77.257053,preschool,,
Mira Pre-School,18.9160825,72.8196406,preschool,,
Childrens Land,11.9806134,79.776968,preschool,,
Anganavadi,12.2218971,76.3365921,preschool,,
First Steps Primary School,15.279341,73.934425,preschool,,
BLACK THUNDER,11.3244481,76.912938,preschool,,
Parilok,12.8827588,77.5848287,preschool,,
"Anganawadi No. 1, Hosakote",12.1905148,76.7853813,preschool,,
"Anganawadi No. 3, Hosakote",12.1805884,76.7892791,preschool,,
"Anganawadi No. 4, Hosakote",12.1792616,76.7870168,preschool,,
"Anganawadi No. 5, Hosakote",12.1883552,76.7847673,preschool,,
"Anganawadi No. 2, Hosakote",12.1886307,76.7889068,preschool,,
"Anganawadi No. 3, Alathuru",12.1773693,76.7809734,preschool,,
"Anganawadi No. 2, Alathuru",12.1781511,76.7769277,preschool,,
"Anganawadi, Madayyanahundi",12.1814157,76.7696559,preschool,,
"Anganawadi No. 1, Alathuru",12.1764302,76.7740684,preschool,,
"Anganawadi No. 2, Mudahalli",12.1719133,76.7650696,preschool,,
"Anganawadi No. 1, Mudahalli",12.1698973,76.7690411,preschool,,
"Anganawadi No. 2, Hulimavu",12.160567,76.7316298,preschool,,
"Anganawadi, Bokahalli Hosuru",12.1616254,76.7371612,preschool,,
"Anganawadi, Thoremavu",12.1272445,76.7056262,preschool,,
"Anganawadi, Himmavu",12.155043,76.7145779,preschool,,
"Anganawadi No. 1, Bokkalli",12.1471459,76.7366349,preschool,,
Anganwadi,15.00648,74.065025,preschool,,
"Anganawadi No. 1, Himmavuhundi",12.1540287,76.7124603,preschool,,
"Anganawadi No. 2, Himmavuhundi",12.1518451,76.7124718,preschool,,
"Anganawadi No. 3, Bokkalli",12.1466859,76.7370744,preschool,,
"Anganawadi No. 2, Bokkalli",12.147606,76.7371057,preschool,,
"Anganawadi No. 1, Hulimavu",12.1593737,76.7345625,preschool,,
"Anganawadi No. 2, Tumnerahalli",12.1900684,76.7947374,preschool,,
"Anganawadi No. 1, Tumnerahalli",12.1932117,76.7972897,preschool,,
"Anganawadi No. 1, Nandegunda",12.1963918,76.8083468,preschool,,
"Anganawadi, Maradihundi",12.2085954,76.7864724,preschool,,
"Anganawadi No. 1, Nandigundapura",12.2109788,76.7980938,preschool,,
"Anganawadi No. 2, Nandigunda",12.1975758,76.8065756,preschool,,
Dream kids play school ,11.6778579,78.1360429,preschool,,
ramala gardens,19.9534863,79.3051067,preschool,,
Preschool,13.4471232,74.8543109,preschool,,
Vanavani kindergarten,12.9990919,80.2396609,preschool,,
Bachpan,12.9849585,77.6744639,preschool,,
R.C Primary School,8.335757,77.8690143,preschool,,
Euro Kids,12.9471287,77.687053,preschool,,
Lullaby Play School,9.549368,76.762791,preschool,,
Jacobs Ladder,12.9702998,77.6510666,preschool,,
Blooming Kidz Daycare,12.9469444,77.6809697,preschool,,
Kiddie International Academy,12.9484212,77.6822825,preschool,,
Aaramba Preschool,12.9989871,77.547589,preschool,,
Kangaroo Kids Preschool,12.9982685,77.5476352,preschool,,
Preschool,10.1728662,76.2133602,preschool,,
Growing Wonders Gavipuram,12.9472484,77.5669962,preschool,,
Little Millennium,12.8964727,77.7014674,preschool,,
Mom 2 Mom,23.2133273,77.4301138,preschool,,
EuroKids,13.0569362,77.6004968,preschool,,
Kids and Kids,28.6475289,77.3460134,preschool,,
Kidzee kids school,12.9242095,80.1279331,preschool,,
St anne's play school,12.9194222,80.1161854,preschool,,
Kingdom of Kids,28.5424418,77.2180108,preschool,,
Government  anganvadi kids center,12.8855082,80.1517755,preschool,,
Klub dé Niños,28.5689757,77.1627474,preschool,,
Cradle to Crayons,13.0039524,77.5481855,preschool,,
Government kids care center,12.8324522,79.6928443,preschool,,
Gpvt kindergarden,12.8347162,79.688884,preschool,,
Government kindergarten school,12.8343482,79.6853133,preschool,,
Governor kindergarten,12.8257595,79.7000073,preschool,,
Kids360 Indiranagar,12.9796435,77.634709,preschool,,
AV Pre Crèche,12.0039367,79.8110513,preschool,,
Sreeman Vidyalaya,11.9391134,79.8323578,preschool,,
Early Years,28.5498387,77.2480443,preschool,,
Mother's Pride,28.5477704,77.2490814,preschool,,
Rachana Nursery,11.1309047,75.8919043,preschool,,
TLC Montessori Preschool,13.0537198,77.6250674,preschool,,
Sanskrithi Foundation,12.9645896,77.681978,preschool,,
Ambal kindergarten,11.9654013,79.8165646,preschool,,
Little Wits,22.6204319,88.3483765,preschool,,
Kiddys Kindergarten,8.5679396,76.8851497,preschool,,
Tution center,8.549744,76.884469,preschool,,
Young World,12.9315906,77.5174586,preschool,,
Little Elly Preschool,13.0562676,77.6004766,preschool,,
Tots & teens,13.0557218,77.6006233,preschool,,
Kriya preschool,13.0556948,77.6003197,preschool,,
Fancier Kids,25.2872422,83.0042721,preschool,,
Apple kids,12.966938,77.5386653,preschool,,
Times school,12.9671648,77.5386866,preschool,,
Odikkuzhi anganwadi,11.5441579,75.8520555,preschool,,
Cricket ground,32.5389442,75.965224,preschool,,
Scottish Early Years,28.5631714,77.161428,preschool,,
Oi Playschool,13.0638286,77.5864221,preschool,,
Erappanthode Anganwadi,11.52378,75.8311343,preschool,,
Ram Pre Primary School,28.5522732,77.1368775,preschool,,
Jesus Loves Primary & Nursary School,8.865002,77.492658,preschool,,
Sarada Vidyapith,22.6132622,88.4064108,preschool,,
todllers townn,28.5353149,77.2168348,preschool,,
Little Millennium,28.5130679,77.2040027,preschool,,
Clover Leaf Learning Academy,19.1337102,72.8125665,preschool,,
Preschool,15.6769056,73.7110638,preschool,,
Preschool,11.5199002,75.8479618,preschool,,
Ayon International Pre School,12.974343,77.6750273,preschool,,
Kids Castle,12.9740567,77.6752488,preschool,,
Learners Hub,17.3962679,78.4640752,preschool,,
Vision Rainbow,17.4014806,78.4631957,preschool,,
Preschool,28.6265743,77.2325003,preschool,,
Anganwadi Kendra Mauda,21.1455857,79.395145,preschool,,
Manojan Memorial Kindergarten,11.6326742,75.6470317,preschool,,
GRM Aksharaalaya School,11.9380378,79.8281685,preschool,,
Little Ville,17.3608264,78.5348055,preschool,,
Patasi Bai Nursery School,12.9723595,77.5759819,preschool,,
Precare Kids' School & Daycare,11.279343,75.8124704,preschool,,
El Shaddai,15.2713535,73.9627388,preschool,,
Preschool,27.4318519,81.2521513,preschool,,
Preschool,27.432318,81.251546,preschool,,
Sesame Street Preschool,18.6056715,73.7691846,preschool,,
Little Elly Preschool,12.8738255,77.6428925,preschool,,
Special Me Preschool & DayCare,12.8769807,77.6392545,preschool,,
Maple Bear Canadian Pre-school,12.8785294,77.6385091,preschool,,
Kera Balmandir,23.0765585,69.5969456,preschool,,
ZPPS Marathi School,17.7812274,73.189019,preschool,,
Sarswati Vidyamadir English Medium School,17.7423239,73.1825273,preschool,,
Honey Kidz Pre School,12.5252052,76.8872454,preschool,,
Honey kidz pre school,12.5251675,76.8873468,preschool,,
Eurokids,19.1152614,72.9078433,preschool,,
Happy Minds,19.1150441,72.9074069,preschool,,
Little Lions,13.0644892,77.6408288,preschool,,
I Play I Learn,13.072543,77.6030995,preschool,,
Patricks,16.2916692,80.4500997,preschool,,
morning star E.M school,15.4579887,78.4360283,preschool,,
zph school,15.4477055,78.4394234,preschool,,
zph school,15.4495494,78.4338859,preschool,,
global art,10.0245013,76.3400259,preschool,,
kunhambu memorial,12.3200326,75.0941727,preschool,,
chungath school,10.6412299,76.0496862,preschool,,
Jayshree Periwal Pre School,26.9004143,75.731453,preschool,,
Preschool,18.7472907,73.877649,preschool,,
Preschool,18.7463025,73.8610173,preschool,,
Erena,8.5602264,76.9011356,preschool,,
Bachpan Play School,17.4430851,78.3859269,preschool,,
EuroKids Pre-School Madhapur,17.4470111,78.3869598,preschool,,
New York Academy,17.4332974,78.3999574,preschool,,
KidsHub - Eager Kids Montessori,17.4431694,78.3903144,preschool,,
Happy Cubs Preschool,17.4389174,78.3905617,preschool,,
Primavera PreSchool,17.4468669,78.3934218,preschool,,
"The Singing Bowl - Preschool, Daycare and Activity Centre",17.4462302,78.3932402,preschool,,
Cremon - Montessori School,17.4484155,78.3906399,preschool,,
"Meridian Kids, Jubilee Hills",17.4342367,78.4021535,preschool,,
Janatha,10.6399315,76.0622518,preschool,,
preliminary school,10.4944176,76.1663214,preschool,,
nest internatinal pre school,10.5367785,76.2083075,preschool,,
bluebell montesory pre school,10.5291358,76.2259462,preschool,,
kidzee pre school,10.5324761,76.2220578,preschool,,
rasmi playschool,10.5329054,76.222721,preschool,,
Kairaly Anganavaadi Muthrathikkara,10.3957805,76.2670421,preschool,,
Madrassa,11.166382,76.1114788,preschool,,
Rising Stars Playway School,30.9275666,75.8166712,preschool,,
Anganvadi,10.3340614,76.1201221,preschool,,
sathkala samsarika nilayam,10.6182931,76.1125654,preschool,,
sree kv darmarajan smaraka kindergarden,10.6227917,76.1163651,preschool,,
Jyothis Kindergarden,10.635934,76.1186,preschool,,
K P Aravinthakshan Smaraka Kindergarden,10.6297224,76.1262096,preschool,,
kindergarden,8.507412,77.0881478,preschool,,
St.Johns matric Hr. Sec school,11.6695787,78.1498969,preschool,,
holy Angels matric Hr.sec school,11.6700771,78.150083,preschool,,
Kid's Castle Preschool,12.972759,77.680127,preschool,,
Preschool,15.6302319,73.7478866,preschool,,
St. Peter's Kindergarten,19.054381,72.8310483,preschool,,
Apple Kids International Pre School,12.9995256,77.5478742,preschool,,Bengaluru Urban
Elemenopy,13.0542403,80.2465591,preschool,,
Footprints,13.054456,80.2474328,preschool,,
Little Me Academy,12.9960993,77.550948,preschool,,
Ipsaa Day Care,12.9651051,77.5976117,preschool,,
Girls Town,9.651852,76.6648071,preschool,,
Preschool,9.4482518,76.543216,preschool,,
Kinder Garten,12.3206243,75.0945206,preschool,,
Loveshore Kindergarden,8.4617541,76.9514241,preschool,,
MET Pre School Ground,10.9878038,76.4690743,preschool,,
first step,12.9125653,77.6090271,preschool,,
My Happy Place,18.9697009,72.8161877,preschool,,
The Learning Curve Worli,19.008711,72.8227848,preschool,,
Sunrise Play School,19.0107186,72.8244454,preschool,,
Simmba Nursery,19.0208376,72.8335822,preschool,,
Simmba Daycare and Kindergarten,19.022073,72.8343067,preschool,,
Daffodils Play School,19.0287008,72.8368204,preschool,,
Edustart Multi-Activity Centre,19.0302467,72.8381972,preschool,,
Tree House Play Group,19.0314857,72.8392574,preschool,,
Tarabai Modak Pre Primary English Medium School,19.0224765,72.8475988,preschool,,
Little More Pre School,19.022245,72.8498777,preschool,,
school park,9.9749593,76.597726,preschool,,
Padmashali Yuvak Sangh Pre-Primary School,19.0112423,72.8442757,preschool,,
Serra International Pre-school,19.0131929,72.8484194,preschool,,
"Little Angels Nursery, Jr. & Sr. K. G.",19.0381969,72.8390078,preschool,,
Podar Jumbo Kids,19.0316654,72.8428383,preschool,,
Bubblez World Preschool,19.0326492,72.8440265,preschool,,
St. Michaels Pre-primary School,19.0413702,72.8410917,preschool,,
Trins Early Learning Centre,8.5622231,76.8763713,preschool,,
Preschool,9.9686805,76.3562639,preschool,,
Toddlers English Clinic,8.5218342,76.9499002,preschool,,
Little Feet,8.5213468,76.9490756,preschool,,
Saraswathy Vidhya Mandir,9.9628339,76.3579015,preschool,,
DPEP Buiding,9.6896706,76.9053419,preschool,,
Pumpkin Patch,8.5159387,76.9566821,preschool,,
Bachpan Playschool,9.9562063,76.2996984,preschool,,
Preschool,9.3787598,76.5679787,preschool,,
Preschool,9.9915853,76.5817815,preschool,,
Choice Kinderland,9.9641574,76.2992932,preschool,,
Preschool,9.8539077,76.6026935,preschool,,
Angnavadi,11.3404393,75.8133746,preschool,,
Little Hearts English Medium School,9.5282116,76.3313194,preschool,,
Orkayam Kindergarten,12.1329497,75.4552768,preschool,,
Vowels English Medium School,8.7016227,76.8462883,preschool,,
Preschool,9.1301494,76.7079356,preschool,,
Al-Fitrah Islamic Pre School,11.2062896,75.8116942,preschool,,
Preschool,11.296045,75.82167,preschool,,
Preschool,11.0110803,76.4827184,preschool,,
Ta:ra Montessori House of children,10.5279544,76.2056637,preschool,,
Jyoti Kshetram Kids' Preschool,8.5432013,76.9610756,preschool,,
Chempaka Kindergarten,8.5521746,76.9607482,preschool,,
Caterpillarz Preschool,10.0629508,76.3935931,preschool,,
kids land daycare and playschool,10.1321504,76.4846917,preschool,,
Preschool,10.5860032,76.1994112,preschool,,
T.I.M.E. Kids pre - school Chunangamvely,10.0870494,76.381197,preschool,,
Preschool,10.2681932,76.3030804,preschool,,
Preschool,10.2679291,76.3026224,preschool,,
Vadera colony Anganavadi,11.9729777,75.3408538,preschool,,
Mudappilasseri Anganavadi,11.1849914,76.2666543,preschool,,
Heavens Islamic Preschool,11.1210881,76.3365601,preschool,,
Preschool,11.7591523,75.4855884,preschool,,
Anganvadi,11.7612041,75.4832536,preschool,,
Nursery School,11.7581417,75.4871169,preschool,,
Preschool,8.5088027,76.9968586,preschool,,
Govt. Nursery,8.2827775,73.0575049,preschool,,
"Anganavadi, Cheruvichery",12.109574,75.2990481,preschool,,
Vengad Lower Primary School,11.8774244,75.5394716,preschool,,
Anganawadi,8.5520423,76.9817722,preschool,,
Eurokids Preschool,10.2313028,76.1943273,preschool,,
International Montessori House of Children,13.0056111,77.6161889,preschool,,
Preschool,14.6693056,74.8367252,preschool,,
Bon Accent,28.7125877,77.1319602,preschool,,
Kidzee Pre School,17.468603,78.4259234,preschool,Telangana,Medchal Malkajgiri
Little Springs,13.0029444,77.6171411,preschool,,
Anganavadi,10.2268394,76.4600121,preschool,,
Anganwadi CNo.  36,11.5585904,76.1398131,preschool,,
Anganwadi CNo. 49,11.5594366,76.1309076,preschool,,
Anganwadi CNo.40,11.5015525,76.156606,preschool,,
Anganwadi CNo. 44,11.5719804,76.1251706,preschool,,
Anganwadi CNo. 26,11.5717135,76.0813202,preschool,,
Anganwadi CNo. 48,11.4859286,76.1569947,preschool,,
Anganwadi CNo. 36,11.5091741,76.1508632,preschool,,
Anganwadi CNo. 54,11.4965029,76.1509437,preschool,,
"SN A Lower Primary School, Kappiset",11.8004878,76.208882,preschool,,
Anganawadi CNo. 35,11.5499737,76.1123375,preschool,,
Anganawadi CNo. 51,11.546744,76.1285165,preschool,,
Kazhukkottur Anganwadi,11.8074018,75.9445128,preschool,,
CNO:53  Anganvady Polanna,11.7810535,76.1944691,preschool,,
Anganawadi CNo. 34,11.5425504,76.130193,preschool,,
Anganawadi CNo. 45,11.5554718,76.1241761,preschool,,
Anganawadi CNo. 53,11.5734325,76.1413552,preschool,,
Anganawadi CNo 33,11.6122092,76.1300353,preschool,,
Pattanikoop Anganawadi,11.8440071,76.1592487,preschool,,
Anganwadi CNo. 42,11.5809264,76.1548894,preschool,,
Anganawadi CNo. 31,11.6014158,76.1541811,preschool,,
Anganawadi CNo. 25,11.5775736,76.1261843,preschool,,
Anganawadi CNo.38,11.5649607,76.0743335,preschool,,
Anganwadi CNo. 43,11.5925397,76.1390045,preschool,,
Anganawadi CNo. 52,11.6200837,76.134025,preschool,,
Anganawadi CNo. 55,11.5584971,76.128834,preschool,,
"Anganvady C NO 47, Chembra",11.5602063,76.1097273,preschool,,
Godavari Anganwadi,11.8350065,75.9781918,preschool,,
Puthiyidam SE Colony Anganwadi,11.8538182,75.9578372,preschool,,
"Anganvadi, CNo. 78",11.6448838,76.0000966,preschool,,
aganawadi,11.648042,76.0070057,preschool,,
chennalod 1,11.6623912,75.9883617,preschool,,
kavumannam anganavadi,11.6415998,76.0047186,preschool,,
thindummal anganavadi,11.8290555,75.9728634,preschool,,
Moongapara Anganwadi centre,9.9084137,77.0214803,preschool,,
Santorini Montessori,13.0015667,77.6225943,preschool,,
Bommarillu Playschool,17.5268653,78.3944061,preschool,,
Jayshree Periwal Internationa Pre School,26.9002148,75.7818949,preschool,,
Government Pre-School,11.0209682,76.9047538,preschool,,
Anganwadi School,16.189855,80.3394549,preschool,,
Anganwadi Pachattiri,10.9103703,75.9026346,preschool,,
ZPHS PRIMARY PECL,17.0609251,77.9551454,preschool,,
"Anganavadi, Lakshamveedu Colony, Manissery",10.7784888,76.3372912,preschool,,
"Minhaj Public School, Patarachal",12.4097067,75.079452,preschool,,
Anganavaadi,10.9001219,75.9941638,preschool,,
LML CONVENT AND NURSERY SCHOOL,9.7420995,77.0615119,preschool,,
Aganavadi,11.1939248,76.2744355,preschool,,
Anganavdi No.77,10.1871512,76.2252073,preschool,,
Preschool,10.5800509,76.0456296,preschool,,
Preschool,10.8099273,75.9103191,preschool,,
anganvadi,10.3245678,76.1235055,preschool,,
Anganavadi,8.5945313,76.9904222,preschool,,
Anganwadi No 11,9.3320096,76.7951212,preschool,,
Anganwadi No 12,9.3299718,76.8006486,preschool,,
Anganwadi No 9,9.3582563,76.7937235,preschool,,
Anganwadi No 8,9.3646138,76.7839317,preschool,,
Anganwadi No 6,9.3589137,76.7858585,preschool,,
Anganwadi No 3,9.3697918,76.7739589,preschool,,
Anganwadi No 2,9.3728199,76.7800037,preschool,,
"Anganwadi No 5, Blockupadi",9.3644226,76.7793927,preschool,,
"Anganwadi No 7, Pallippadi",9.3615454,76.7911781,preschool,,
Anganwadi No 10,9.3491105,76.7913943,preschool,,
Anganwadi No.15,9.3412174,76.8107153,preschool,,
Anganwadi No:16,9.3330598,76.8088525,preschool,,
CDS Office,11.5805978,76.0181911,preschool,,
Perunkoda Anganvadi,11.5739223,76.0135241,preschool,,
Vengathode Anganvadi,11.5895247,76.0053503,preschool,,
Kalloor Anganvadi,11.5593701,76.0116844,preschool,,
Pookode 2 Anganvadi,11.5505673,76.0039609,preschool,,
Amba Anganvadi,11.5581664,75.9930995,preschool,,
Pookode 5 Anganvadi,11.5545721,75.9840083,preschool,,
Parakunnu Anganvadi,11.5882674,76.0128141,preschool,,
Pookode 3 Anganvadi,11.5646993,76.0272812,preschool,,
Mutharikunnu Anganvadi,11.5847175,76.0255315,preschool,,
Pozhuthana Anganvadi,11.583186,76.0170688,preschool,,
Athimoola Anganvadi,11.6030512,76.0381935,preschool,,
Parnirappkunnu Anganvadi,11.6156969,76.0303199,preschool,,
Panniyora Anganvadi,11.6204428,76.0149798,preschool,,
Ooramkunnu Anganvadi,11.6151862,76.0232892,preschool,,
Sevagram gramakendram,11.9812343,75.3084495,preschool,,
Kayattil Anganwadi,11.9942999,75.3166985,preschool,,
Chemmaravayal anganavadi,11.985135,75.3350167,preschool,,
Edakkepouram thekk anganavaadi,11.9743965,75.3104313,preschool,,
Mottammal anganavaadi,11.9780073,75.3251378,preschool,,
Idiyamvayal 2 Anganvadi,11.6177505,75.9956033,preschool,,
Achoor 13 Anganvadi,11.6073931,76.0193859,preschool,,
Idiyamvayal 1 Anganvadi,11.6138082,76.0044771,preschool,,
Achoor Anganvadi,11.6004349,76.0161037,preschool,,
Ammara Anganvadi,11.5826484,76.0299909,preschool,,
Melmury Anganvadi,11.6107031,75.9996925,preschool,,
Valiyapara Anganvadi,11.6089975,76.0037432,preschool,,
Idiyamvayal 3G Model Anganvadi,11.6165556,76.0061512,preschool,,
Pinangode Mukk Anganvadi,11.6213938,76.0198683,preschool,,
Kurichiarmala Anganvadi,11.5990617,75.9936812,preschool,,
Valiyapara Anganvadi,11.6070259,75.9894721,preschool,,
Little Flowers School,15.1416197,76.8935863,preschool,,
Anganvaadi Nedumunda,11.9897584,75.7434854,preschool,,
Government L P school Vettathoor,11.2545714,75.9880242,preschool,,
Butterfly Play School,9.6014671,76.51228,preschool,,
Karuvampilakandi anganavadi,11.3923435,75.8860051,preschool,,
"ANGANAVADI,MUTHUVATTUSSERY",11.3963109,75.8961932,preschool,,
"Anganavadi, kottopara, no.64",11.3981933,75.890332,preschool,,
KE,9.6037394,76.3552251,preschool,,
KE KINDERGARTEN,9.6036873,76.3551785,preschool,,
Saraswathy VIdhlaya Smart Kinder Garden,8.4495477,76.9933669,preschool,,
Anganavadi,8.4770176,77.1043014,preschool,,
St Goretti's Nursery,8.5452879,76.9451042,preschool,,
Gigglewhiz,13.0264807,80.2772672,preschool,,
Saint Mary's Anganavadi Anickadu,9.6044787,76.6966492,preschool,,
KUZHIKKOTTUMOOLA ANGANWADI,11.1970987,75.9091187,preschool,,
VALANIMOOLA ANGANWADI,11.1843023,75.9103851,preschool,,
"Aganwadi, Perakkunu",10.8547562,76.0066124,preschool,,
"Aganwadi, Madrisssery",10.8466582,76.0166056,preschool,,
"Aganwadi, Maravanchery",10.8324532,75.9937822,preschool,,
Anganavaadi,10.5015541,76.2786119,preschool,,
Anganvadi,9.2999609,76.9619079,preschool,,
Anganvadi,9.3068601,76.9288904,preschool,,
Anganvadi,9.2987611,76.8980943,preschool,,
"St Thomas Nursery, Melukavu",9.7976245,76.7655642,preschool,,
"St Paul, Vakakkadu",9.7545816,76.7775108,preschool,,
Nelliyankara Anganavadi,11.6162553,75.5857511,preschool,Kerala,Kozhikode
Kuttaloor Aganawadi,11.0517408,75.9899468,preschool,,
IDEAL PRE SCHOOL,11.1827352,76.0647832,preschool,,
Preschool,9.6753131,77.1858135,preschool,,
Poothen,11.5328588,75.7334957,preschool,,
Poothen,11.5321005,75.7311908,preschool,,
Poothen,11.5320846,75.7311397,preschool,,
Poothen,11.5321412,75.7311501,preschool,,
government school,30.3377236,75.3531045,preschool,,
G U P school Padinattumuri,11.3241845,75.8222996,preschool,,
P V S High School,11.3324017,75.7690072,preschool,,
Checkpost Anganavadi,11.0758386,76.1272657,preschool,,
Kidzee Preschool,17.527565,78.3519903,preschool,,
Madrgha Anganwadi,10.5575154,76.1731159,preschool,,
Kuriyadi Lakshmi Teacher Memorial Anganavadi,11.6142549,75.5742142,preschool,Kerala,Kozhikode
Pallithazha Anganavadi,11.6158924,75.5723085,preschool,Kerala,Kozhikode
Meethalangadi Anganavadi,11.6222188,75.5706958,preschool,Kerala,Kozhikode
Arakkalnada Anganavadi,11.6092151,75.5764492,preschool,Kerala,Kozhikode
"Government Lower Primary School, Elangavam",10.0065224,76.6178576,preschool,,
Anganwadi No.69,9.5704717,76.7891354,preschool,,
Anganwadi No.39,9.5003627,76.8354345,preschool,,
Government lower primary school Vettippuram,9.2741785,76.7830885,preschool,,
Padikkalthazhe Angananavadi,11.6311886,75.5791448,preschool,Kerala,Kozhikode
N K Krishnakkurupp Memorial Anganvadi,11.6330112,75.5832995,preschool,Kerala,Kozhikode
Kolangattu Thazha anganavadi,11.6357355,75.578373,preschool,Kerala,Kozhikode
Padikkalthazha Angananavadi,11.6340108,75.5753991,preschool,Kerala,Kozhikode
Anganavadi,10.0654075,76.6064573,preschool,,
Maniyara Anganavadi,12.1233203,75.2853486,preschool,,
Naziphara Anganwadi,9.4026952,76.619112,preschool,,
Anganvadi Tv Junction,9.3467708,76.9047749,preschool,,
Anganvadi Pampini,9.3410478,76.9063768,preschool,,
Anganvadi Benjaminpara,9.322946,76.9382295,preschool,,
Anganvadi,9.3253587,76.9376653,preschool,,
Anganvadi Meenkuzhy,9.3149621,76.9530367,preschool,,
Anganvadi Kulengaravalley,9.3081694,76.9568621,preschool,,
Anganvadi Manakayam,9.3398424,76.9277589,preschool,,
Anganvadi Kumrakamkunnu,9.34253,76.9273088,preschool,,
Anganvadi Chittar,9.327772,76.9348292,preschool,,
Anganvadi Valelpadi,9.3197894,76.9300162,preschool,,
anganwadi 56 varayal,11.8380521,75.8806625,preschool,,
Anganwadi No.65,9.5711651,76.7947025,preschool,,
Anganwadi no.27,9.5184848,76.8130328,preschool,,
Anganwadi No.42,9.5641461,76.7996862,preschool,,
Anganwadi No.48,9.5657309,76.8004954,preschool,,
Ration Shop Thalapuzha 2,11.8405564,75.9539652,preschool,,
Ozhacrome anganavadi,11.9720213,75.3621396,preschool,,
Kalliasseri Cental Anganavadi,11.9641119,75.3422933,preschool,,
Anchampeedika Anganavadi,11.9791656,75.3525776,preschool,,
Kappothkavu Anganavadi,11.973272,75.3461294,preschool,,
Cheenibazar Anganavadi,11.2404756,75.9540967,preschool,,
Irinavu Dam Anganavadi,11.9584488,75.3160133,preschool,,
Vellanchira Anganavadi I,11.9600603,75.3361049,preschool,,
Faith Playschool Anjangaadi - Kadappuram,10.5383237,76.0242781,preschool,,
Anganavadi,10.5130744,76.2640103,preschool,,
Rime Kids,27.8947242,76.2907817,preschool,,
Anganwadi No.38,9.5278281,76.8060565,preschool,,
Anganwadi No.53 THONDUVELLI,9.5752608,76.7678176,preschool,,
Anganwadi No.56 MANJOOKKKULAM,9.618619,76.7660979,preschool,,
Anganwadi No.44 PARUMTHANMALA,9.5189781,76.8012699,preschool,,
Anganwadi No.30 MANAGALLOORE,9.5105561,76.8289612,preschool,,
Preschool,9.4401135,76.5502677,preschool,,
Anganvadi No 174,8.9022056,76.6365714,preschool,,
Anganvadi No 67,8.9022972,76.6395799,preschool,,
Anganvadi No 66,8.9117891,76.6409585,preschool,,
Anganvadi No 49,8.9406276,76.6647345,preschool,,
Anganvadi No 54,8.9314548,76.6559453,preschool,,
Anganvadi No 53,8.9373409,76.6570019,preschool,,
Anganvadi No 52,8.9292158,76.6583956,preschool,,
Anganvadi No 51,8.9350216,76.661263,preschool,,
Anganvadi No 50,8.9401057,76.6618864,preschool,,
Anganvadi No 47,8.9309793,76.6511355,preschool,,
Anganvadi No 46,8.9257977,76.6500656,preschool,,
Anganvadi No 73,8.9314602,76.6480726,preschool,,
Anganvadi No 44,8.9262256,76.6433783,preschool,,
Anganvadi No 45,8.9268023,76.64541,preschool,,
Anganvadi No 43,8.9232537,76.6413259,preschool,,
Anganvadi No 57,8.9213606,76.6506744,preschool,,
Anganvadi No 75,8.9171421,76.6350703,preschool,,
Anganvadi No 70,8.9120845,76.6369817,preschool,,
Anganvadi No 65,8.8975629,76.6387437,preschool,,
Anganvadi No 58,8.9143563,76.6511171,preschool,,
Anganvadi No 59,8.9190105,76.6482084,preschool,,
Anganavadi No 74,8.9086376,76.6458736,preschool,,
Anganavadi No 56,8.9235099,76.6531265,preschool,,
Anganavadi No 64,8.9037218,76.6435928,preschool,,
Anganavadi No 71,8.9212056,76.6572694,preschool,,
Anganavadi,10.4616557,76.0981574,preschool,,
Thushara Anganavadi,10.4594346,76.1267126,preschool,,
Anganavadi,10.4476023,76.1038722,preschool,,
Anganavadi,10.4623601,76.1102325,preschool,,
Anganavadi,10.4546782,76.0993618,preschool,,
Udhayam Anganavadi,10.4489276,76.1273441,preschool,,
Saraswathy Vidhya Nikethan,10.4498364,76.1043544,preschool,,
Santhi Anganavadi,10.4532768,76.127725,preschool,,
Anganavadi,10.458407,76.1061881,preschool,,
Anganavadi,10.4499724,76.0992905,preschool,,
Anganavadi,10.463137,76.106445,preschool,,
Anganvadi,10.4413129,76.1237349,preschool,,
Anganavadi,10.4671469,76.1253701,preschool,,
Anganvadi,10.4499763,76.1095924,preschool,,
Anganavadi,10.4564189,76.1026883,preschool,,
Aganvaadi,9.0588426,76.8569099,preschool,,
Mother Pixies Kids School,28.6803238,77.3122724,preschool,,
Malolkunnu,11.6610746,75.5707589,preschool,,
Mavilakkunn,11.6567087,75.5586896,preschool,,
Madakkara,11.6542164,75.5559209,preschool,,
Vellarathazhe,11.6544108,75.5862869,preschool,,
Edakkandikunn,11.6505273,75.5772361,preschool,,
Kalathumthazhe,11.6452782,75.5623334,preschool,,
Ponthayil,11.639217,75.5666712,preschool,,
Kandoth Thazhe,11.6427898,75.5703451,preschool,,
Preschool,9.0290595,76.7883811,preschool,,
Fun Valley,28.6333424,77.3069961,preschool,,
Churuli Alpara Anganwadi,9.931947,76.9408999,preschool,,
"TIME Kids Preschool ,Adoor",9.1516394,76.7416016,preschool,,
Preschool,10.7332614,75.9719874,preschool,,
Valluvanchira Vadamukku Anganawadi,10.7484536,75.97938,preschool,,
"Anganavadi, Padinhattumuri west",11.0593707,76.1010531,preschool,,
"Anganavadi, keeramkund",11.030666,76.1106425,preschool,,
Montessori Pre-School,19.1396721,72.820889,preschool,,
anganavaadi,11.3471944,75.9455023,preschool,,
Poozhikkunnu Anganavadi,11.0642663,76.1403789,preschool,,
Puthukkolli Anganavadi,11.0692874,76.1383484,preschool,,
Pattiyilparamb Anganavadi,11.0541906,76.1202588,preschool,,
Kavalappara Anganavadi,11.0663839,76.1064027,preschool,,
Padinhattummuri Anganavadi,11.0609471,76.1128792,preschool,,
Kozhinjil Anganavadi,11.0461962,76.1241752,preschool,,
Vennakkode Anganavadi,11.0577006,76.135768,preschool,,
Attakkora Anganavadi,11.0497412,76.1379695,preschool,,
Veluthedathpara Anganavadi,11.0720974,76.1420717,preschool,,
Vallikkapatta Anganavadi,11.0663072,76.1346034,preschool,,
Mankada Pallippuram Anganavadi,11.0625214,76.1286438,preschool,,
Vilangappuram Anganavadi,11.0600789,76.1202386,preschool,,
Cheerakkuzhi Anganavadi,11.0575499,76.1282444,preschool,,
Mele Pallippuram Anganavadi,11.0526647,76.1278654,preschool,,
Kanhamanna Anganavadi,11.0701797,76.1283161,preschool,,
Mundayilppadi Snganavadi,11.0649595,76.1263576,preschool,,
Perinthattiri Anganavadi,11.0361167,76.1347371,preschool,,
Cheloor Anganavadi,11.0345329,76.1167316,preschool,,
Valiyaparmb Anganavadi,11.0380309,76.127711,preschool,,
Paradi Kakkad Anganavadi,11.0377743,76.1130126,preschool,,
kadoopuram Anganavadi,11.0476169,76.1133789,preschool,,
Kadukoor Parammal Anganavadi,11.0459862,76.1054282,preschool,,
Kadukoor Anganavadi,11.0401123,76.1041993,preschool,,
Padinharemanna Anganavadi,11.0389717,76.1005069,preschool,,
Unnamthala Anganavadi,11.0534586,76.1031993,preschool,,
Karattparamb Anganavadi,11.0633594,76.0989687,preschool,,
paradi Kundad Anganavadi,11.037136,76.1125452,preschool,,
Kadungooth Anganavadi,11.0285401,76.115835,preschool,,
Rhyme N Colours PReschool,19.2328137,72.9725731,preschool,,
preschool,10.5661272,76.1718446,preschool,,
ankanvadi,10.5656159,76.1703846,preschool,,
ankanvadi,10.5638632,76.1715397,preschool,,
Little Flower English medium Nursery School Vallakadavu,9.7309021,77.1017803,preschool,,
Anganawadi 26 ward,9.7405809,77.0911834,preschool,,
Deepthy English Medium Nursery School,9.7481561,77.1123266,preschool,,
Anganavady ward 30,9.7637955,77.1031217,preschool,,
Anganvaadi,9.7532105,77.1128457,preschool,,
Anganavady  ward 31,9.7599052,77.1007005,preschool,,
Anganvaadi ward 9,9.7576047,77.1144972,preschool,,
Anganwaadi ward 9 pezhumkavala,9.7634812,77.114313,preschool,,
Anganwaadi ward 9 SN junction,9.7641392,77.1185171,preschool,,
Kochuthovala,9.7775061,77.1247326,preschool,,
Anganwaadi ward 10,9.772587,77.119689,preschool,,
Anganwaadi ward 3 Krishnankudi,9.787264,77.0821958,preschool,,
Vimalamatha Nursery School Ward 4,9.7792241,77.0835292,preschool,,
Anganwaadi ward 4,9.7780919,77.0873915,preschool,,
Anganwaadi 2 ward 4,9.7748814,77.0917627,preschool,,
Anganwaadi akg padi 33,9.7719882,77.0869526,preschool,,
Anganwaadi ward 34 nirmalacity,9.7844817,77.0716396,preschool,,
Anganvaadi ward 34,9.800006,77.0537828,preschool,,
Anganvaadi ward 3,9.7839933,77.0933307,preschool,,
Anganvaadi Ward 31,9.7569404,77.0965062,preschool,,
Anganvaadi ward 17,9.7514728,77.1156634,preschool,,
Govt LP School Edayar,9.8670725,76.5570356,preschool,,
Javahar UP school Edayar,9.8668578,76.5571433,preschool,,
Anthamon Anganvadi,9.0712019,76.7644811,preschool,,
Anthamon Anganvadi 1,9.0606573,76.7713778,preschool,,
Anganvadi Njavaroor,9.0578687,76.7847271,preschool,,
Seven Senses Montessori,12.9705392,77.6396808,preschool,,
Anganwadi,11.7058335,75.5323233,preschool,,
Anganvadi,10.3404811,76.2187502,preschool,,
D C Colony Anganvadi,10.3459182,76.2149987,preschool,,
Karikulangara Anganavadi,10.3547864,76.197626,preschool,,
Anganvadi,10.3566561,76.2055251,preschool,,
"Anganvadi, santhinagar",10.3564776,76.2048477,preschool,,
"Anganvadi 7, Moonalam",9.1477892,76.7268796,preschool,,
Preschool,9.1521689,76.7613785,preschool,,
Anganvandi ward 17,9.1503047,76.7590553,preschool,,
Jaimatha English Medium Nursery School,12.511661,74.9933874,preschool,,
Kanmanameethal Anganvadi,11.4679415,75.6840173,preschool,,
Anganwadi,9.1763731,76.7187161,preschool,,
Government LPG School,9.3777226,76.5973558,preschool,,
"Anganavadi, Adembada Colony",9.3741235,76.5878647,preschool,,
"Anganavadi, Thirumoolapuram East",9.3730808,76.5838228,preschool,,
"CMS LP School, Theepani",9.3860251,76.5826553,preschool,,
"Government Anganvadi, Thuruthumala",9.373269,76.591328,preschool,,
"Anganavadi, Thondra",9.3673815,76.584256,preschool,,
SALES SCHOOL,8.8715891,76.8691459,preschool,,
Skv school,8.8549573,76.8614122,preschool,,
Preschool,8.8586445,76.849211,preschool,,
Preschool,8.8588194,76.8489332,preschool,,
K G Section,8.714962,76.7476336,preschool,,
Scheduled Caste Balawadi,10.0839487,76.5207055,preschool,,
Preschool,10.0919024,76.5339793,preschool,,
Shikshankur Doon Early Years,30.3357629,78.0091914,preschool,,
Kidzonia International Preschool,17.4733987,78.3081894,preschool,,
Anganvadi,19.8490331,73.1898625,preschool,,
Anganvadi,19.8337322,73.1810026,preschool,,
NEST Pre-School & CSC Bal Vidyalaya,21.2019676,72.7783423,preschool,,
Valaddy Anganvadi,10.8089051,76.7557843,preschool,,
Preschool,10.7961599,76.7412642,preschool,,
Valaddy Anganvadi,10.8029877,76.7410469,preschool,,
Pudur Anganawadi,10.798269,76.7737256,preschool,,
Kongatupadam Anganawadi,10.7968133,76.7303771,preschool,,
Malayankavu Anganawadi 1,10.7770561,76.7116284,preschool,,
Malayankav Anganawadi 2,10.7757637,76.7158248,preschool,,
Kidzee school,22.598141,88.4059939,preschool,,
Little Milennium School,13.1015775,77.5717756,preschool,,
Aganbadi,29.1977788,79.4926689,preschool,,
Anganavadi,11.7992491,76.1435486,preschool,,
Preschool,11.8147419,76.2011249,preschool,,
Vazhayil Anganvadi,11.6674937,75.6325316,preschool,,
Poovullathil Anganvadi,11.661698,75.6326034,preschool,,
Koonarbath Anganvadi,11.6556524,75.6322618,preschool,,
Kunigad Kattil Anganvadi,11.6577067,75.6381457,preschool,,
Puthiyottil Anganvadi,11.6586333,75.6278633,preschool,,
Muthuvadathur Anganvadi,11.6578013,75.6242082,preschool,,
Kolarath Anganvadi,11.6672923,75.6374056,preschool,,
Vilathapuram Anganvadi,11.6644599,75.6465255,preschool,,
Vilathapuram Subcenter Anganvadi,11.6657678,75.6496388,preschool,,
Kunigad LP School Anganvadi,11.6543198,75.6374846,preschool,,
Kunigad MLP School Anganvadi,11.6579166,75.6434821,preschool,,
Koodathumpoyil Anganvadi,11.656975,75.6471846,preschool,,
Chathoth Anganvadi,11.6641947,75.677349,preschool,,
Kelothkoma Perumudasseri Anganvadi,11.6508705,75.6766116,preschool,,
Perumadasseri First Anganvadi,11.6521189,75.6855233,preschool,,
Aroor Anganvadi,11.6510636,75.6936151,preschool,,
Nadakkmeethal Anganvadi,11.6644028,75.690633,preschool,,
Malayadipoyil Anganvadi,11.6607919,75.6979365,preschool,,
Harithavayal Anganvadi,11.6498688,75.7029031,preschool,,
Karuvandi Anganvadi,11.6538998,75.6886314,preschool,,
Gomavullaparbath Anganvadi,11.6550657,75.691686,preschool,,
Kallumpuram Anganvadi,11.6439721,75.6890713,preschool,,
Pirakinkad Anganvadi,11.6447737,75.6801963,preschool,,
Pathadakunnu Anganvadi,11.6592671,75.6849137,preschool,,
Kakkora Anganvadi,11.6573886,75.6633597,preschool,,
Samsarikanilayam Anganvadi,11.671346,75.629555,preschool,,
Purameri Anganvadi,11.6749112,75.6401325,preschool,,
Muthuvatt Anganvadi,11.675655,75.631425,preschool,,
Kulangarath Anganvadi,11.6807815,75.6352828,preschool,,
54 PATTANI ANGANVADI,11.7109608,75.6382724,preschool,,
155 AVADIMOKE ANGANAVADI,11.7168502,75.6341086,preschool,,
53 MUDAVANTHERI ANGANVADI,11.7195053,75.6299729,preschool,,
49 MUDAVANTHERI ANGANVADI,11.7240037,75.6287699,preschool,,
50 OLIPPIL ANGANVADI,11.7141038,75.6261371,preschool,,
51 VETTUMAL ANGANVADI,11.712395,75.6252281,preschool,,
67 MULLANKUNNATH ANGANWADI,11.7075688,75.6181357,preschool,,
Albirr Islamic Preschool,11.7273272,75.6370325,preschool,,
Pattomkunnummal Anganvadi,11.7360071,75.6425476,preschool,,
Parapoyil Anganvadi,11.7408544,75.6427539,preschool,,
Preschool,13.0060252,77.5780946,preschool,,
Kanam,12.0896999,75.2002519,preschool,,
Theru ICDS,12.0910276,75.2025553,preschool,,
Littile Amigoz Pre School,12.1104736,75.2048559,preschool,,
Njanodaya Anganwadi,12.0885249,75.193871,preschool,,
Kids Time,12.1007518,75.2092159,preschool,,
Tafles School of Excellence,12.0989999,75.2083254,preschool,,
Ilambachi Anganwadi,12.1201991,75.1827036,preschool,,
Devine KG School,12.5167414,75.0187843,preschool,,
Smartkidz Preschool,15.5396084,73.8190266,preschool,,
Learnatorium Preschool and Child Care,17.3937227,78.3912412,preschool,,
"Aaganbadi Kendra, Gujroda Fatehpur",29.247224,79.451999,preschool,,
Kids Cube International,12.9895929,77.5553307,preschool,,
Sarah Montessori,12.9391599,77.7213012,preschool,,
panamanna anganawadi,10.8203423,76.3564968,preschool,,
Jack and the Beanstalk,12.9860841,77.5507428,preschool,,
The Learning Nest,18.5926119,73.7655859,preschool,,
London Kids Playschool,33.9500231,75.1399549,preschool,,
Macaroon stundents academy old branch,20.0577222,78.9545866,preschool,,
Sunrise convent,20.0587744,78.9582063,preschool,,
illikkad Anganavadi,11.3669454,76.3057782,preschool,,
Manjaadi Anganavadi,11.3536925,76.3070392,preschool,,
Nalucent Colony anganavadi,11.3829057,76.304044,preschool,,
Thannimoola Anganavadi,11.3808778,76.2700284,preschool,,
Thalipadam Anganavadi,11.3420375,76.341762,preschool,,
Thekkodi Anganavadi,11.3342338,76.3518021,preschool,,
Vattappada Anganavadi,11.3107334,76.310334,preschool,,
Kaikkulam Anganavadi,11.3363461,76.3494255,preschool,,
Thadapparambu Anganavadi,11.3391523,76.3141733,preschool,,
Muppini Anganavadi,11.3400039,76.3040054,preschool,,
Payimbadam Anganavadi,11.3275731,76.3232582,preschool,,
Kattikkal Anganavadi,11.3201913,76.3101057,preschool,,
Vellaramunda Anganavadi,11.3281516,76.3104294,preschool,,
Palangara Anganavadi,11.3013844,76.3041935,preschool,,
Vellaramunda Anganavadi,11.3177207,76.3198707,preschool,,
Cholamunda Anganavadi,11.3191374,76.3318135,preschool,,
Chemmanthitta Anganavadi,11.3391105,76.3241702,preschool,,
Moochipparutha Anganavadi,11.3460073,76.3260668,preschool,,
Nellikuth Anganavadi,11.3497902,76.3557195,preschool,,
balamkulam Anganavadi,11.3229357,76.3388115,preschool,,
Chakkarakavadankunnu Anganavadi,11.3470434,76.3445476,preschool,,
Pellippoyil anganavadi,11.3293079,76.3175449,preschool,,
Nambooripotty anganavadi,11.3542164,76.342888,preschool,,
Cheenikkunnunnu Anganavadi,11.3249069,76.3477768,preschool,,
A.V.Kids Kindergarten,12.9513411,77.6230341,preschool,,
Canadian Play School,13.0641062,77.5848818,preschool,,
"Weeny Whiz Kindergarten, Poojapura",8.4919384,76.9769192,preschool,,
Sanskriti Kids,18.5233898,73.7808641,preschool,,
Mindseed,18.6028041,73.7711547,preschool,,
Colours,18.6028597,73.770827,preschool,,
Baby Doux,28.6028862,77.2220107,preschool,,
Model Pre School,11.8578782,75.9878294,preschool,,
Mananthavady Municipality Kindergarten,11.78409,76.0514802,preschool,,
Rising Kids Pre School,12.7964411,77.709534,preschool,KA,
Tic Tac Toe,18.5801801,73.7852996,preschool,,
Aptech Montana,18.5983079,73.7638819,preschool,,
Colours preschool,18.5964865,73.7635408,preschool,,
Podar jumbo kids,18.5937206,73.7614332,preschool,,
The Learning Curve,18.5963003,73.7632241,preschool,,
Brain Train Preschool,18.4997772,73.8097802,preschool,,
Vivero International,18.5966516,73.7640309,preschool,,
Stages Pre school,18.5967851,73.7741265,preschool,,
FootPrints,26.877409,80.9834695,preschool,,
Eurokids,26.8767077,80.9809167,preschool,,
Kangaroo Kids Preschool,12.9588832,77.7192399,preschool,,
Daffodils pre school,13.0471485,80.1804204,preschool,,
Foundree preschool and daycare,18.6002263,73.7635838,preschool,,
Koala Preschool,12.8950894,77.6615924,preschool,,
Ani Bee,12.9843198,77.7492539,preschool,,
Le papillon,18.490287,73.794679,preschool,,
Nursery School Tea Company,10.0046169,77.0990117,preschool,,
Klay Pre School,12.9775392,77.7249491,preschool,,
Klay Preschool,12.9621665,77.7475563,preschool,,
FirstCries Smart PreSchool Rajpura pb MCS - Daycare - Art & Dance Class,30.4660136,76.5720583,preschool,,
Shanti juniors,18.596821,73.7645097,preschool,,
Snehalay,18.5962855,73.7640688,preschool,,
Preschool 5th center,18.0760635,79.4283091,preschool,,
Little Kingdom Nursery School,18.5447223,73.7807255,preschool,,
Jump thru Joy,18.5447095,73.7818502,preschool,,
Jarjangi Anganwadi Kendram,18.5004737,84.1336639,preschool,,
Jumpstart,18.5940955,73.7906642,preschool,,
Jain Toddlers,12.9265037,77.5815922,preschool,,
Little Planet Pre School,28.741976,77.1330579,preschool,,
Kidzee,21.1182051,79.1102201,preschool,,
Anganawadi,11.2662712,75.8021506,preschool,,
Preschool,8.5217647,76.8874802,preschool,,
Kangaroo kids,26.9162661,75.7925083,preschool,,
Learning Matters,28.5549832,77.2022197,preschool,,
Duck Duck Goose,28.6462818,77.1263579,preschool,,
Duck Duck Goose Kids Play Zone,28.6456119,77.126358,preschool,,
Preschool,18.5932132,73.7746687,preschool,,
Thuluva Vellalar School,11.5991631,78.6040387,preschool,,
Little Wings Pre Primary School,12.9721652,77.6273558,preschool,,
Chrysalis Hub,13.0052614,77.626996,preschool,,
Child's Kingdom,12.9523331,77.5678264,preschool,,
Kidzee Basavanagudi,12.9508576,77.5701506,preschool,,
Radcliff School,26.5145582,88.7301943,preschool,,Jalpaiguri
Kidzee,18.3855859,76.5604825,preschool,,
Suman Sanskar Pre School,18.3884865,76.5600139,preschool,,
PS Khubba CBSE School,18.3862407,76.5865012,preschool,,
Genius Preschool,9.9661381,76.292524,preschool,,
Lil Birdiez,28.7195588,77.1731899,preschool,,
TIME Kids,9.9586076,76.2954252,preschool,,
Colours,18.5680949,73.7774647,preschool,,
Planet School,28.9880949,77.7316796,preschool,Uttar Pradesh,
Kidzee Naihati,22.890939,88.4154577,preschool,,
Jackfruit House,13.002484,77.5669138,preschool,,
Kidzee Malleshwaram,13.0024043,77.5661266,preschool,,
Helen O'Grady International,9.9596474,76.3006939,preschool,,
SIP Abacus,9.9596711,76.3007605,preschool,,
Kids Castle,12.9123979,77.6098929,preschool,,
Sudarshan Vidya Mandir Pre Primary School,12.9243224,77.5951283,preschool,,
Pluto Play School,22.4767216,88.3757992,preschool,,
Yello,12.9061749,77.5789241,preschool,,
Vidyasagar Preschool,12.9066927,77.5790664,preschool,,
Little Sparkle Pre-school,12.9095975,77.5818484,preschool,,
Absorbent Mind,12.9066905,77.5799554,preschool,,
Tender Moments Pre-School,13.0061102,77.5549989,preschool,,
Dolls n Angels Pre-School,13.0066743,77.5551666,preschool,,
London Kids,9.9726713,76.3104639,preschool,,
KIDS WORLD PRESCHOOL AND DAYCARE,19.1643493,72.8359073,preschool,,
Kalike Montessory School,13.0126222,76.114215,preschool,,
GD Goenka Toddler House,29.2380508,79.5314261,preschool,,
Little Wings Play School,29.2258487,79.5002247,preschool,,
Kids Paradise Daycare Pre KG,8.3806909,77.0465038,preschool,,
Model School,22.4669637,87.9670431,preschool,,
Anganwadi,15.6136805,73.7725123,preschool,,
Kiddos Family Play School,28.6224206,77.2948755,preschool,,
Anganwadi,29.113004,74.9773441,preschool,,
Footprints,28.7351493,77.1108471,preschool,,
House of Happiness,28.736872,77.1111523,preschool,,
Shanti Juniors Jetpur,21.746258,70.6221729,preschool,,Rajkot
Blossom Smart Kids,28.6373691,77.3039432,preschool,,
Podar Jumbo Kids,21.1821233,79.0367564,preschool,,
Kara4Kids Play School,12.9867401,77.5914963,preschool,,
St. Peters Academy,20.9317888,77.7931819,preschool,,
Little Angels Pre School,22.8229495,86.2186266,preschool,,
Kidzee school,26.2211758,81.2320231,preschool,,
bachpan school,26.2211417,81.2414444,preschool,,
SS Kindergarten,28.4308351,77.3165419,preschool,,
Kidzee pre school,19.1657826,77.3069182,preschool,,Nanded
Kidzee Jehanabad,25.2109415,84.9887988,preschool,,
Kingdom of Kids,28.4266066,77.0702469,preschool,,Gurugram
Aswad Day Care,12.9034673,77.5687028,preschool,,
Little lilies,13.0344614,77.6498444,preschool,,
Kai International Pre-school,12.9649714,77.7318323,preschool,,
Morningstar School,26.1726876,91.7634514,preschool,,
Golden Bells Early Years,28.6873131,77.1213517,preschool,,
Cambridge Montessori,13.0043186,77.569472,preschool,,
Grow In Steps - Pre School,28.7326689,77.0884462,preschool,,Delhi
Little Ville,13.0082013,77.625755,preschool,,
Maple Bear,13.0623256,77.5921925,preschool,,
Kangaroo kids international preschool,13.0630046,77.5900529,preschool,,
Euro kids,12.8920402,77.610283,preschool,,
Upper pre primary School,26.5868471,77.2326108,preschool,,
Upper pre primary School - Sakalpura,26.6051797,77.2539389,preschool,,
Paathshala Pre School,29.2185242,79.5058445,preschool,,
Anganwadi Kendra,26.6257376,77.2964466,preschool,,
Preschool,17.6892673,83.1226765,preschool,,
Preschool,16.476932,80.5722651,preschool,,
sri chaitanya school,16.5213966,80.6403973,preschool,,
The National Public School and Kindergarten,23.1648152,77.4544308,preschool,,
Bouncing Pouncing - Kids Play Arena,28.694731,77.107745,preschool,,
Teeny Town,28.6425568,77.2970774,preschool,,
Intel Litots,28.9755027,77.7324128,preschool,,
Eurokids,12.9660424,77.7138251,preschool,,
Aris Tot Lers,12.9666218,77.7141612,preschool,,
Little Millenium,12.9668508,77.7141826,preschool,,
Beginner World,12.9652713,77.7144646,preschool,,
range,12.9649866,77.7150339,preschool,,
Bachpan,12.9650087,77.7153125,preschool,,
Daisies,9.9688607,76.3011358,preschool,,
Arth Early Learning Spaces,22.5868787,88.3942299,preschool,,
Apple Preschool,17.4619928,78.3465288,preschool,,
Kidhops,9.9881701,76.2793221,preschool,,
Kids Joy,9.949258,76.2923715,preschool,,
National Nursery And Primary School,11.1257984,79.4550146,preschool,,
Stree Samajam,9.9675335,76.2838126,preschool,,
KinderNest OMR,12.821099,80.2309654,preschool,,Tamil Nadu
Little Angels Lindergarten And Primaty School,15.5878716,73.7714094,preschool,,
Euro Kids,13.1238493,77.6403688,preschool,,
Child-Care Montessori,12.9288856,77.6216973,preschool,,
Mighty Champs,13.1115398,77.590945,preschool,,
Skyrock International pre school and day care,19.0289676,73.014426,preschool,,
SRI PRAGANYA ACADEMY,11.0834513,76.9933465,preschool,,
iGenius kids international preschool,10.3689686,77.9845118,preschool,,
Sri Veddha Nursery And Primary School,12.4017798,78.2154649,preschool,,
Bright Kid Montessori House,13.0995211,77.5705185,preschool,,
Beginners World,13.0994063,77.5709905,preschool,,
"Thenkodige Government Primary School, Vandse",13.7182258,74.7542863,preschool,,
"Athradi Government Primary School, Vandse",13.7013625,74.7434308,preschool,,
Akshara Little Bees Pre School,12.9755095,77.5363412,preschool,,
Stepping Stones,9.9596782,76.2993924,preschool,,
Anganwadi 10 Bhajanai Kovil and 12 Mettu Theruvu,13.1900882,80.307184,preschool,,
Nursery / Primary School,13.1876324,80.3157985,preschool,,
Yello Preschool and Daycare,12.9667041,77.600481,preschool,,
Anganawadi,25.2429064,91.8914807,preschool,,
Bachpan Play School,26.4263608,80.3266269,preschool,,Kanpur Nagar
Teeny boppers,17.7644749,83.3606792,preschool,,
Merry Hill Kinder Garten,12.9478762,77.599636,preschool,,
Little Marvel,26.7002701,88.4403726,preschool,,
Preschool,13.1251597,80.2056119,preschool,,
Lifeline Stepping Stones,12.9111281,80.1918496,preschool,,
Moon Champs Play School,28.4910988,77.2979032,preschool,,
AUS pre school and day care,24.5707768,73.736863,preschool,,
eurokids playschool,28.6918212,77.4831264,preschool,,
A2Z preschool,28.6884419,77.4809813,preschool,,
Rasp Berry Tots,10.048429,76.3737514,preschool,,
Sahakaranaa Anganawadi,10.0473466,76.3644575,preschool,,
Twinkling Toddlers Kindergarten School,26.7103963,88.4424566,preschool,,
Astha Kinder Valley and Creche,26.7065024,88.438378,preschool,,
Eurokids,26.7030068,88.4383961,preschool,,
Clay,26.7082845,88.4326378,preschool,,
Rollick n Frolic,28.6161703,77.0326027,preschool,,
Wonder Montessori,28.7185359,77.1374585,preschool,,
MBN Toddler Home,12.9892704,77.5743534,preschool,,
Circles & Cycles - Preschool In Bandra,19.0587784,72.8325109,preschool,,
Karpom Karpipom,10.0696211,78.7823222,preschool,,
Wisteria Play Way School,28.6238997,77.289273,preschool,,
Orange Tots Play School,9.922746,78.123727,preschool,,
Preschool,12.583402,75.728307,preschool,,
Anganwadi,19.1881725,72.9414005,preschool,,
Little Kidz Corner,19.299974,72.8632911,preschool,,
Euro Kids,18.6011942,73.7818015,preschool,,
Happy Kidz Pre School And Daycare,16.5087118,80.6405206,preschool,,
Green Fields Nursery School,28.5647598,77.1892651,preschool,,
The Green Pocket,12.956793,77.6478146,preschool,,
Hello kidz,12.9638732,77.7089438,preschool,,
Klay,13.0248546,77.6410368,preschool,,
White Petals,13.026273,77.6339392,preschool,,
Bachpan,12.9284861,77.7406117,preschool,,
Hi Kalpa,12.9281031,77.7413843,preschool,,
Little Elly,12.9274662,77.6693926,preschool,,
Footprints,12.9793525,77.7118747,preschool,,
Happy Hoots Play School,13.0114927,77.5395216,preschool,,
sRV NIKETAN,16.4976227,80.6907247,preschool,,
Kidzee,16.4944135,80.6907291,preschool,,
Ravindra Bharathi School,16.5176787,80.6472176,preschool,,
Mother Lap Play School,16.4776411,80.7055619,preschool,,
Zilla Parishad High School Poranki,16.4797912,80.7093175,preschool,,
Euro Kids,16.4778746,80.7072359,preschool,,
Sarada Up School,16.5078566,80.7172953,preschool,,
Inventure Preschool,12.9669341,77.7497355,preschool,,
Preschool,18.6074632,73.7694153,preschool,,
Merry Land Nursery School,19.2982637,72.8640173,preschool,,
Saint Sunrise Pre-Primary School,19.2985333,72.8635365,preschool,,
Preschool,19.6477517,72.7232663,preschool,,
Klay Preschool And Daycare,12.9846593,77.7511117,preschool,,
Sanskar Pre School And Day Care,28.5387269,77.2982927,preschool,,
Preschool,12.9197769,77.6120301,preschool,,
Preschool,12.9854032,77.5952791,preschool,,
Preschool,31.8023768,76.1933177,preschool,,
Boogie-Woogie,12.914753,77.6097071,preschool,,
Podar Jumbo Kids,17.7233208,83.31371,preschool,,
KIDZEE Tellapur,17.4647114,78.2890009,preschool,,
Eunoia,12.9272313,77.5178189,preschool,,
Child's Kingdom,12.92661,77.5174309,preschool,,
FunStone Play School & Day Care,26.5189527,88.7075705,preschool,,
Srinidhi Vidyaniketan School,13.0332125,77.5575383,preschool,,
Ambitus Kinder World,17.4481352,78.3627264,preschool,,
Siva Sivani Play School,17.7501102,83.2485929,preschool,,
PEN Kids,17.7500963,83.2528028,preschool,,
Minimore Pre School,18.7628488,73.5572059,preschool,,
Podar Prep,19.1199757,72.9985428,preschool,,
Footprints Pre-School & Daycare,12.996862,77.5420771,preschool,,
Footprints,12.9967236,77.5420346,preschool,,
ಬಾಪೂಜಿ,12.3358706,76.6302006,preschool,,
"Primary School Bhatna Bigha, Chandi (Nalanda) 803108",25.376313,85.3922565,preschool,,Nalanda
Primary School Sauwan,25.3785038,85.397081,preschool,,Nalanda
Primary School Gauri,25.3627605,85.3912125,preschool,,Nalanda
Kids Kindergarten School,26.1919899,91.7548106,preschool,,
Jingle Bells,26.1877879,91.7575468,preschool,,
BABY STEPS PRE-SCHOOL AND DAYCARE,26.1301944,91.7948267,preschool,,
St Thoma Pre Primary School,26.1871889,91.752798,preschool,,
Mothers Pride,28.4682631,77.0802911,preschool,,
slate,17.2590591,80.1565254,preschool,,
Rangammal High School,11.0039341,76.9733727,preschool,,
GD Goenka La Petite,28.7001923,77.1497033,preschool,,
NK Bagrodia Play School,28.6029676,77.0464831,preschool,,
The Bangalore School,12.9702285,77.7479843,preschool,,
Podar Happy Kids,12.9167064,77.673015,preschool,,
Ranade Balak Mandir,18.5189236,73.849446,preschool,,
Government Primary School,28.7038836,77.1799984,preschool,,
Seven Senses School Whitefield,12.9695604,77.7485072,preschool,,
Anganwadi,11.3882035,75.7876241,preschool,,
Gadi Khana,23.3739488,85.3132341,preschool,,
Childrens Garden home,19.0441063,72.9313446,preschool,,
SOS Balagram,28.795986,77.0311409,preschool,,
Saksham Pre School,28.56283,77.1882225,preschool,,
Anganwadi,11.526214,75.8600232,preschool,,
Odikkuzhi Anganwadi,11.5443095,75.8517084,preschool,,
Preschool,11.2345602,78.1214935,preschool,,
"Karekkad North , Anganavadi",10.9540028,76.0681126,preschool,,
Kidzee Nursery,12.9532604,77.6600385,preschool,,
Cricket Grounds,15.1966206,80.0118256,preschool,,
Tenbroeck Academy,12.9441426,77.5741238,preschool,,
Prism Pre-school,12.9846303,77.6128058,preschool,,
Sparrows,12.9607192,77.7183519,preschool,,
Sishu Vihar,12.958738,77.7183904,preschool,,
FirstCry Intellitots Pre-school and Daycare,12.9576741,77.7208434,preschool,,
savami vivekanand school,19.0598685,72.8892502,preschool,,
Kangaroo Kids,12.963159,77.7469189,preschool,,
Sparrows Montessori,12.9609352,77.718372,preschool,,
Klay preschools And Daycare,12.926543,77.5824933,preschool,,
Trotters Montessori School,13.0052123,77.6249694,preschool,,
Dis Junior Pre School,28.7216619,77.1250258,preschool,,
Little Senators Pre School,28.5678014,77.162988,preschool,,
Alinagar Hazinagar Primary School,24.8805797,87.9983275,preschool,,
Tulips Academy [Preschool & Daycare],18.5615528,73.7729794,preschool,,
Jumpstart International Preschool and Learning Center,18.5688786,73.7760837,preschool,,
Sandalpur Primary School,22.1682692,87.9157595,preschool,,
St. Ann's School Junior Wing Grounds,17.4419245,78.5039102,preschool,,
Preschool,19.5004181,75.7538605,preschool,,
Bachpan Play School,12.9412874,77.622297,preschool,,
Z.P. School Dawargaon,19.5763874,75.7959068,preschool,,
Bal Jagat,21.1225071,79.0671299,preschool,,
Preschool,17.4770911,78.3947898,preschool,,
Kindergarten,15.3716707,75.1399684,preschool,,
First Steps Nursery,12.9770299,77.6417977,preschool,,
Anganwadi,10.6559669,76.1345757,preschool,,
Nursery School,10.6567476,76.1555656,preschool,,
Anganvadi,10.6502384,76.1332569,preschool,,
Saint James Pre Primary School,9.5434502,76.6966586,preschool,,
Our Lady of Nazareth Quadrangle,19.3017161,72.8471243,preschool,,
Preschool,11.5258655,75.8402934,preschool,,
Koorachundu Anganwadi,11.536929,75.8458282,preschool,,
Sevagram Gramakendram (Old Sisumandiram),11.5323043,75.8785605,preschool,,
Thadathil thazhe anganwadi,11.5280908,75.8833026,preschool,,
Kallanode anganwadi,11.5374973,75.8771496,preschool,,
Kakkayam Model Anganwadi,11.5529154,75.8959526,preschool,,
30th mile santhinagar anganwadi,11.5407113,75.8928171,preschool,,
Sankaravayal anganwadi,11.5559026,75.8359073,preschool,,
Preschool,28.4160993,77.0607343,preschool,,
Little Linguists Turquoise Play School,17.4203012,78.5686855,preschool,,
siddartha school kinder garten park,17.3312437,78.5792394,preschool,,
Vedavyasa Vidyalayam,11.4494989,75.7784379,preschool,,
Thuruthiyil KG,9.2374086,76.4730781,preschool,,
Keraliya Samaj School,19.0285633,72.8372274,preschool,,
Anganavaadi,9.3160586,76.3998863,preschool,,
Akshaya Kindergarden,10.6121032,76.1192291,preschool,,
Lailas Pre Scool,9.3742168,76.5766436,preschool,,
anganwadi,11.526577,75.8598185,preschool,,
Preschool,11.5328325,75.833787,preschool,,
Rainbow Preschools International,19.1681395,72.9440292,preschool,,
kinder kids,11.4707245,79.2043757,preschool,,
Anganavadi,9.2209073,76.6824693,preschool,,
Anganvadi,9.2234806,76.6917258,preschool,,
Police Ground,13.4380996,77.7240075,preschool,,
Shree Virabadreswara Kannada Primary School,16.9795168,77.3235133,preschool,,
Preschool,23.1886906,74.3899501,preschool,,
aykkadi colony anganwadi,11.8009098,75.9206318,preschool,,
Sudarshan Primary Schol,22.9740601,88.2806508,preschool,,
Bankinpadi Anganavadi,11.0569779,76.111127,preschool,,
Madrasa Madinatul Uloom,22.9768664,88.2788412,preschool,,
Preschool,10.6399408,76.0622477,preschool,,
Anganvadi,10.323195,76.124162,preschool,,
Kundanpar School,23.0903988,69.5934371,preschool,GU,
Kundanpar School,23.090449,69.5932469,preschool,GU,
Carmel Academy,20.1871537,80.011697,preschool,,
Littile Rose Nursary,12.3981337,75.0602782,preschool,,
Pilathara Anganawadi,10.9350014,76.0373747,preschool,,
Lakshamweed Colony Anganawadi,10.9412686,76.030537,preschool,,
RGNS Kinder Garden,8.5043222,77.0490358,preschool,,
LP School,9.9639443,76.2988821,preschool,,
Time Institute,8.4600276,76.9335282,preschool,,
Kindergarten,11.1953594,76.2350005,preschool,,
Baby town play school,9.5643376,76.7668874,preschool,,
anganvadi,9.374143,76.5878596,preschool,,
rajas kinder school,11.0110518,76.4827262,preschool,,
Anganvaadi mukkanpara,9.3367212,76.9266047,preschool,,
Anganvaadi hindimukku,9.3376364,76.9226222,preschool,,
gayathri,8.482976,76.9794821,preschool,,
Preschool,10.2791099,76.2930245,preschool,,
Chukkirikkunnu Anganvadi,10.4343265,76.3054564,preschool,,
Munhakkullam Anganavadi,11.0461387,76.1011372,preschool,,
kasthoorba aganavady,11.5020938,75.7040967,preschool,,
Preschool,12.0150591,75.2761752,preschool,,
Super English Medium School,16.8568176,74.5921369,preschool,,
Preschool,17.3533211,78.5323512,preschool,,
Anganawadi,8.4086579,77.0367969,preschool,,
Vengad Lower Primary School,11.877306,75.5395102,preschool,,
Best Nursery English School,11.9223834,75.441652,preschool,,
Anganavadi,10.9247338,76.2600641,preschool,,
Holy Family kindergarten school,29.9304627,78.1224135,preschool,,
MNLPS Vellayani,8.4486096,76.9929631,preschool,,
Preschool,25.6107507,88.1207651,preschool,,
Anex Convent Pre School,28.7215412,77.1249035,preschool,,
Rukmani Devi Pre School,28.7033842,77.1364291,preschool,,
Little Millenium Pre School,28.702283,77.136539,preschool,,
Anganvady - 104 thavinjal,11.8103057,75.9638072,preschool,,
Chirakolly Anganvadi Periya,11.8324831,75.8511391,preschool,,
Illathumoola anganvady,11.7942051,75.8831477,preschool,,
kolichal anganvady,11.8184001,75.8979236,preschool,,
Karayothingal Anganvady,11.8349338,75.8916751,preschool,,
choyimoola Anganwadi,11.8286629,75.8351062,preschool,,
Thaithal Aganavadi,11.8052793,75.9314501,preschool,,
Anganvady tholakkara no:92,11.7865692,75.8839543,preschool,,
Anganvady Karachal,11.7789028,75.8978972,preschool,,
Palakoly Anganvady,11.8256217,75.9007176,preschool,,
Mullal anganwadi,11.8206069,75.8632678,preschool,,
Mariya Anganeadi,10.5418655,76.1547147,preschool,,
Anganwadi,10.1362703,76.3990261,preschool,,
Anynickal Anganvady,11.8199542,75.8526049,preschool,,
Anerykunnu Anganvady,11.8214257,75.8507815,preschool,,
playground,9.9328715,76.8010757,preschool,,
Preschool,16.2000623,76.6632906,preschool,,
Natkhat,29.2062714,79.492796,preschool,,
Preschool,11.7581672,75.4871279,preschool,,
Erol Anganavadi,12.4344169,75.0410295,preschool,,
Little Kingdom Day Care & Play School,8.9948638,76.7744569,preschool,,
Lps Inchakkadu,9.0290292,76.7883809,preschool,,
Preschool,9.7419588,76.6118233,preschool,,
children playground,10.980545,76.1100439,preschool,,
Preschool,11.7612286,75.4832606,preschool,,
ANGANWADI,8.9391421,76.9098092,preschool,,
Preschool,11.9278156,75.7600007,preschool,,
Preschool,11.9262698,75.7436391,preschool,,
Anganvadi,10.6734745,76.2614967,preschool,,
Gokulam Play School,11.592628,75.5964812,preschool,,Kozhikode
Play Area for Kids,9.1455772,76.5231012,preschool,,
"Anganwadi, Davood Mohalla",12.3729814,75.0569934,preschool,,
Preschool,34.146111,77.5764272,preschool,,
Preschool,9.58428,76.4861118,preschool,,
Sarvodhyam Vidhyadhiraja Nursery School,8.4479479,76.9966741,preschool,,
Anganavadi,8.4770354,77.1043116,preschool,,
St. Mathew English medium Nursery School,9.670289,76.5111287,preschool,,
Anganvadi,9.3364058,76.9209896,preschool,,
Konkadapara Aganawadi,11.0676269,76.01459,preschool,,
Navachethana Anganavadi,11.6258451,75.5925506,preschool,Kerala,Kozhikode
Akshara Anganavadi,11.6297818,75.5869095,preschool,Kerala,Kozhikode
Harisree Anganavadi,11.6302988,75.5934806,preschool,Kerala,Kozhikode
"St Antony's, Idamaruk",9.7406608,76.764274,preschool,,
Anganawadi Anniyartholu,9.7646838,77.1768117,preschool,,
Chennamangalam Anganavadi,11.6224526,75.5835782,preschool,Kerala,Kozhikode
Chorode Anganavadi,11.6192254,75.5807792,preschool,Kerala,Kozhikode
Vykkilisseri U.P School Anganavadi,11.6335221,75.6023283,preschool,Kerala,Kozhikode
Crashmukk Anganavadi,11.6325659,75.6090431,preschool,Kerala,Kozhikode
Udaya Anganavadi,11.6247706,75.6129325,preschool,Kerala,Kozhikode
Kurikkilad Anganavadi,11.6263171,75.606872,preschool,Kerala,Kozhikode
Chorode H.S.S Anganavadi,11.6227812,75.608616,preschool,Kerala,Kozhikode
Vayikkilassheri Anganavadi,11.6373692,75.5981714,preschool,Kerala,Kozhikode
Vayikkilassherippara Anganavadi,11.6404957,75.6001606,preschool,Kerala,Kozhikode
Choorakattukara Anganwadi,10.5656717,76.1738204,preschool,,
SFS Kindergarten Grounds,9.6642618,76.5583924,preschool,,
IDEAL PRE SCHOOL,11.182732,76.0647939,preschool,,
Preschool,9.6753222,77.1858193,preschool,,
kannothmala anganwadi,11.8304367,75.9240513,preschool,,
Anganwadi thalapuzha poyil,11.8472041,75.9413383,preschool,,
kaithakolly anganwadi,11.8624184,75.943753,preschool,,
anganwadi makkimala,11.8697692,75.9514647,preschool,,
Anganwadi thalappuzha,11.8362696,75.9605067,preschool,,
Anganwadi,11.8240269,75.9585758,preschool,,
anganwadi muthireri,11.7990304,75.9536438,preschool,,
Preschool,30.3207085,75.3806685,preschool,,
Anganwadi,10.5658771,76.1608989,preschool,,
R.N. Public School,28.3334605,76.9461633,preschool,,
anganwadi yavanarkulam,11.7913653,75.9364021,preschool,,
Arola anganvadi,11.79116,75.9234345,preschool,,
anganwadi kottakolly,11.802948,75.9071369,preschool,,
anganwadi  varayal 56,11.8390311,75.8991414,preschool,,
anganavadi,12.4571005,75.0560335,preschool,,
Rainbow Kindergarden,8.4964812,76.9287057,preschool,,
Kakkatt Palli Anganavadi,11.625019,75.5692574,preschool,Kerala,Kozhikode
Shalabham Anganavadi,11.6251223,75.576465,preschool,Kerala,Kozhikode
Puthussheripara Anganavadi,11.6277007,75.5730947,preschool,Kerala,Kozhikode
Peruvattam Thazha Anganavadi,11.6092413,75.5833343,preschool,Kerala,Kozhikode
R E Mohandas Memorial Anganavadi,11.6101497,75.5736421,preschool,Kerala,Kozhikode
Chorode Anganavadi,11.6193134,75.5731253,preschool,Kerala,Kozhikode
Preschool,11.6103626,75.5975605,preschool,,
Krishnanagar Primary School,23.1163563,87.1753384,preschool,,
K T Bazaar Anganavai,11.6312961,75.571136,preschool,Kerala,Kozhikode
Anganavadi,11.6288548,75.5692078,preschool,Kerala,Kozhikode
Lakkattoor Anganavadi,9.6173984,76.6427156,preschool,,
Anganvadi,10.7871122,76.7929429,preschool,,
"Pookode Diary Anganawadi, Pookode",11.5330245,76.0246589,preschool,,
"Mullanpara Anganwadi, Mullanpara",11.5303676,76.0374037,preschool,,
Jarathingal Anganawadi,10.9480702,76.0496255,preschool,,
ANGANWADI NO.50,9.5741884,76.7819723,preschool,,
Edamana anganwadi,11.8251845,75.9163087,preschool,,
kappattumala anganwadi,11.8276039,75.8847254,preschool,,
smart anganwadi karayonttingal,11.834828,75.8922938,preschool,,
anganwadi chapparamkunnu,11.841043,75.8506614,preschool,,
Anganwadi Periya 36,11.8311483,75.8602738,preschool,,
Anganwaadi 31,9.5169425,76.7946606,preschool,,
Anganwadi No.53,9.5790654,76.7657399,preschool,,
Anganwadi No.36,9.5464084,76.7930426,preschool,,
Nalandha Anganvadi,10.4853284,76.1571783,preschool,,
Harisree Anganvadi,10.4823544,76.1568363,preschool,,
Anganvadi,10.4794631,76.1534352,preschool,,
Chithra Anganvadi,10.4924827,76.1575024,preschool,,
Sarvodhaya Anganvadi,10.4947229,76.1544741,preschool,,
Aksharam Anganvaadi,10.4938544,76.1611778,preschool,,
Captain Lakshmi Anganavadi,10.4911416,76.1486726,preschool,,
Gramina Anganvadi,10.4885914,76.1437964,preschool,,
Anganvadi,10.4970401,76.1456335,preschool,,
Kairali Anganvadi,10.4956817,76.1506012,preschool,,
Vidyamandhir Anganvadi,10.4883298,76.1358913,preschool,,
Aiswarya Angnvadi,10.4816633,76.1353459,preschool,,
Harisree Anganvaadi,10.4840232,76.1357506,preschool,,
Anganvaadi,10.4944803,76.1383593,preschool,,
Pobatta Anganvaadi,10.4979121,76.139218,preschool,,
Vidyarambham Anganvadi,10.498432,76.1418834,preschool,,
anganwadi thazhe periya,11.8362106,75.8357764,preschool,,
alattil anganwadi,11.8078384,75.8714567,preschool,,
Anganwadi Valad,11.7921556,75.9020864,preschool,,
Kottakolly Anganwadi,11.8099586,75.8940994,preschool,,
edathana Anganwadi,11.8132818,75.9012604,preschool,,
Puthurangaadi Anganwadi,11.7912295,75.912566,preschool,,
Chungam Anganwadi,11.8415053,75.9476457,preschool,,
Varayal jyothi anganwadi,11.8391088,75.9016341,preschool,,
Mangad Theru Anganavadi,11.9811352,75.3756736,preschool,,
Mangad West Anganavadi,11.9804289,75.3603911,preschool,,
Attupathi,10.832225,76.8076952,preschool,,
Irinavu Anganavadi,11.9670879,75.3148252,preschool,,
Kacherithara Kinder Garden,11.9572564,75.3202512,preschool,,
Vellanchira Anganavadi II,11.9641313,75.3359093,preschool,,
Vadhiyarchalla,10.8170186,76.7941648,preschool,,
Venoli Anganwadi,10.790717,76.7066949,preschool,,
"Anganwadi, Kannode",10.8029274,76.7560391,preschool,,
Anganwaadi no.32,9.5356338,76.7951048,preschool,,
Anganwadi No.34,9.54277,76.8048315,preschool,,
"Anganwadi No.66, KURISUMKAL JUNCTION",9.5535697,76.7895505,preschool,,
"Anganwadi No.67 , THAMPALAKKADU",9.5836347,76.768962,preschool,,
"Anganwadi No.52 , THAMPALAKKADU",9.59262,76.7634065,preschool,,
"Anganwadi No.51 , THAPALAKKADU",9.5926459,76.7575238,preschool,,
Anganwadi No.54 THUMAPAMADA,9.5951094,76.7692629,preschool,,
"Anganwadi No.55 , PULIMAVU",9.576842,76.7796442,preschool,,
"Anganwadi No.49 , ERIKADU",9.5856316,76.7778451,preschool,,
Anganwadi No.59 VILLANI,9.588238,76.7962826,preschool,,
Anganwadi No.57 KAPPADU,9.6060651,76.7764796,preschool,,
Anganwadi No.58 KOZHIYANI,9.6009383,76.7822877,preschool,,
"Anganwadi No.60 , MANJAPPALLY",9.593888,76.7758176,preschool,,
Anganwadi No.64 KALLUNKAL,9.5617765,76.7931823,preschool,,
Anganwadi No.62 KODUVATHANAM,9.5658522,76.7983562,preschool,,
Anganwadi No.43 VAZHEPPARAMBIL,9.5630396,76.8013438,preschool,,
Anganwadi No.68 ANITHOTTAM,9.5665238,76.788133,preschool,,
Anganwadi No.63 NANDIKADU,9.5719285,76.7871894,preschool,,
Anganwadi No.33 POOTHAKKUZHY,9.5586066,76.8074389,preschool,,
Anganwadi No.37 KALLOLY,9.544542,76.8106873,preschool,,
Anganwadi No.35 KARIPLAVU,9.5481601,76.8036388,preschool,,
Anganwadi No.28 VIZHIKKATHODU,9.5108077,76.8098827,preschool,,
Anganwadi No.41 NEDUMALA,9.5111398,76.8354839,preschool,,
Anganwadi No.29 KADAVANAKKADAVU,9.5158282,76.8053676,preschool,,
Kizhakke Attapallam,10.8023534,76.8039949,preschool,,
Anganwadi No.45 KURUVAMOOZHY,9.5003893,76.8360484,preschool,,
"Anganwadi No.46 , KORATTY",9.4994501,76.8442456,preschool,,
"Anganwadi, Kundukaadu",10.7731671,76.7255195,preschool,,
"Andanwadi,Challekkade",10.7787872,76.7048155,preschool,,
Mangalamthamchalla,10.8137252,76.8012753,preschool,,
"Anganwadi , Kovilpalayam",10.7767696,76.7326764,preschool,,
Anganwadi,10.7710664,76.7146621,preschool,,
St.Joseph Kinder Garden,10.1815494,76.4138773,preschool,,
Preschool,10.7818232,76.708694,preschool,,
Nambhoodiripadi Anganavadi,10.9373832,76.0783848,preschool,,
Chenadankulamb Anganavadi,10.950625,76.0781075,preschool,,
Anganwadi,10.7926658,76.7346863,preschool,,
Anganvadi,10.8002382,76.7614377,preschool,,
Koyamarakkad Crush Centre,10.7972463,76.7586766,preschool,,
OLH Colony Women & Child Development,9.8555392,76.6813486,preschool,,
Mattathipara Women & Child Development,9.830617,76.700687,preschool,,
Sasthampara Women & Child Development,9.85343,76.6909007,preschool,,
Punchirikavala WCD,9.8467232,76.7010231,preschool,,
Pazhayamattom Women & Child Development,9.8427031,76.7129389,preschool,,
Illichari Anganwadi,9.8527867,76.714338,preschool,,
Plantation Anganwadi,9.8601746,76.7005913,preschool,,
Azhakumpara Anganwadi,9.858036,76.7109148,preschool,,
Kariplcakal Anganwadi,9.8590205,76.7262318,preschool,,
Olamattom Anganwadi,9.8722289,76.7173859,preschool,,
Mooripara Anganwadi,9.8622453,76.6841151,preschool,,
Ponnamthanam Anganwadi,9.8719422,76.7094061,preschool,,
Edayadi Anganwadi,9.8442859,76.6899561,preschool,,
Achapra Anganwadi,9.8682725,76.6898528,preschool,,
Vadakummury Anganwadi,9.8653645,76.6864079,preschool,,
Anganwadi,10.7977499,76.7529632,preschool,,
Bethany Toddlers Town,13.0079886,77.7194817,preschool,,
The Cathedral & John Connon Infant School,18.9560239,72.803436,preschool,,
Sai Nilayam Nursery School,10.8065754,76.7930476,preschool,,
Majeed Kundu Anganawadi,10.9422692,76.0593798,preschool,,
Chithrampalli Anganawadi,10.9479129,76.0618746,preschool,,
Preschool,10.9379951,76.0636936,preschool,,
"Anganavadi,Poovanchina",10.950362,76.0040118,preschool,,
Parappur Anganawadi,10.9604312,76.0571477,preschool,,
Maravattam Anganawadi,10.968354,76.0521682,preschool,,
Chaliyamkudam Anganawadi,10.959811,76.0437571,preschool,,
Thaanikuzhi Anganawadi,10.9637643,76.0396616,preschool,,
Paalaparamb Anganawadi,10.9693404,76.0391736,preschool,,
Maruthinchira Anganawadi,10.9588896,76.0369601,preschool,,
Attupuram Anganawadi,10.9588263,76.012504,preschool,,
Poovanchina Anganawadi,10.9490848,76.0081798,preschool,,
Preschool,10.9347749,76.0439981,preschool,,
Ashaaarikulamb Anganawadi,10.9472939,76.0683988,preschool,,
Thoovappara Anganawadi,10.9335506,76.0537536,preschool,,
Muzhanghaani Anganawadi,10.9396265,76.0269885,preschool,,
Punnathala Anganawadi,10.9458311,76.0192334,preschool,,
Kavilpeedika Anganawadi,10.9554648,76.0158154,preschool,,
Chandhaparamb Anganawadi,10.9568636,76.0095083,preschool,,
Parammal Anganawadi,10.9653186,76.0150704,preschool,,
Vattaparamb Anganawadi,10.9692789,76.0225066,preschool,,
A.C Nirapp Anganawadi,10.9679571,76.0243991,preschool,,
Kadampuzha Anganawadi,10.9401445,76.0399819,preschool,,
Melmuri Anganawadi,10.9511536,76.0403678,preschool,,
Chullikkad Anganawadi,10.9479684,76.0457354,preschool,,
Melmurikaad Anganawadi,10.9523214,76.050151,preschool,,
Kannookkara Health Sub Centre,11.6589733,75.5651413,preschool,,
Pattyat Gate,11.6636158,75.5632413,preschool,,
Vallathkunnu,11.6435233,75.5787074,preschool,,
Punnerithazhe,11.6396882,75.5799294,preschool,,
Vellikulangara,11.6461686,75.586816,preschool,,
Onchiyam,11.6520168,75.5802644,preschool,,
Tharol,11.6534997,75.5749235,preschool,,
Onchiyam Dharma,11.6557545,75.5712518,preschool,,
Naduvaanikunn,11.6526055,75.5650157,preschool,,
Madappalli College,11.649495,75.5695458,preschool,,
madappally,11.6435865,75.5658543,preschool,,
Arakkal,11.6405372,75.5624683,preschool,,
Maaliyekkal,11.6369785,75.5634464,preschool,,
Puliyerintavide,11.6361351,75.5692566,preschool,,
Nadapuram road,11.6399059,75.5751121,preschool,,
Preschool,11.1886119,75.9684777,preschool,,
Poovam pre school,12.0858876,75.3963772,preschool,,
Pulickathotty Anganwadi,9.990055,76.8514606,preschool,,
Parichakam south,10.7303932,75.9633532,preschool,,
"Anganwadi, Koottadammal",10.9274441,76.0406422,preschool,,
Pambupara Anganwadi,10.8184254,76.8401185,preschool,,
"Anganwadi , Chandrapuram",10.8300223,76.8409178,preschool,,
Aided Mappila Lower Primary School Munhakkulam,11.0465506,76.099706,preschool,,
Kidzee,29.2144601,79.5141837,preschool,,
Bright Star Academy,29.2172673,79.5108197,preschool,,
Vimalamatha Nursery School Ward 4,9.7792239,77.0836267,preschool,,
St Martha's English Medium Nursery School,9.7460256,77.115185,preschool,,
Pozhuthana Anganvaadi,11.5831914,76.0170507,preschool,,
STEMS Playschool,9.1759695,76.5620154,preschool,,
KPPM Upper Primary School,9.1309206,76.8138436,preschool,,
walayar Lekshamveedu Colony,10.8421321,76.8428251,preschool,,
"Anganwadi, Parappadi",10.7791117,76.7162668,preschool,,
Chullimada Anganwadi,10.8037014,76.7841868,preschool,,
"Anganwadi, Payattukaadu",10.8074791,76.7695082,preschool,,
Ganeshapuram Anganavadi,10.8103212,76.7961505,preschool,,
Sanfort Play School,12.91474,77.6500214,preschool,,
The Base Kingdom School,29.1948858,79.5047474,preschool,,
Happy Children School And Activity Center,29.232093,79.4557638,preschool,,
Srikrishna Free Primary School,22.1710833,88.4162329,preschool,,
Happy Steps Academy School,29.1961253,79.5096666,preschool,,
Kids' Zone Creche Play,29.2134342,79.5181967,preschool,,
KVM Public School Kids' Zone,29.2132158,79.5164703,preschool,,
KLAY Preschool and Day Care Bagmane WTC,12.9841773,77.6941386,preschool,,
Guru Global Pre School,29.2269867,79.5065261,preschool,,
Shemrock School,29.2296381,79.5036132,preschool,,
Little Angel's Play School,29.2315399,79.4882123,preschool,,
The Scholar Kids Play School,29.2346425,79.473188,preschool,,
Little Elly's Preschool,12.9342842,77.6977305,preschool,,
The Little Gym of Whitefield,12.96522,77.7323991,preschool,,
Gnapathyppara Anganwadi,10.8318168,76.3266455,preschool,,
എഴുത്തശ്ശൻകുളം അങ്കണവാടി,10.828088,76.3355467,preschool,,
Ashtathu Mana Anganwadi,10.8243871,76.3254333,preschool,,
Mundanattukara Anganwadi,10.818377,76.3280913,preschool,,
Makkandippara Anganwadi,10.8140253,76.3183066,preschool,,
Nayattupara Anganwadi,10.8072743,76.3199501,preschool,,
Theyyampadi Anganawadi,10.8146008,76.340753,preschool,,
Kottakkulam Anganwadi,10.810467,76.3275513,preschool,,
Chavathakkad Anganvadi,10.8122554,76.3302891,preschool,,
Pathamkulam harijans colony anganwadi,10.8108062,76.3352939,preschool,,
pavukkonam anganwady,10.8023313,76.3279232,preschool,,
Pathamkulam Anganwadi,10.8107916,76.3401901,preschool,,
Tharuvakkonam Anganwadi,10.8407951,76.3349209,preschool,,
palakkode anganwadi,10.8199263,76.3366591,preschool,,
pavukkonam anganwady,10.8052377,76.3291838,preschool,,
Konthramkundu Anganwadi,10.8061539,76.3652705,preschool,,
Kayarat Padi Anganvadi,10.8106837,76.3550807,preschool,,
V K padi Anganavadi,10.8053446,76.3469633,preschool,,
Iruvilamkunnu Anganwadi,10.820113,76.344284,preschool,,
Karayanamkunnu Anganwadi,10.8262981,76.3443296,preschool,,
Kannikkattuparambu Anganvadi,10.8383281,76.3395007,preschool,,
Pathayappadi Anganwadi,10.8175856,76.3656054,preschool,,
Iruvilamkunnu Anganwady,10.8212964,76.3437931,preschool,,
Karayanamkunnu Anganwady,10.8274596,76.3429458,preschool,,
VK Padi Anganwady,10.8053385,76.346956,preschool,,
Kayarattupadi Anganwady,10.8089945,76.3561847,preschool,,
Kondhrankund Anganwady,10.8051507,76.3624442,preschool,,
Pallathpadi Anganwadi,10.8124555,76.3596864,preschool,,
Edappalath Anganwadi,10.8152795,76.3526994,preschool,,
Varikkotil Anganwadi,10.8230713,76.3532517,preschool,,
NPS Global Montessori Centre,13.0062026,77.5493497,preschool,,
Euro kids,18.5964162,73.7681221,preschool,,
Prishti Pre School,12.9555743,77.7228833,preschool,,
Euro kids,18.5967538,73.7691392,preschool,,
Little Millenium Pre School,12.959639,77.7184927,preschool,,
pallikunnu anganvadi,11.7608056,75.927713,preschool,,
Sacred Heart Nursery School,12.9682507,77.6032552,preschool,,
St. Patrick's Nursery School,12.97077,77.6058214,preschool,,
inderrykunnu anganwadi,11.7482265,75.9444051,preschool,,
pullora anganwadi,11.7534727,75.9322779,preschool,,
thettamala anganwadi,11.7460483,75.9310172,preschool,,
poorinji anganwadi,11.7435636,75.9252613,preschool,,
konniyodu anganwadi,11.7486641,75.9144338,preschool,,
Edacheri anganwadi,11.7401328,75.9093779,preschool,,
perinjerimala anganvadi,11.7268026,75.9013566,preschool,,
Little Millenium Preschool,12.9126976,77.6393278,preschool,,
Oxford International Preschool,12.9126997,77.6391852,preschool,,
Hive Preschool,12.9125039,77.6390833,preschool,,
Preschool/ Kinder garden,8.5547354,77.1416112,preschool,,
Little Elly,13.0192603,77.5661464,preschool,,
Kalyanchak Primary School,22.1700119,87.8979986,preschool,,
Pumpkin patch,18.603167,73.7704806,preschool,,
Bright Beginnings Preschool,12.9627583,77.7328142,preschool,,
Little Genie Montessori,12.9608641,77.720036,preschool,,
Kites,12.9594116,77.7212545,preschool,,
The Foundation,12.96916,77.7455248,preschool,,
Kideens,12.9690167,77.7444709,preschool,,
The Sommer School,12.9602554,77.7466303,preschool,,
Mont Ivy Preschools,12.9766547,77.7397494,preschool,,
Preschool,12.976608,77.7399133,preschool,,
Preschool,22.9073048,88.6367281,preschool,,
Yellow House Preschool,15.5839274,73.7520078,preschool,,
Naavi,12.9705625,77.7482487,preschool,,
Primary Govt school,17.0996934,82.0003841,preschool,,
Bright Buds Play School,19.1741293,72.9361417,preschool,,
Zion MCBS Kindergarten,9.7243356,77.0496447,preschool,,
Trupti convent,21.1141384,79.1080494,preschool,,
Ohana Kindergarten,15.6035276,73.7531372,preschool,,
R.A.N. Kids,28.9899409,79.3784945,preschool,,
Good Shepherd Nursery School,12.9690519,77.6043286,preschool,,
GD Goenka Toddler House,26.5258641,88.7158062,preschool,,
GOVT MANVILA LP SCHOOL,8.5502266,76.8939681,preschool,,
Little Toddlers Nursery School,15.6141494,73.814262,preschool,,
Bachpan Play School,15.6045341,73.82118,preschool,,
Anganvadi No 69,8.9077376,76.6387291,preschool,,
Amiown Preschool,28.4644695,77.0926973,preschool,,
Dews,30.677062,76.8638036,preschool,,
Preschool,11.7575459,75.9945412,preschool,,
Bachpan Play School,30.3355844,77.9232966,preschool,,
Sunshine Meadows,30.7297746,76.761131,preschool,,
Kinfolk,12.980172,77.7133958,preschool,,
Hello Kids,13.0961345,77.5849998,preschool,,
The Goddard School,13.0691105,77.6398766,preschool,,
Government Pre Primary School - Fadalpura,26.60651,77.3283178,preschool,,
Yellow Bells Preschool,13.0937121,77.5891386,preschool,,
Creations Montessori,12.9631628,77.7246771,preschool,,
Giggles and Wiggles,9.9462755,76.2952191,preschool,,
"Global Montessori Centre, Indiranagar",12.9686203,77.6470105,preschool,,
Rhym's & Funs,9.9648645,76.2987907,preschool,KL,Ernakulam
Girinagar Lower Primary School,9.9637221,76.2990087,preschool,KL,Ernakulam
Preschool,25.2043745,75.8820158,preschool,,
Twinkle,9.9612827,76.2972342,preschool,KL,Ernakulam
Learning Age,9.9494709,76.299274,preschool,,
New Age PreSchool,13.1003787,77.570143,preschool,,
Preschool,28.5624352,77.1873756,preschool,,
Little Caps Pre School,15.5952271,73.8125665,preschool,,
Au Grand Air,28.7036578,77.1681367,preschool,,
Shantinagar Pre Primary School,19.2814962,72.8626869,preschool,,
Nidhi's Playschool,15.6301919,73.7606414,preschool,,
Gurusthanam The Play School,17.7992227,83.3525701,preschool,,
Greenwood High Pre-school,12.972506,77.7495268,preschool,,
Rajkumari Amrit Kaur Child Study Center,28.6259064,77.238077,preschool,,
Glow Montessori Centre,12.8274877,77.6841715,preschool,,BENGALURU
Vidhyalay Ground,16.8671673,74.2039335,preschool,,
EuroKids Pre-School Porvorim,15.5400469,73.8185327,preschool,,
Kidzee,15.5918105,73.8180845,preschool,,
Little Millenium,17.750492,83.2483187,preschool,,
Neev,12.9848869,77.5977032,preschool,,
Presidency Early years,12.9240293,77.5968606,preschool,,
Mahatma Children's Home,12.9106112,77.595548,preschool,,
Playway Nursery School,28.7025395,77.1958957,preschool,,
