name,lat,lng,type,state,district
Maulana Abul Kalam Azad University of Technology,22.5964916,88.4174395,university,,
National Institute of Technology Calicut,11.32158,75.934214,university,,
TIFR Cosmic ray station,11.3832903,76.6659146,university,,
Lovely,31.2601582,75.7072536,university,,
Computer Science Department,17.4072027,78.5194123,university,,
Karnataka State Open University,12.315382,76.6236231,university,,
Kongu engineering college,11.2721791,77.6039999,university,,
Tamil University,10.7496345,79.0932687,university,,
"Kannada University, Hampi",15.2831818,76.4907132,university,,
LPU,31.2549211,75.7046191,university,,
UBDT College of Engineering,14.4525199,75.9179512,university,,
"Govt T D Medical College, Alappuzha",9.4162097,76.3481572,university,,
"ਪੰਜਾਬੀ ਯੂਨੀਵਰਸਿਟੀ, ਪਟਿਆਲਾ",30.3581588,76.4542071,university,,
Janta College,26.6627077,79.1742253,university,,
Karunya University,10.9359043,76.7441816,university,,
Academic Block,27.1297346,93.7429324,university,,
Agricultural Department and CMS (Centre of Management Studies),27.1317208,93.7437305,university,,
Mechanical deptt.,27.130701,93.7431047,university,,
SDM Degree College,12.9902652,75.3326518,university,,
SDM Institute of Technology,12.9901503,75.3410847,university,,
Sant Gadage Baba University,20.9402767,77.7989339,university,,
"Indian Institute of Management, Kozhikode",11.2929703,75.873629,university,,
JCB block,29.025457,77.0585085,university,,
D.C.R.U.S.T,29.0251333,77.0579291,university,,
E2- Block,28.5445826,77.3338694,university,,
F blocb,22.6264173,75.7917438,university,,
Indian Institute of management Indore,22.6268474,75.7904077,university,,
Maulana Abul Kalam Azad Institute of Asian Studies,22.5708108,88.4136384,university,,
International School of Business & Media,22.571115,88.4136891,university,,
NITTTR Residential Campus,22.5768784,88.4302855,university,,
Aliah University,22.576544,88.432737,university,,
CIT Kokrajhar,26.4773975,90.3020608,university,,
"CSE Block, CIT Kokrajhar",26.4769557,90.3028332,university,,
"Hostel No.2, CIT Kokrajhar",26.4777048,90.3004729,university,,
AVM High School,17.317939,78.4032855,university,,
Vardhman Mahaveer Open University,26.8760984,75.8111925,university,,
CSIR-Indian Institute of Integrative Medicine,34.0330134,74.7993337,university,,
Karshika Gaveshanakendram,11.089522,76.1204102,university,,
Jamia Hamdard,28.5153806,77.2502919,university,,
Dayalbagh Educational Institute,27.2279653,78.01349,university,,
Sri Sathya Sai Institute of Higher Learning,14.1631721,77.8092262,university,,
University,29.0452858,75.4225937,university,,
D.S.P INTER COLLEGE NAGALA GAVE,27.3585046,78.6684296,university,,
TODI SINGH INTER COLLEGE NAGALA GAVE,27.3575327,78.6631725,university,,
University Ground,21.156416,79.0950401,university,,
Lakshminarayan Institute of Technology,21.1449873,79.0485863,university,,
Smiore Composite PU College,15.18868,76.3807509,university,,
Punjabi University Patiala,30.3568981,76.4551272,university,,
NEHU,25.611817,91.8996623,university,,
Agriculture University,8.9811292,76.8108772,university,,
Administrative Building-II,26.6985914,92.8326973,university,,
Department of Chemistry,26.69897,92.8341457,university,,
"Indian Statistical Institute, NE Centre",26.6992048,92.8333035,university,,
Department of Energy,26.6993294,92.8348807,university,,
School of Management Sciences,26.7027949,92.8285945,university,,
Electronics and Communication Engineering,26.7042373,92.8281385,university,,
Central Workshop,26.7033316,92.8260946,university,,
Food Engineering & Technology,26.702977,92.8257299,university,,
Mechanical Engineering,26.7037054,92.8265935,university,,
Computer Science Engineering,26.7044242,92.8272694,university,,
Civil Engineering,26.7025457,92.8253168,university,,
Administrative Building-I,26.6996127,92.8306276,university,,
Mass Communication & Journalism,26.698175,92.8317434,university,,
Environmental Sciences,26.697044,92.832076,university,,
Molecular Biology & Biotechnology,26.6971111,92.8314966,university,,
FFE IT - Foundation for excellence india trust,12.9801411,77.6374953,university,,
Tamil University,10.736917,79.097589,university,,
"Maulana Azad University, Jodhpur",26.2740486,72.987252,university,,
Government Arts College,10.7689345,78.7983011,university,,
Computer Society of india,10.7780661,78.7911879,university,,
The Indian Institute of Metals,10.7779427,78.7913107,university,,
Holy Cross College,10.8245021,78.6921604,university,,
Tantia University,29.8699913,73.9370605,university,,
Annai Mathammal Sheela Engineering College,11.1577896,78.3077209,university,,
APJ Abdul Kalam Technological University,8.5414048,76.9058745,university,,
TNAU Play Ground,11.0103722,76.9343155,university,,
IGNOU,23.6073196,72.3957137,university,,
BBD,26.887687,81.0571807,university,,
Ajatshatru Residence,25.0197604,85.4232947,university,,
Tamilnadu Teachers Education University,12.9157009,80.2364655,university,,
A D Joshi Junior College,17.6306051,75.909748,university,,
Indian Model School,17.6305846,75.9101343,university,,
पंडित रवि शंकर शुकला विश्वविघालय,21.2468638,81.5974324,university,,
Ayush and health sciences university,21.2460926,81.6049336,university,,
Raipur institute of technology,21.2262243,81.8010569,university,,
Kushabhau Thakre Patrakarita,21.1721095,81.6244115,university,,
indira gandhi agricultural university,21.2366163,81.7041441,university,,
ITM University,21.2496366,81.6460891,university,,
Gujrat Vidhyapeeth,23.0441852,72.5692947,university,,
University,16.5104171,80.7416692,university,,
DDU,22.6793716,72.8813802,university,,
Ravenshaw University,20.4634446,85.8951147,university,,
Department of Electrical Engineering;Electrical Engineering Department,12.9887139,80.2306876,university,,
Bundelkhand University,25.4530538,78.609738,university,,
MG University Regional Center,10.0178805,76.3017645,university,,
Adikavi Nannaya University,17.0657139,81.8733457,university,,
Defence Institute of Advanced Technology DIAT,18.4242379,73.7587028,university,,
St. Joseph's Convent School,20.997018,75.5538188,university,,
ITER,20.2502972,85.8000303,university,,
IIT Madras,12.9914769,80.2336786,university,Tamilnadu,
Bharathiyar University Complex,11.038113,76.8790518,university,,
Jasper hostel NIT Trichy,10.769399,78.8183653,university,,
anna university,10.6594174,78.7458281,university,,
subas institute of technology,20.3231299,85.8181776,university,,
Jagran Lakecity University ,23.1754563,77.3875459,university,,
University,8.7852971,77.374943,university,,
Maharashtra Animal and Fishery Sciences University,21.1574834,79.0457532,university,,
Maharishi University Of Information Technology,26.9302879,80.9278433,university,,
Pacific Institute of Technology,24.5991548,73.7764558,university,,
Anant National University,23.0308404,72.4271753,university,,
Anant National University Gate,23.0308439,72.4271652,university,,
Jaya College of Arts and Science,13.1231039,80.0453846,university,,
Mannai Narayanasamy Nursing COllege,10.8764145,79.1684325,university,,
Atmiya University,22.2817663,70.7680391,university,,
SKPCPER,23.5296313,72.4561479,university,,
AMPICS,23.5290362,72.4569043,university,,
VMPIM,23.5288222,72.4573897,university,,
UVPCE,23.5286773,72.4580409,university,,
Workshops,23.5277194,72.4575037,university,,
University,23.5280099,72.4594706,university,,
University,23.5271326,72.4590052,university,,
University,23.5259227,72.458246,university,,
University,23.5244171,72.4549429,university,,
University,23.5240159,72.4558918,university,,
University,23.5285839,72.4552378,university,,
University,23.5287389,72.4558974,university,,
NIELIT Gorakhpur,26.7285652,83.4342065,university,,
Mechanical Workshop,26.7297498,83.4350798,university,,
Sri mahalakshmi polytechique college,11.6359677,79.7337162,university,,
VETERINARY COLLEGE ANAND,22.53953,72.9607171,university,,
ANAND AGRICULTURAL UNIVERSITY - AAU,22.5357762,72.9748028,university,,
COLLEGE OF FOOD TECHNOLOGY,22.536751,72.9663425,university,,
IRMA INSTITUTE OF RURAL MANAGEMENT,22.5385108,72.9731152,university,,
Dept. of Management,8.5641665,76.8861991,university,,
Dept. Of Law,8.5641022,76.8860283,university,,
Dept. Of Commerce,8.5640298,76.8858982,university,,
holy cross educational institute,10.8261021,78.6900157,university,,
Sidho-Kanho-Birsha University,23.3613452,86.3397664,university,West Bengal,Purulia
Vallabh Government College Mandi,31.7053591,76.9378346,university,,
Ground,14.4711299,78.7050094,university,,
Dr Rajendra Gade Institute of Technology,20.9422924,77.8434563,university,,
Karnataka State Law University,15.4011019,75.0759669,university,,
KLE Technological University,15.3689037,75.1214505,university,,
IMS Unison Unversity,30.3998367,78.0778018,university,,
DIT University,30.3983396,78.0753455,university,,
ranchi womens college,23.3795613,85.3297516,university,,
statistics department,21.2448382,81.5942487,university,,
Dr. Rajendra Prasad Central Agriculture University,25.9860034,85.6753748,university,,
Electrical Engineering Department,22.4963206,88.3716345,university,,
High Tension Laboratory,22.4961939,88.3713472,university,,
Anna University Regional Campus Coimbatore,11.0420716,76.8860315,university,,
geethanjali college of engineering,17.5210322,78.6310281,university,,
Navrachana University,22.2927001,73.122261,university,,
Kumaun University (Admin Block),29.3911519,79.4459029,university,,
Indian Institute of Management Kashipur,29.1847115,79.0000462,university,,
Eternal University,30.7558509,77.2987962,university,,
Central University of TamilNadu,10.8119244,79.6154067,university,,
Mar Augusthinose College,9.7994013,76.6639505,university,,
GURUKUL,18.2975689,75.9446979,university,,
Central University of Punjab,30.1401932,74.7909105,university,,
Sri Krishnadevaraya University,14.6103133,77.6472849,university,,
Uttarakhand University of Horticulture & Forestry,30.0595303,79.0002551,university,,
Dr. C. V. Raman University,22.0145711,82.9593486,university,,
Markazu Sultaniyya,9.209264,78.7155576,university,,
JD INTERNATIONAL,23.0545014,69.6105981,university,,
Techno India University,22.5760302,88.4284409,university,,
Kannur University,11.9832175,75.3642611,university,,
University,10.995084,76.1821054,university,,
Martin Luther Christian University,25.5705172,91.9216394,university,,
"Rajiv Gandhi Indian Institute of Management, Shillong",25.5587389,91.904095,university,,
Central University of Kerala Capital centre,8.5237709,76.9452618,university,,
Baba Farid University of Health Sciences,30.6836576,74.7348714,university,,
Mohanlal Sukhadia University,24.5943688,73.7316634,university,,
IMR College,21.0015578,75.559997,university,Maharashtra,Jalgaon
Nattika B-ed center,10.4095815,76.0960019,university,,
Rajasthan University,26.8877852,75.8138009,university,,
University of Kashmir (South Campus),33.7271207,75.1672013,university,,
National Institute of Technologies Puducherry,10.9850622,79.8443779,university,,
University College of Engineering & Technology for women,18.0221903,79.5505197,university,,
Visva-Bharati University,23.6794559,87.689454,university,,Birbhum
Fellowship School of Nursing,9.372533,76.6543876,university,,
Government Junior College,17.3221284,78.4009874,university,,
Spring Field High School,17.3214539,78.4019895,university,,
PVN Telangana State Veterinary University,17.3204193,78.4017426,university,,
Adarsh Vidyalaya High School,17.3185143,78.4038345,university,,
AINP on Vertebrate Pest Management PJTS Agricultural University,17.3270149,78.4104749,university,,
University,17.4422278,78.4589938,university,,
NATIONAL HIGH SCHOOL,17.4404381,78.4548172,university,,
National School,17.439868,78.4567037,university,,
Chinmaya Vidyalaya,17.4353968,78.4583742,university,,
Tulasi High School,17.4020515,78.4446463,university,,
G.Narayanamma High School,17.391815,78.4427097,university,,
Happy Scholars School,17.3927161,78.4443244,university,,
Shums The School,17.3924836,78.4442748,university,,
Happay Scholars School,17.3914861,78.4452494,university,,
HPS Kids Mehdipatnam,17.3919954,78.444446,university,,
"Vikas Vidyalaya High School , Asifnagar",17.3916425,78.4440107,university,,
Peace Angels High School,17.3906223,78.4426149,university,,
Sunrise High School,17.3896623,78.4430524,university,,
SunRise High School,17.3893911,78.4428517,university,,
Astrokids Techno School,17.3889843,78.442378,university,,
Sradha Play School,17.3885388,78.442775,university,,
Hidayah Islamic International School - Mehdipatnam,17.386989,78.442272,university,,
The Divine Touch Pre School,17.3839597,78.439861,university,,
St. Mary's High School,17.3840114,78.4389701,university,,
MNR School of Excellence,17.3833614,78.4378852,university,,
Krishnaveni Talent School,17.3825929,78.4385934,university,,
Vivekananda High School,17.3846701,78.4382979,university,,
DPS Future Windows School,17.3902275,78.4359297,university,,
Isra School For Early Learners,17.3924427,78.4332714,university,,
Kidzee,17.3917777,78.4335037,university,,
Sun Beam Kids,17.3906951,78.4281251,university,,
Gautam Vidhyalaya,17.3931587,78.4307287,university,,
VIP International School,17.3848705,78.4299424,university,,
Iqra International School,17.3770594,78.4312693,university,,
heera international school,17.3678618,78.4311608,university,,
New Brilliant High School,17.366665,78.4296755,university,,
BHARATHI HIGH SCHOOL,17.3782153,78.4356797,university,,
Sri Sai Surya High School,17.3707564,78.44202,university,,
Indian High School,17.3688217,78.4466279,university,,
Dew Drops High School,17.3726843,78.4504049,university,,
Mesco Grades High School,17.3723566,78.4512605,university,,
Jyothi Memorial Good Shepherd High School,17.3815923,78.4673148,university,,
New Paramount High School,17.3789287,78.4641779,university,,
LMG High School,17.3762245,78.4672731,university,,
Decent High School,17.4169035,78.4985094,university,,
Govt Girls High School,17.4189264,78.5003002,university,,
Modern High School,17.4144712,78.499219,university,,
Musheerabad Public High School,17.4182177,78.5018142,university,,
Radiant High School,17.419326,78.5042977,university,,
kakatiya high school,17.4193915,78.5058749,university,,
KRISHNAVENI TALENT SCHOOL,17.418597,78.5058844,university,,
Blue Birds High School,17.4177504,78.5060257,university,,
MARTINET HIGH SCHOOL,17.415587,78.5037177,university,,
Modern High School,17.415482,78.5020467,university,,
Martinet High School,17.4148758,78.5015916,university,,
Red Convent High School,17.4131064,78.5015336,university,,
Ram Nagar High School,17.4094797,78.5060608,university,,
Holy Trinity High School,17.4104117,78.5065615,university,,
Luna high School,17.4113057,78.5068802,university,,
Vijay Bharathi Model High School,17.4112786,78.5064382,university,,
KAKATIYA TECHNO SCHOOL,17.4130521,78.5056436,university,,
Mother Teresa's High School,17.4128856,78.5064648,university,,
St Pious X School,17.4136041,78.5069181,university,,
New Martinet High School,17.4152247,78.5078885,university,,
Lotus Model School,17.4088025,78.5031921,university,,
Model High School,17.4253343,78.5238506,university,,
"Don Bosco School, Ravindra Nagar, Sitaphalmandi",17.4251271,78.5220874,university,,
AMARAVATHI SCHOOL,17.4245923,78.5206308,university,,
The Future School (Ekalavya School),17.4213524,78.5211463,university,,
Sarathi School,17.4195609,78.5402016,university,,
Tejasvi Vidyaranya,17.4180277,78.539814,university,,
JSPS Government Homeopathic Medical College,17.3979714,78.5311836,university,,
Pragati Vidya Niketan High School,17.3945106,78.527628,university,,
Sana High School,17.3945164,78.5288257,university,,
Springboard International Pre School - Ramanthapur,17.3950545,78.5308929,university,,
Vaishnavi Olympiad School,17.3953573,78.5305516,university,,
Cardinal Gracious High School,17.3904006,78.5342435,university,,
Krishnaveni Talent School,17.3874395,78.5332759,university,,
Sai Vikas Model School,17.3861566,78.5322703,university,,
SUDHIKSHA PLAY SCHOOL,17.386448,78.5323491,university,,
TS Grammar High School,17.3875962,78.5309909,university,,
Sathya sai high school,17.3826528,78.5299096,university,,
Sri Saraswathi School,17.3813762,78.5170522,university,,
gps school,17.3810378,78.5174638,university,,
Gandhi High School,17.3841524,78.5275797,university,,
Moon Right School,17.3848505,78.5262214,university,,
Old Gandhi High School,17.3849235,78.5255675,university,,
New Patel Nagar AWC,17.3858946,78.5263139,university,,
Divya Jyothi High School,17.3860498,78.5277397,university,,
Shantiniketan High School,17.3852432,78.5273984,university,,
Bharati Vidhya Bhavan School,17.3858925,78.513538,university,,
Sri Nalanda Talent High School,17.3894691,78.5074201,university,,
Moral Educational And Welfare Society,17.3900796,78.5127656,university,,
Knowledge High School,17.3886002,78.5143557,university,,
Kishore Kunj High School,17.3892025,78.514707,university,,
Vivekananda School,17.3871818,78.5151895,university,,
Unison International School,17.3835379,78.5179344,university,,
Bhashyam Model High School,17.3833066,78.5198893,university,,
Suryodaya High School,17.3837426,78.5202366,university,,
Saraswathi Vidyaniketan High School,17.3860223,78.5253082,university,,
"Holy Mary Educational Society( Abacus, Vedic Maths, Calligraphy, Tutorials)",17.3859916,78.5270101,university,,
Sree Sai Baba Vidya Educational Society,17.3868171,78.5291129,university,,
Vignan Jyothi High School,17.3852326,78.5288541,university,,
SAI RAM CONVENT HIGH SCHOOL,17.388468,78.5287184,university,,
Rishi Talent School,17.3879171,78.5275683,university,,
Ananda Jyothi High School,17.3895601,78.5311984,university,,
Little Flower's Play School,17.3904591,78.5154756,university,,
Little Flower's High School,17.390211,78.5160003,university,,
Al Ameen Techno School,17.389789,78.5176432,university,,
St Paul's Model High School,17.3905434,78.5077177,university,,
Sri Vidya Secondary School,17.3918817,78.5090651,university,,
Rose Buds High School,17.3956978,78.5236746,university,,
Swami Dayananda High School,17.3952838,78.5232504,university,,
Owaisi School Of Excellence,17.3930972,78.5202065,university,,
Osmania Model High School,17.3936329,78.5201344,university,,
Mumtaz High School,17.391379,78.5060429,university,,
St.Hannah's High School,17.3933668,78.507368,university,,
T.I.M.E. Kids Preschool- D D Colony,17.3975579,78.5205286,university,,
"Academic Heights Public School, D.D. Colony",17.3977645,78.5193422,university,,
"EuroKids Preschool at Baghamberpet, Best Kindergarten in Hyderabad",17.4031565,78.5203681,university,,
Kaushalya global the complete school DD Colony,17.4027701,78.5202541,university,,
Smartkidz Preschool,17.4019562,78.5194856,university,,
Bachpan Play School D D Colony,17.401498,78.5188486,university,,
Narayana e-techno school,17.4013675,78.5181848,university,,
Primavera Preschool,17.4047002,78.5169313,university,,
Geetanjali High School,17.4052787,78.5161561,university,,
Government High School Jamia Osmania,17.4055679,78.5170252,university,,
Andhra Mahila Sabha School Of Informatics,17.4061463,78.5153434,university,,
Sri Aurobindo International School,17.4055852,78.5148806,university,,
The Mother's Integral School,17.4055388,78.5150104,university,,
Elen kindergarten School,17.3983884,78.5143918,university,,
IQRA High School,17.4186162,78.463343,university,,
Rose School,17.4186487,78.462253,university,,
Nightingale School,17.4172172,78.4628477,university,,
Saviour High School,17.4167139,78.463187,university,,
Master Talent School,17.4134137,78.4616519,university,,
Saraswathi Vidya Mandir High School,17.4136113,78.4641457,university,,
Rockdale Nursery Pre School,17.4162302,78.455753,university,,
A.P.M. School,17.4136159,78.4532113,university,,
Saraswathi shisu mandir,17.4130869,78.4530706,university,,
SARASWATI VIDYA MANDIR SCHOOL,17.4127151,78.4528972,university,,
Sri Saraswathi Vidya Mandir Ps,17.4126316,78.4522655,university,,
Abhyasa School Khairatabad,17.4116427,78.4543627,university,,
Jupiter Play School,17.4112915,78.4543497,university,,
Dayanand High School,17.411246,78.4555535,university,,
Prakash Vidya Niketan High School,17.4111386,78.4565351,university,,
prakasam school,17.4109747,78.4566116,university,,
Sri Ram Sai School,17.4106395,78.4541655,university,,
Hotline High School,17.4114795,78.4615657,university,,
Nishulk Prabhat High School,17.4102426,78.4617494,university,,
Shadan Junior College for Boys,17.4091909,78.4613239,university,,
Shadan Women's College of Engineering & Technology,17.4096032,78.4612074,university,,
CHIREC International School Jubilee Hills Campus,17.4284153,78.3988434,university,,
NRI Academy Jubilee Hills,17.4339646,78.3999765,university,,
The Loharu Montessori Children's House,17.4328865,78.3994454,university,,
Shriram Montessori Road No. 46 Branch,17.4305637,78.3971694,university,,
"Govt Primary School,Jubilee Hills-Masthan Nagar",17.4323904,78.3982658,university,,
SHIVAJI VIDYA PEETH HIGH SCHOOL,17.4223811,78.4037842,university,,
Shriram Montessori House of Children,17.41543,78.4048723,university,,
Little Elly,17.4141797,78.4054691,university,,
Pioneer World School,17.4423925,78.3971119,university,,
St. Mary's Junior College,17.4422085,78.3974119,university,,
The Learningraph,17.4433156,78.3969912,university,,
VelocIITy School,17.4441106,78.3977727,university,,
Iris Florets Madhapur,17.4443981,78.4006274,university,,
Sloka Kindergarten School,17.4361015,78.4136397,university,,
Indian Public School,17.4354043,78.4151125,university,,
"Happy Kids School and International Montessori Teachers Training , PPTC, NTTC COURCES",17.4340723,78.418004,university,,
Sri Sai Ram High School,17.4346594,78.4217025,university,,
Kidzee Jubileehills Play School,17.436004,78.4174383,university,,
Goutham Vidya Niketan,17.4359805,78.4177569,university,,
Little Star high school,17.4377049,78.4143329,university,,
Ekalavya Foundation,17.4470171,78.4097371,university,,
Brilliant Talent High School,17.4482016,78.4111128,university,,
Sai Renu Unique High School,17.4470664,78.4144352,university,,
Joyce: The Play School,17.4365512,78.4269263,university,,
SGB Model High School,17.4376017,78.4282397,university,,
Unique Public School,17.4324097,78.4252678,university,,
Sai Krupa High School,17.4329953,78.4253617,university,,
Sri Sairam High School,17.4344136,78.4249541,university,,
Walter Memorial High School,17.4357487,78.4204287,university,,
STAR GLOBAL SCHOOL,17.4345944,78.4190319,university,,
Disha Schools,17.4338968,78.4199433,university,,
Sri Sai Kiran high School,17.4333617,78.4230964,university,,
Vidya Niketan High School,17.433945,78.4276962,university,,
Amaravathi High School,17.4332692,78.4275719,university,,
Sri Sairam High School,17.4330818,78.4271267,university,,
Sri Sai Saraswathi Vidyanikethan,17.4308888,78.4281653,university,,
Unique Public School,17.4319374,78.4286034,university,,
Sri Sairam High School Main Branch,17.4329259,78.4278769,university,,
Sri Sai Public School,17.4330098,78.4283,university,,
Santharam Public School,17.4305623,78.4291518,university,,
HPS Kids Kamalapuri Colony,17.4303869,78.430006,university,,
Samskar Global High School,17.4352522,78.4286618,university,,
Aishwarya Educational Academy,17.430131,78.4310177,university,,
Brainobrain Hyderabad,17.4306464,78.433941,university,,
Radiant High School,17.4348241,78.439629,university,,
Sri Chaitanya School,17.4372947,78.4412176,university,,
Global kids international school,17.4349108,78.4378621,university,,
MGM INTERNATIONAL SCHOOL,17.4345308,78.4328895,university,,
Kidzee Pre-School,17.4822094,78.2959999,university,,
Raos High School,17.4785088,78.2975931,university,,
Kidzee BHEL LINGAMPALLY,17.4842051,78.2995091,university,,
Thayal Grammer High School,17.4830041,78.3063348,university,,
Raos High School,17.4843865,78.3094556,university,,
sri Sai Chaitanya School,17.4903138,78.3169068,university,,
Vidyaniketan Model High School,17.4891242,78.3190946,university,,
sharada vidyaniketan,17.483293,78.3300281,university,,
Wings Play School,17.4709316,78.3324156,university,,
Sahithi Vidyaniketan High School,17.4824269,78.3183098,university,,
Seeds School - Uranus campus,17.4799375,78.3176485,university,,
Epistemo Vikas Leadership School,17.4685707,78.3038358,university,,
Sadhana Infinity School,17.4755464,78.3029526,university,,
Edsmart Global - Nallagandla,17.4783486,78.3039511,university,,
"EuroKids Preschool at Nallagandla, Most Awarded Kindergarten in Hyderabad",17.4781306,78.3040678,university,,
Akshaya Foundation School,17.478913,78.3102125,university,,
Swami Educational Society-Madurai Kamaraj University,18.9706634,72.8170518,university,,
The Dadar Parsee Youths Assembly High School,19.0179439,72.8535649,university,,
Kendriya Vidyalaya Mankhurd,19.0392488,72.9393322,university,,
"Naval KG School,Mankhurd",19.0391251,72.938827,university,,
"NOFRA, Mankhurd",19.039155,72.9400359,university,,
Atomic Energy Central School -1,19.0408105,72.9200122,university,,
Mahatma Gandhi University Extension Centre,9.4246605,76.5766502,university,,
College of Engineering Cherthala,9.7435828,76.3641163,university,,
Indira Gandhi National Open University Regional Centre,8.4821226,76.9592783,university,,
Parul University,22.2887492,73.3638405,university,,
University College of Engineering,8.5643365,76.8846795,university,,
Sharda University,28.4734073,77.4829339,university,,
Delhi Technical Campus,28.4746766,77.4764806,university,,
Pondicherry University Mahe Centre,11.7028958,75.538159,university,,
Jaya College of Physiotheraphy,13.1230861,80.0460099,university,,
E-1 Block,28.5451643,77.3343636,university,,
E-3 Block,28.5443355,77.3333368,university,,
K-1 Block,28.5457879,77.3351404,university,,
K-2 Block,28.5454107,77.3359596,university,,
K-3 Block,28.5447798,77.3361581,university,,
J-1 Block,28.5444779,77.3353547,university,,
I-1 Block,28.5430926,77.3336792,university,,
1-2 Block,28.5426088,77.3335036,university,,
I-3 Block,28.5425327,77.3330706,university,,
F-1 Block,28.5436771,77.3330489,university,,
F-2 Block,28.5434457,77.3327638,university,,
F-3 Block,28.543135,77.3323741,university,,
J-3 Block,28.5434459,77.3341183,university,,
Patliputra Univerity,25.6023902,85.1594609,university,,
Government Higher Secondary School,26.2889801,94.1186386,university,,
Don Bosco Higher Seconary School,26.2809882,94.1271769,university,,
Central University of Gujarat,23.2451809,72.6619837,university,,
Amity University,27.1734749,75.9553184,university,,
CENTRAL LIBRARY,23.8269023,78.7711252,university,,
Department of General & Applied Geography,23.8280972,78.7723024,university,,
Sikkim Professional University,27.3109734,88.5950683,university,Sikkim,
University,17.5604951,78.4560041,university,,
University,17.428182,78.5334413,university,,
University,9.6734987,76.5572194,university,,
Rastrakavi Maithlisharan Gupt Mahavidyalaya chirgaon,25.5818108,78.8216905,university,,
Amity University Jharkhand (RANCHI),23.3500519,85.3256983,university,,
Cluster University Srinagar,34.0617973,74.8072269,university,,
VINOBA BHAVE UNIVERCITY,24.0221708,85.3766243,university,,
College of engineering pathanapuram,9.0476831,76.9087267,university,,
Zain-Ul-Abedin Budshah Gate University of Kashmir,34.1378846,74.8397908,university,,
Maulana Rumi Gate University of Kashmir,34.1317773,74.8410874,university,,
University of Kashmir Sir Syed Gate,34.1278044,74.836567,university,,
"Amrita Vishwa Vidyapeetham, Ponekkara Heathcare campus",10.0329836,76.2932623,university,Kerala,
"Dharmsinh Desai University (DDU), Nadiad",22.6797254,72.880186,university,,
AIIMS KALYANI,22.9744803,88.5300703,university,,
Suryadatta college of Management,18.5202898,73.7731303,university,,
The Suryadatta Education Foundation,18.5196451,73.773235,university,,
Pondicherry University Port Blair Campus,11.6350555,92.7422118,university,,
Vellore Institute of Technology - VIT Bhopal,23.0755086,76.8497778,university,,
Chaudhary Charan Singh University,28.967017,77.7388619,university,,Meerut
Sri Ram Engineering College Veppampattu,13.1176823,79.9916159,university,,
Meenakshi College of Nursing,9.9474808,78.1621585,university,,
University,25.0183119,85.3784319,university,,
Naval Maritime Academy,18.8952175,72.8105378,university,,
Office of the Controller of Examinations,10.0786496,78.7953615,university,,
ECE Dept.,10.9361883,76.7433221,university,,
CTC / Library,10.9352648,76.7432827,university,,
Dove Building,10.9352754,76.7426641,university,,
CSE Dept.,10.9335548,76.7431147,university,,
BioTech Dept.,10.9361553,76.7425672,university,,
Agri Dept.,10.9365883,76.7412051,university,,
Civil Dept.,10.9354608,76.744073,university,,
Aerospace Dept.,10.9343679,76.7449195,university,,
EEE Dept.,10.9362795,76.7418033,university,,
Media center,10.9346719,76.7431953,university,,
"Regional Center-Kannur, KUFOS",12.0912381,75.200602,university,,
Mumbai University,16.9956538,73.3301397,university,,
"Kannada University, Hampi",15.2815718,76.4834122,university,,
Kerala university of fisheries and ocean studies,9.9116003,76.3164245,university,,
Biswa Bangla Biswabidyalay,23.6394895,87.6786949,university,,
P.V. Narsimha Rao Telangana Veterinary University Administrative Office,17.3262463,78.4094032,university,,
ground,13.0614063,80.279333,university,,
"Govt Arts and Science College, Thrithala",10.7676408,76.0968289,university,,
KIIT Main Gate Security Room,20.3534889,85.8192844,university,,
Centre for Developemtn Studies and Activities,18.5075067,73.770818,university,,
University,18.5377942,73.8335456,university,,
St Joseph's Convent School,20.9970905,75.5536167,university,,
Podar International School,21.0133512,75.5639734,university,,
Nandanibai Girls School,21.0103053,75.5617874,university,,
Mj College,21.0000302,75.5546438,university,,
St Lawrence High School,21.0016044,75.569905,university,,
Department of Politics and Public Administration,18.5517146,73.8258085,university,,
Department of Law,18.5469747,73.8289406,university,,
University Press,18.5477342,73.8283583,university,,
উত্তরবঙ্গ বিশ্বাবিদ্যালয়,26.7097085,88.3538182,university,,দার্জিলিং
MUHS Administrative Building,20.0786941,73.8027874,university,,
University,18.5023768,73.7700102,university,,
R Square Academy,13.1211345,80.1486086,university,,
"R Square Academy for Tnpsc, Tnusrb SI, Tet, Police, Ssc, Rrb, Bank Exam Coaching Centre",13.0307877,80.1638766,university,,
United University,25.3957121,81.7583556,university,,
Gokhale Institute of Politics & Economics,18.5208688,73.8327706,university,,
Institute of social science,28.5316826,77.1495711,university,,
Sanskriti University,27.6888985,77.5184926,university,,
Christian Medical College,12.879059,79.1305932,university,,
BNG Hotel Management Institute,22.5852933,88.4399992,university,,
MVN University,28.0155993,77.3339873,university,,
Sandip Institute of Pharmaceutical Sciences,19.9634818,73.6686905,university,,
Z. P. Primary school,21.2712864,79.396101,university,,
ad ground,26.9127474,75.8089685,university,,
aerobic club,26.912342,75.8086293,university,,
Dancing hall,26.9138394,75.8119546,university,,
Runner ground,26.9129585,75.8098886,university,,
brsnc college,22.7642174,88.3556768,university,,
barrackpore rastraguru surendranath college,22.7645811,88.3557939,university,,
"University of Calcutta, Ballygunge Science College Campus",22.5266958,88.362622,university,,
Indian Maritime University,12.8727912,80.2353855,university,,
School of Hospitality,28.3654877,77.5419595,university,,
Scope Global Skills University,23.1536966,77.4792392,university,,
Adarsh Prathamik Shala (Elementary school),23.1828788,72.6619214,university,,
Agriculture gate,21.5089684,70.4520255,university,,
Acharya Ng Rsnga university,15.9010626,80.4736516,university,,
Dayanand College of Commerce,18.4013477,76.5585639,university,,
Dayanand Science College,18.4013188,76.5572821,university,,
Dayanand College Of Law,18.4019331,76.5567998,university,,
Narhare Classes,18.4031623,76.5569247,university,,
Students PU College - Commerce Branch,13.0184496,76.1133497,university,,
ICFAI University,25.5265715,90.1606682,university,,
Langhin Pamgaom H.S school,26.2034446,93.1258316,university,,
Laghin college,26.2031336,93.1271112,university,,
GOHAIBARI B(Awc),26.7007704,94.4365764,university,,
NAKACHARI JATIYA VIDWALAYA,26.6925441,94.4055494,university,,
DESSOI VALLEY ACADMY,26.6899692,94.4040115,university,,
Maharana Pratap University,31.6884366,76.1162932,university,,
Department of Computer Science,18.5528472,73.8221594,university,,
Department of Media & Communication Studies,18.5539915,73.8225086,university,,
International Students Cells,18.5556206,73.8237104,university,,
Department of Chemistry,18.5520754,73.8241664,university,,
Botany Department,18.5487768,73.8243987,university,,
Zoology Department,18.5493682,73.8237828,university,,
C-DAC,18.5517394,73.8238008,university,,
Department of Physics,18.5512829,73.8236788,university,,
Department of Commerce,18.5480718,73.8277203,university,,
Department of Geology,18.5483994,73.8275902,university,,
Department of Mathematics,18.5490289,73.8274108,university,,
"Department of Scientific computing, modeling and simulations",18.5485908,73.8292683,university,,
IT cell,18.5484079,73.8289722,university,,
Department of Geography,18.5480567,73.8273208,university,,Pune
"English, hindi, marathi Department",18.5504583,73.8269321,university,,
Microbiology Department,18.5462183,73.8297842,university,,
Pune University MBA(PUMBA),18.547166,73.8299225,university,,
Department of Technology,18.5569168,73.8277317,university,,
Guest house,18.5567516,73.828336,university,,
Department of physical education,18.557149,73.8273561,university,,
Department of education,18.5573503,73.8274106,university,,
department of psychology,18.5566673,73.8273989,university,,
"School of Open Learning, SPPU",18.5569548,73.8263103,university,,
Department of Sports,18.5585252,73.8256101,university,,
Inter University Centre for Astronomy and Astrophysics,18.5594399,73.8256101,university,,Pune
Department of Electronic sciences,18.5516812,73.8226376,university,,
Interdisciplinary School of science,18.5568199,73.8263028,university,,
Sri Venkateswara Veterinary University,16.3675326,80.4361233,university,,
Acharya N.G Ranga Agricultural University,16.3610272,80.434859,university,,
IIIT RGUKT RK VALLEY,14.335706,78.5384077,university,,
AP IIIT RGUKT RKVALLEY CAMPUS PHASE-1,14.3356201,78.5364779,university,,
Rajiv Gandhi University of Technology knowledge Technologies RK Valley Second Gate,14.3330863,78.5413809,university,,
AP iiiT Rajiv Gandhi Statue,14.3304034,78.5364341,university,,
Sri Venkateswara animal husbandry University,15.7083104,77.4248016,university,,
Kadapa Techno High School,14.7469783,78.531496,university,,
G Block,13.6203522,79.2903126,university,,
Pharmacy Block,13.6218587,79.2892494,university,,
MNS Block,13.6213885,79.2891807,university,,
Amrita Vishwa Vidyapeetham,28.4254853,77.3574698,university,,
Shiv Mandir Arjun nivah,24.8070163,85.0261727,university,,
Government High school,23.2173369,69.6314725,university,,
Department of Physical Education,20.9355624,77.8031193,university,,
Department of Chemical Technology,20.9360321,77.8020928,university,,
Department of Geology,20.9366372,77.8023649,university,,
P. G. Department of Microbiology,20.9368362,77.8009804,university,,
Department of Biotechnology,20.9374627,77.7999097,university,,
Department of Physics,20.9383626,77.8001927,university,,
Department of Computer Science,20.940625,77.801527,university,,
Indira Gandhi National Open University Study Center,20.9414599,77.8020543,university,,
Department of Sanskrit,20.9416515,77.8013114,university,,
Convocation Ground,20.9415706,77.7993115,university,,
Department of Law,20.9419764,77.79884,university,,
Department of Mathematics,20.9420847,77.7973018,university,,
Indian Institute of Technology (BHU),25.2621544,82.9925896,university,,Varanasi
ALLAHABAD UNIVERSITY,25.4649427,81.8603052,university,,
DIAMOND JUBILEE HOSTEL GROUND,25.4624693,81.8592971,university,,
UNIVERSITY PARK,25.4653472,81.8606365,university,,
Vira College,29.3844126,78.1290422,university,,
GYMKHANA GROUND,25.2586098,82.9902383,university,,
NAKLI GROUND,25.2583127,82.990765,university,,
DSU School of Engineering,12.6618157,77.4506195,university,,
Adamas University,22.7383436,88.4565859,university,,
স্বামী বিবেকানন্দ ইউনিভার্সিটি,22.7584675,88.3961163,university,,
"Indian Institute of Information Technology, Una",31.4813182,76.190323,university,,Una
Indian Institute of Management (IIM) Bodhgaya Main Gate,24.6795819,84.9632895,university,,
Acharya Shri Vidhyasagar Public School,24.0540225,78.9689734,university,,Sagar
GOVT. RAJIV GANDHI COLLEGE,24.0437931,78.944825,university,,SAGAR
"SREE RAJIV GADEE  GOVT. COLEJ, BANDA",24.0431857,78.948802,university,,SAGAR
Guru Govind Singh Indraprastha University,28.6657347,77.3025984,university,,
Babulal Tarabai Institute Of Research,23.8074609,78.8039834,university,,Sagar
Swami Vivekanand University,23.8191068,78.7995351,university,,Sagar
Lotus Public Senior Secondary School,23.8067816,78.8044101,university,,Sagar
Government Middle School,23.7810455,78.8141865,university,,Sagar
Government Girls High Secondary School,23.7456776,78.8612599,university,,Sagar
Aangnbadee Kaindr,23.728828,78.8895625,university,,Sagar
Government Primary School,23.7153887,78.9081024,university,,Sagar
Chandigarh University,22.5710621,88.4325951,university,,
Oxford University Press,22.5712197,88.4322231,university,,
Dr. YSR Horticultural Administrative Block,16.8878325,81.4537263,university,,
Govt. Excellence Hss School Rehli,23.6406541,79.0680573,university,,Sagar
Govt. College Rehli,23.640153,79.0701641,university,,Sagar
Novell Public School Route,23.406329,79.0228207,university,,Sagar
Career Convent English medium School Deori,23.398388,79.0204513,university,,Sagar
Matas Academy,23.8049975,78.7519158,university,,Sagar
Paras Vidya Vihar  School,23.8083025,78.7519996,university,,Sagar
Gyanveer Institute ManagementOf,23.806831,78.7529254,university,,Sagar
Cambridge Playground With Open Gym,23.8065739,78.7539414,university,,Sagar
Green World PubicSchool,23.7565423,78.7567176,university,,Sagar
Raj masala udyog,23.6684588,78.6557479,university,,Sagar
G. P.  S.       karaiya,23.656865,78.6416818,university,,Sagar
Cmrise School  Jaisinagar,23.6263905,78.5792043,university,,Sagar
Gyanveer College,23.6225261,78.5784119,university,,Sagar
Gynodaya Mahavidyalaya,23.618235,78.5727644,university,,Sagar
University Road (Rajkot),22.2877098,70.7591291,university,,
Masoom School,22.284988,70.7610498,university,,
Masoom primary school,22.2875518,70.7618196,university,,
Satyaprakash Day School,22.3176913,70.7824826,university,,
MP Convent School Khimlasa,24.1943516,78.3670455,university,,Sagar
GOVT.M . School Karmpur,24.1840946,78.3695785,university,,Sagar
Gargi Memorial Institute of Technology,22.3779336,88.4411486,university,,
"Agricultural Experimental Farm, University of Calcutta",22.3742657,88.435491,university,,
Dravidian University,12.7991592,78.3030127,university,,
PGIMS Dean's office,28.8790932,76.6031329,university,,
lake,22.598341,72.8200181,university,,
Angel Pre and primary school,17.3925703,78.5097781,university,,Hyderabad
Indian Maritime University Chennai Campus,12.8636768,80.2424078,university,,
college building,18.9677617,72.8266365,university,,
"Govt High School, Kanigiri",15.4009798,79.5073262,university,,Prakasam
Sun moon public junior high school,29.1465376,78.2167436,university,,
tyagbir hem barua shisu seva mandir,26.1796079,91.7561857,university,,
ideal institute,28.6924991,77.498336,university,,
choudhary classes,26.1770596,91.757011,university,,
govt. sen. sec. school anapur,24.7447334,72.4473359,university,,
University,22.7006929,75.8848893,university,,
University,22.7010545,75.893787,university,,
University,22.699709,75.8952014,university,,
GSSS GULAWALA,28.1506071,76.113217,university,,
University,22.6995289,75.8959857,university,,
Educare academy,26.2605838,82.0675842,university,,
University,22.6926922,75.9001809,university,,
University,22.6925051,75.9006154,university,,
University,16.9622358,82.243989,university,,
University,16.9960011,82.2505844,university,,
University,16.9680186,82.2362075,university,,
gymkhana ground,25.2603723,82.9895822,university,,
D.I.E.T Lalitpur,24.6991833,78.4134878,university,,
vnr vjiet college,17.539911,78.3859702,university,,
jntu college,17.4954642,78.3925356,university,,
electrical department,25.2626049,82.9921081,university,,
griet college,17.520239,78.3660303,university,,
electronics department,25.2627236,82.9902548,university,,
civil department,25.2631113,82.9919394,university,,
mechanical department,25.2621562,82.9915022,university,,
surveying lab,25.2620685,82.9904885,university,,
manufacturing practise lab,25.262471,82.9909752,university,,
SBI IIT BHU,25.259415,82.9934114,university,,
physics lab,25.2592712,82.9931687,university,,
LT3,25.258568,82.9922404,university,,
football ground,25.2595356,82.988009,university,,
HG,25.2629301,82.9818414,university,,
LT1,25.2602451,82.9909441,university,,
electrical labs,25.2617428,82.9922485,university,,
hockey ground,25.2600812,82.9876923,university,,
ceramic department,25.2597435,82.9927864,university,,
ADV ground,25.2587794,82.9900734,university,,
DG corner,25.2632182,82.9864855,university,,
MASTER GROUP OF INSTITUTIONS,10.9957974,78.7807054,university,,chennai
Department of Metallurgy and Material Science,13.00985,74.7952463,university,,
Mining Seminar Hall,13.0118897,74.7940816,university,,
ISTE Seminar Hall,13.011173,74.7943496,university,,
Department of Metallurgical and Materials Engineering,13.0105904,74.7950751,university,,
hockey ground,25.2603704,82.9877245,university,,
tennis courts,25.261206,82.9871703,university,,
football ground,25.2592502,82.9882239,university,,
adv ground,25.2586585,82.9900687,university,,
rajputana ground,25.2618348,82.9874732,university,,
DG corner,25.2631287,82.9863404,university,,
limbdi corner,25.2607635,82.9868994,university,,
cricket ground,25.2603618,82.9889261,university,,
gymkhana ground,25.2605976,82.9883706,university,,
handball court,25.2600838,82.9899692,university,,
basketball courts,25.2617254,82.9878501,university,,
kabaddi court,25.2616039,82.9873364,university,,
volleyball courts,25.2613694,82.9878757,university,,
electronics dept,25.2627118,82.9901987,university,,
electrical dept,25.2616682,82.9923141,university,,
ablt-4,25.2629012,82.9886945,university,,
civil dept,25.2631027,82.9919284,university,,
LT1,25.2603426,82.9910278,university,,
volleyball courts,25.261345,82.9878497,university,,
tennis courts,25.2611213,82.987182,university,,
civil department,25.262815,82.9921004,university,,
handball court,25.2600426,82.9899703,university,,
mechanical engg department,25.2621263,82.991533,university,,
kabaddi court,25.2616075,82.9873709,university,,
adv ground,25.2588617,82.9904555,university,,
basketball courts,25.2617163,82.9878181,university,,
rajputana ground,25.2616769,82.9871033,university,,
cricket ground,25.2602169,82.9893573,university,,
cso lab,25.2622671,82.991797,university,,
Faculty of Arts,27.9130025,78.0762751,university,,Aligarh
Architecture Building,23.0780095,76.8502026,university,,
SRM University Building,12.8233083,80.0424496,university,,
Plaksha University,30.6316513,76.7260704,university,,
Tarangapur Teachers Training College(D.EL.ED),25.611362,88.3044755,university,,
Tarangapur Nanda Kumar High School,25.611865,88.3046829,university,,
Kaliyaganj Sarala Sundari School,25.629563,88.3187553,university,,
Andhra Christian College,16.2938102,80.4546572,university,,
St.Joseph's College Of Education,16.2964874,80.445106,university,,
Chandamama College Of Nursing,16.293777,80.4480248,university,,
HNBGU CHAURAS GROUND,30.2226723,78.8035716,university,,
RV University,12.9233711,77.499694,university,,
ACE Engineering Academy,16.5027032,80.6583619,university,,
LTC Lobby,17.5446897,78.5710201,university,,
Mahatma Gandhi Central University,26.613663,84.913021,university,,East Champaran
Shri Ramswaroop Memorial University,26.951515,81.098317,university,,
Sage university,23.1586577,77.5093242,university,,
Sage bhopal,23.1838672,77.5237672,university,,
Amity University Lucknow,26.8520033,81.050437,university,,
"Faculty of Law, Allahabad University",25.4720117,81.862486,university,,
University of Agricultural Research,17.8996959,77.527079,university,,
Sarla Birla University,23.3473602,85.4168868,university,,
"Rajkiya Mahavidyalaya, Barakhal , Mehdawal",26.9794449,83.1337919,university,,
Ravenshaw University (Mahanadi Campus),20.4865697,85.7963789,university,,Cuttack
Vishwakarma University,18.4603162,73.8835996,university,,
"JRD STATE UNIVERSITY, CHITRAKOOT",25.1951979,80.8736826,university,,Chitrakoot
HRIT University,28.7248577,77.4682091,university,,Ghaziabad
"B-Block , HRIT University",28.7253213,77.4677082,university,,Ghaziabad
HRIT University,28.7248577,77.4682091,university,,Ghaziabad
"B-Block , HRIT University",28.7253213,77.4677082,university,,Ghaziabad
"HRIT University , Entry Gate",28.7243766,77.4688679,university,,Ghaziabad
Sujatha College,18.1197722,83.4010574,university,,
Central Tribal Univarsity of Andhra Pradesh,18.1422032,83.396566,university,,
Government Medical College,18.1427932,83.3983776,university,,
Vijaya Sai degree college,15.4000298,77.5021162,university,,
BIHER CSE Block,12.9078648,80.1403182,university,,
University,22.5491296,88.3535528,university,,
KLH University,17.4612654,78.36924,university,,
Department of Geography,12.1045535,75.2364719,university,,Kannur
Department of Physics,12.1046058,75.236519,university,,Kannur
University,17.5063205,78.4598059,university,,
Sangai University,24.4159414,93.7033873,university,,
pandit deendayal upadhyaya adarsha mahavidyalaya,26.5463624,92.1936684,university,,
pandit deendayal upadhyaya adarsha mahavidyalaya,26.5453647,92.1942599,university,,
pandit deendayal upadhyaya adarsha mahavidyalaya,26.5465333,92.1945865,university,,
pandit deendayal upadhyaya adarsha mahavidyalaya,26.5467483,92.1950548,university,,
Chinmaya Vishwa Vidyapeeth Academic Block,9.8823388,76.5258758,university,,
JAKIR HOSSAIN INSTITUTE OF PHARMACY,24.4577264,88.0461291,university,,
Nashik Engineering cluster,19.9597644,73.7358904,university,,
Central Sanskrit University,28.6105726,77.1030791,university,,
వేంపాడు రోడ్ ప్రైమరీ స్కూల్,16.864334,81.2446353,university,,
ప్రైమరీ స్కూల్ ద్వారకతిరుమల మెయిన్ రోడ్,16.8638062,81.2454026,university,,
Punjab Agricultural University,30.9040713,75.7982004,university,,
Indian Institute of Management Bangalore,12.8958685,77.6023239,university,,
University of Madras (Chepauk),13.0660477,80.2825558,university,,
Indian Institute of Technology Madras,12.9946848,80.233383,university,,
Jawaharlal Nehru University,28.5399865,77.1673584,university,,
Banaras Hindu University,25.2664393,82.9954158,university,,Varanasi
संपूर्णानंद संस्कृत विश्वविद्यालय,25.3299695,82.997884,university,,
University,25.3220756,82.9893974,university,,
OUAT Campus,20.2655272,85.8140983,university,,
Visvesvaraya National Institute of Technology,21.1262844,79.0510602,university,,
Rashtrasant Tukadoji Maharaj Nagpur University,21.1474412,79.0400235,university,,
Science Faculty University of Allahabad,25.4602451,81.8526472,university,,
Arts Faculty University of Allahabad,25.4657758,81.8584635,university,,
Osmania University,17.411025,78.5280557,university,,
Birla Institute of Technology and Science - BITS,28.3590307,75.5884561,university,,
"International Institute of Information Technology, Hyderabad",17.4454142,78.3482464,university,,
"Indian Statistical Institute, Delhi",28.5392401,77.1856988,university,,
Periyar University,11.7186758,78.0771089,university,,
தமிழ்நாடு டாக்டர் எம்.ஜி.ஆர் மருத்துவப் பல்கலைக்கழகம்,13.0097199,80.2177354,university,,
MS Ramaiah University,13.0301869,77.5675088,university,,
Nrupathunga University,12.973065,77.585197,university,Karnataka,
Christ University,12.9337333,77.6051298,university,,
Chennai Mathematical Institute,12.8283765,80.2203926,university,,
Palpung Tibetan Institute,32.0517914,76.6873737,university,,
ਪੰਜਾਬੀ ਯੂਨੀਵਰਸਿਟੀ,30.3586939,76.4497846,university,,
Tata Institute of Fundamental Research,18.9068785,72.8048672,university,,
University of Mumbai,19.0705862,72.8559463,university,,
Manasagangotri Campus,12.313509,76.6217156,university,,
"Indian Institute of Engineering Science and Technology, Shibpur",22.5552038,88.3059081,university,,
Indian Institute of Technology Kanpur,26.5131533,80.2329108,university,,
Indian Institute of Technology Guwahati,26.1921003,91.6951352,university,,
Indian Institute of Technology Kharagpur,22.31455,87.3113587,university,,Paschim Medinipur
Indian Institute of Technology Roorkee,29.8663509,77.8962074,university,,
University,12.9650593,80.1281996,university,,
Indian Institute of Tropical Meteorology (IITM),18.5367789,73.8052749,university,,
IILM University,28.4611102,77.4905212,university,,
Armament Research and Development Establishment,18.5356514,73.8006044,university,,
Ajay Kumar Garg Engineering College - AKGEC,28.6755445,77.5023417,university,,
University,26.0730451,83.2872735,university,,
Andhra Christian College,16.2967213,80.4431686,university,,
National Institute of Technology Trichy,10.7634398,78.8154289,university,,
Zigar Drukpa Kagyud Institute,31.6325776,76.8319211,university,,
Delhi Technological University,28.7500074,77.116447,university,,
Mahatma Gandhi University,9.6586103,76.5324103,university,,
शिवाजी विद्यापीठ,16.6779885,74.2517458,university,,
Central Cotton Research Institute,19.0218585,72.8539545,university,,
Tree House Play Group,19.0227935,72.8528846,university,,
Jadavpur University,22.4996512,88.3713202,university,,
St. Josephs Educational institution,10.8284146,78.6914386,university,,
Calcutta Institute of Engineering and Management,22.4847114,88.3444252,university,,
University,17.41055,78.5233664,university,,
University,17.4191498,78.5233367,university,,
"Tata Institute of Social Sciences, New Campus",19.040832,72.9128939,university,,
"Dr. B. R. Ambedkar National Institute of Technology, Jalandhar",31.3957781,75.535286,university,,
Calcutta University Alipore Campus,22.5350092,88.3343371,university,,
I. K. Gujral Punjab Technical University,31.3533223,75.4563841,university,,
Foundation for Liberal And Management Education (FLAME) Pune,18.5238151,73.7308633,university,,
Indian Statistical Institute,12.9324122,77.5041669,university,,
Amrita Vishwa Vidyapeetham,10.9036046,76.899696,university,,Coimbatore
Bharathiar University,11.0372267,76.8770051,university,,
Panjab University,30.7601338,76.7662263,university,,
Central University of South Bihar,24.8758527,84.8964796,university,,
Jai Narain Vyas University,26.2449184,73.0201666,university,,
University Of Madras - Taramani Campus,12.9792288,80.2462895,university,,
Avinasilingam Deemed University for Home Sciences,11.0191444,76.9515442,university,,
Periyar Maniammai University (PMU),10.7304624,79.0685225,university,,
Univ Inst of Law & Mgmt,28.4502684,77.0580391,university,,
School of Distance Education,17.7213709,83.3286599,university,,
BVV Sangha's campus,16.1733411,75.6576006,university,,
"Indian Institute of Technology, Dhanbad",23.8148042,86.4416777,university,,
"Departments of Fine Arts, Andhra University",17.7361536,83.3302161,university,,
Ramakrishna Mission Vivekananda university,22.629621,88.353683,university,,
Banasthali Vidyapeeth,26.4032911,75.8714653,university,,
Young Man's Christian Association Institute of Engineering,28.3673131,77.3170692,university,,
Kachch University,23.2128341,69.6567541,university,,
Sardar Vallabhbhai National Institute of Technology,21.1633225,72.785235,university,,
National Institute of Technology,22.2503239,84.9062633,university,,
Mumbai University - Fort Campus,18.9293274,72.8304996,university,,
Kannur University-Palayad Campus,11.7967311,75.4674919,university,,
University,27.132255,93.7431735,university,,
Centralised Library,27.1317831,93.7427372,university,,
ECE/ EE/ CSE department (NERIST),27.1258555,93.7399889,university,,
University,27.1263565,93.7396816,university,,
National Institute of Technology - NIT Arunachal Pradesh,27.1485356,93.7171714,university,,
Rajiv Gandhi University - RGU Doimukh,27.1511204,93.7644988,university,,
Raffles Millennium International,28.6418715,77.1765823,university,,
BS Abdur Rahman University,12.8748595,80.0833803,university,,
Indian School of Business - ISB Hyderabad,17.4326383,78.3409946,university,,
Jain University,12.9181468,77.5919059,university,,
University,22.5737308,88.4177265,university,,
Chinmaya Mission School,12.9351012,77.6276505,university,,
University of Jammu,32.7183267,74.8693887,university,,
Chaudhary Devi Lal University,29.5475063,75.0427635,university,,
Govt. College for Women,34.074722,74.8163536,university,,
Ranchi Veterinary College,23.4395255,85.337634,university,,
Xavier Institute of Management and Entrepreneurship,12.8482756,77.6748978,university,,
Alliance University,12.7297283,77.7082701,university,,
Davanagere University,14.392195,75.9626483,university,,
IIT Mandi - Transit Campus,31.7062853,76.9386734,university,,
Indira Kala Sangeet University,21.4202779,80.9777291,university,,
Sri Sathya Sai Loka Seva Educational Institutions,13.4012273,77.6980194,university,,
Kuvempu University,13.732844,75.6294973,university,,
Dr. N.T.R University of Health Sciences,16.5165315,80.6696301,university,,
Chaudhary Charan Singh Haryana Agricultural University,29.1436163,75.7032169,university,,
Guru Jambheshwar University,29.1688455,75.7356887,university,,
Punjabi University Neighbourhood Campus,30.313691,75.2377702,university,,
Madurai Medical College,9.9277688,78.1364773,university,,
Gautam Buddha University,28.4226788,77.5246413,university,,
The Northcap University,28.5038481,77.050113,university,,Gurugram
NIFTEM Kundli,28.8793299,77.1345201,university,,Sonipat
VNR Vignana Jyothi Institute of Engineering and Technology,17.5390489,78.3854606,university,,
CEPT University,23.0374895,72.5498173,university,,
Maharaja Sayajirao University,22.312468,73.1846042,university,,
"Indian Institute of Science, Education and Research",22.5812658,88.4072655,university,,
Administrative Training Institute,22.5809327,88.4098764,university,,
"IIT Kharagpur, Kolkata Campus",22.5737236,88.4176481,university,,
Calcutta University Technology Campus,22.5675983,88.4155546,university,,
SN Bose National Centre for Basic Schiences,22.568265,88.4167992,university,,
Jadavpur University,22.5613247,88.4131542,university,,
West Bengal National University of Juridical Sciences,22.5610531,88.4104579,university,,
Govind Ballabh Pant University of Agriculture & Technology,29.0232723,79.4900772,university,,
University of Ladakh,34.1872043,77.4101776,university,,
Allahabad University FSSI building,25.4661888,81.8630389,university,,
Indian Institute of Information Technology Allahabad,25.4299625,81.7721885,university,,
PTU,30.7223884,76.7014452,university,,
Madurai Kamraj University,9.9439233,78.0101492,university,,
Sant Longowal Institute of Engineering & Technology,30.2175516,75.7007048,university,,
"SNDT Women's University,Juhu",19.0877185,72.8311217,university,,
National Law University,28.5995421,77.0243053,university,,
Yogi Vemana University,14.4719827,78.7095568,university,,
SNDT Women's University,18.5088698,73.8274077,university,,
IIT Mandi Annexe,31.704693,76.936504,university,,
University,26.7820777,80.9073749,university,,
IIT Mandi - Kamand Campus,31.7731102,76.9842749,university,,
"Lingaya's University, Faridabad",28.4097591,77.4045554,university,,
Nadwa Arabic University,26.8645825,80.9324524,university,,
Lucknow University,26.8655263,80.9363792,university,,
Bharatkhande Sanskrit University,26.8537058,80.933397,university,,
Tilak Maharashtra Vidyapeeth,18.4934626,73.8649299,university,,
University of Lucknow,26.9262432,80.9389153,university,,
Indian Institute of Management Lucknow,26.9362832,80.897934,university,,
Mangalore University,12.8157845,74.9237715,university,,
Maharashtra Institute of Technology World Peace University,18.5182017,73.8152712,university,,
service road,28.6306431,77.2454551,university,,
Central Institute Of Buddhist Studies,34.1047448,77.5987674,university,,
Sree Sankaracharya University of Sanskrit,10.170927,76.4387387,university,,
Vignan Group Of Institutions,16.2315538,80.5512669,university,,
Dept of Physics,8.5646897,76.8853153,university,,
Faculty of Technology and Engineering MSU,22.2971533,73.1972551,university,,
Bihar School of Yoga,25.3850548,86.4676551,university,,
IISD,22.572419,88.4130512,university,,
Roland Institute of Pharmaceutical Sciences,19.3134856,84.8402348,university,,
Guru Granth Sahib University,30.6465676,76.4034282,university,,
University,30.6463019,76.4037304,university,,
Odisha University Of Technology And Research,20.2771485,85.7766474,university,,
CSK Himachal Pradesh Agricultural University,32.098132,76.5432727,university,,Kangra
Central University of Orissa,18.738816,82.8083605,university,,
International Institute of Information Technology Bangalore,12.8442717,77.6632889,university,,
NTTF,12.847096,77.6690976,university,,
Rabindra Bharati University,22.5803797,88.4251928,university,,
Atal Bihari Vajpayee Institute of Mountaineering and Allied Sports,32.2321153,77.1922828,university,,
Symbiosis International University,18.5337638,73.7295155,university,,
Siddaganga Institute of Technology,13.3282169,77.125693,university,,
IES College Of Architecture,19.0502184,72.8298033,university,,
NITTTR Residential Campus,22.5769145,88.4304043,university,,
Vinayaka Missions Vinayaka Missions Research Foundation,11.5974056,78.0843617,university,,
Amrita Vishwa Vidyapeetham,9.0954757,76.4896925,university,,Kollam
NIRD&PR - National Instuite of Rural Development and Panchayati Raj,17.3124059,78.4022589,university,,
Government Industrial Training Institute,20.0722445,74.1019809,university,,
International Students Hostel - Osmania University,17.4269072,78.5328936,university,,
Central Institute Of Buddhist Studies,34.1014298,77.5942673,university,,
IIT Ropar,30.9754342,76.5376318,university,,
Guru Angad Dev Veterinary University,30.8917892,75.8002233,university,,
Bhom College of Art,17.5284775,73.4348593,university,,
Annamalai University,11.3907126,79.7173935,university,,
Kurukshetra University,29.9582724,76.8163944,university,,
National Institute of Technology Kurukshetra,29.9459652,76.8161496,university,,
National Forensic Sciences University Delhi Campus,28.6967584,77.1093382,university,,
South Asian University,28.4849064,77.2009939,university,,
Indira Gandhi National Open University,28.4955957,77.2033227,university,,
Department of Marine Science,17.7177971,83.325902,university,,
geetanjali medical college,24.5530798,73.7321742,university,,
Nagaland University Lumami,26.223262,94.4763203,university,,
भगत फूल सिंह महिला विश्वविद्यालय,29.1544362,76.8043034,university,,
Indian Institute of Science Education and Research,18.5454002,73.8071522,university,,
Bharati Vidyapeeth,18.5136169,73.819834,university,,
NALSAR University of Law,17.604419,78.5472178,university,,
University of Hyderabad,17.4529972,78.3279341,university,,
Dr. BR Ambedkar Open University,17.4323819,78.3950777,university,,
Jamia Millia Islamia,28.5638885,77.2821816,university,,
Kakatiya University,18.0276785,79.5534524,university,,
Jamia Nizamia,17.3603935,78.4660334,university,,
Indian Institute of Technology Delhi,28.5448664,77.1897772,university,,South Delhi
Darul Uloom Deoband,29.6974497,77.6751633,university,,
Karnataka State Law University,15.3995433,75.073205,university,,
Ranchi university,23.3888197,85.3228232,university,,
Ranchi University,23.3715301,85.3242199,university,,
"University of Calcutta, Rajabazar Science College Campus",22.5790822,88.3728541,university,,
School of Planning and Architecture,28.6287742,77.2458745,university,,
Yuva Parivartan ( Youth Recreation center ) ,19.0634029,72.8442271,university,,
Pondicherry University,12.0228631,79.8516344,university,,
Jiwaji University,26.2025953,78.1943527,university,,
LD college of Engineering,23.0331304,72.5461238,university,,
Amity University Haryana,28.3172777,76.9148716,university,,
Bharath Institute of Higher Education and Research,12.9080286,80.1394614,university,,
Maharishi Markandeshwar University,30.2504454,77.0451341,university,,
Biju Patnaik University of Technology,22.2462565,84.8190334,university,,
Tata Institute of Social Sciences (TISS),19.0442748,72.9126295,university,,
Shri Mata Vaishno Devi University,32.9413361,74.9535563,university,,
Bhilai Institute of Technology,21.1923921,81.29883,university,,
Indian Institute of Technology Hyderabad,17.5922973,78.1237173,university,,
The Park,22.8019285,88.3637295,university,,
Hemachadracharya North Gujarat University,23.8633309,72.1356047,university,,
dau dayal girls p.g college,27.1604879,78.4006454,university,,
Vardhman Mahaveer Open University,25.1341842,75.8113038,university,,
Labpur S.N.College Ground,23.8084703,87.7990659,university,,
Institute of Chemical Technology,19.0240207,72.8587854,university,,
Gayatri University,17.7774665,83.3766952,university,,
Amrita Vishwa Vidyapeetham,12.3023889,76.6044409,university,,Mysuru
Magadh University,24.6869752,84.9662059,university,,
Regent,22.7582704,88.396361,university,,
Jute Agricultural Research Centre,22.7576285,88.4253556,university,,
University,21.1625412,79.0710357,university,,
University,21.1628272,79.0714864,university,,
University,21.1627269,79.0703069,university,,
Football/Cricket ground,13.1344116,77.5673293,university,,
Karnatak University,15.4370295,74.9819744,university,,
University,19.8953309,75.3100937,university,,
Kanachur Academy of General Education,12.8038085,74.8980033,university,,
University College Of Engineering,25.1416438,75.8055771,university,,
University of Kota,25.1136463,75.8233696,university,,
University,22.5523226,72.9257135,university,,
Jaypee University of Information Technology,31.016384,77.0706543,university,,
University Of Petroleum and Energy Studies - UPES,30.4171721,77.9681869,university,,
University Club,25.2721639,82.9854906,university,,
Ahmedabad University,23.0371759,72.552737,university,,
Gujarat University,23.0372742,72.5439365,university,,
Gujarat University,23.0395287,72.5478182,university,,
Shobhit University,29.0707765,77.7126661,university,,
H. D. Jain College,25.5485607,84.6547446,university,,
University,25.5527437,84.653375,university,,
Doon University,30.2673878,78.0449364,university,,
Ravenshaw University,20.4627322,85.8953482,university,,
National Law University,20.4870909,85.7916166,university,,
Vellore Institute of Technology - Chennai,12.8430337,80.1564295,university,,
Tamil Nadu Veterinary and Animal Sciences University,11.1589061,78.1597079,university,,
North Eastern Hill University,25.6138053,91.8963739,university,,
Tezpur University,26.7015206,92.8297604,university,,
Kashmere Gate Campus,28.6633465,77.2336168,university,,
Darjeeling Government College,27.0543519,88.2577543,university,,
St. Joseph's College (University Dept.),27.0591867,88.2507117,university,,
St. Joseph's College (University Dept.),27.0589702,88.2510705,university,,
Southfield College,27.0475279,88.2671485,university,,
Vijayanagara Sri Krishnadevaraya University,15.151181,76.876351,university,,
Sports Ground,26.8598808,75.8137469,university,,
School of Open Learning,28.6932937,77.2132878,university,DL,
REVA University,13.1155417,77.6358788,university,,
Indian Institute of Science Education and Research Kolkata,22.9637361,88.5238959,university,,
University,12.9806116,80.244802,university,,
Mahatma Jyotiba Phule Rohilkhand University,28.3759526,79.4567761,university,,
Mahatma Jyotiba Phule Rohilkhand University,28.3675512,79.4588692,university,,
Gujarat Aruvedic University,22.4759046,70.0637257,university,,
"Maulana Abul Kalam Azad University of Technology, West Bengal",22.9579887,88.5422826,university,,Nadia
Bidhan Chandra Krishi Viswavidyalaya,22.9470377,88.5345158,university,,
PESU Electronic City Campus,12.861641,77.6654393,university,,
Maulana Azad National Insititute of Technology,23.2134357,77.4078974,university,,
Gujarat National Law University,23.15183,72.6602639,university,,
Pandit Deendayal Energy University,23.1563699,72.6650932,university,,
Indian Institute of Information Technology and Management – Kerala,8.5589704,76.8792772,university,,
Gitam University,17.7815504,83.3772852,university,,
Tantia University,29.8707531,73.8076815,university,,
"Indian Institute of Space Science and Technology, Trivandrum",8.6266504,77.0335616,university,,
"Sri Venkateshwara Veterinary University, Tirupathi",13.6287734,79.3864683,university,,
Shiv Nadar University,28.525806,77.5747943,university,,
Gulbarga University,17.3132163,76.8757123,university,,
"SASTRA University, SRC Campus",10.9628655,79.385471,university,,
Integrated Rural Technology Centre,10.8320633,76.5944494,university,,
Regional Institute of Education (RIE),23.2369434,77.3826775,university,,
Professor Jayashankar Telangana State Agricultural University,17.3218687,78.4116434,university,,
University of Kerala Karyavattom Campus,8.5602134,76.8872851,university,,
University of Calicut,11.1364315,75.8904361,university,,
Serampore College,22.7518977,88.3516378,university,,
KLE Technological University,15.3687659,75.123116,university,,
Baba Ghulam Shah Badshah University,33.3945125,74.3461401,university,,
Government Engineering College (Polytechnic),25.762839,87.4673715,university,,
Jai Prakash University,25.782807,84.7813882,university,,
"National Institute Of Technology, Durgapur",23.549085,87.2909251,university,,
Dr B.R. Ambedkar College of Law,17.7247547,83.3263001,university,,
Kavikulguru Sanskrit Vishwavidyalaya,21.3901119,79.309349,university,,
Shah Safi Memorial Trust Campus,25.4894064,81.6276454,university,,
Bihar Agricultural University,25.2381757,87.0503527,university,,
University,25.2435229,86.9528355,university,,
Thapar Institute of Engineering and Technology,30.3544709,76.3662111,university,,
Symbiosis International University (Hill-base),18.5408698,73.727469,university,,
Satara ITI,17.70131,73.9891832,university,,
University of Gour Banga,24.9833012,88.1386046,university,,
Pondicherry University - Silver Jubilee Campus,12.03266,79.8579926,university,,
Mahatma Gandhi Antarrashtriya Hindi Vishwavidyalaya,20.7683311,78.5882516,university,,
NIIT University,27.9606927,76.4027562,university,,
Government College Of Engineering,8.6867851,77.7261199,university,,
University,24.5002468,86.7000077,university,,
Dhirubhai Ambani Institute of Information and Communication Technology,23.1883886,72.6281518,university,,
Rajiv Gandhi Proudyogiki Vishwavidyalaya,23.3086492,77.3601391,university,,
Veterinary College,13.0307874,76.1126381,university,,
University of Mysore,12.3065749,76.6406283,university,,
Datta Meghe Institute of Medical Sciences (Deemed University),20.7149557,78.5777545,university,,
Pharmacy Department,17.7235444,83.3283391,university,,
Indian Institute of Technology Dharwad,15.5218755,74.9249089,university,,
Karnataka State Open University,12.3164157,76.6241275,university,,
University,22.5763986,88.3624608,university,,
Gymkhana Ground,22.5352032,72.9784449,university,,
Chanakya National Law University,25.5939322,85.1333381,university,,
Tumkur University Ground,13.3387632,77.1208356,university,,
Tumkur University,13.3387563,77.1205312,university,,
High ground doonipawa  South campus KU,33.7283451,75.1657416,university,,
University of Kashmir,34.1341227,74.8367357,university,,
Central University of Karnataka,17.4320116,76.6710218,university,,
Tirupati College of Education,29.6767579,75.5431796,university,,
Lovely Professional University,31.2533614,75.7035391,university,Punjab,
University,31.2596567,75.7069554,university,,
LPU Ground,31.2557793,75.7103738,university,,
University,31.2559721,75.7094775,university,,
University,31.2559735,75.7097622,university,,
Birla Institute of Technology,23.4177826,85.4419898,university,,
Bharathidasan University,10.6752169,78.7430692,university,,
Tararani Vidyapeeth,16.6975182,74.244495,university,,
University,17.721877,83.3285986,university,,
Deccan Education Society Campus,16.8481815,74.6039539,university,,
New Arts Commerece and sciene college,19.1031063,74.7327088,university,,
Karshika Gaveshanakendram,11.0895195,76.1203332,university,,
Rabindra Bharati University,22.6270819,88.3805223,university,,
"University of Calcutta, Barrackpore Trunk Road Campus",22.6282804,88.3800776,university,,
"University of Calcutta, College Street Campus",22.5749445,88.3626285,university,,
"University of Calcutta, Law College Campus",22.5261726,88.3632215,university,,
Baddi University of Emerging Sciences and Technology,30.9519739,76.7816193,university,,
University,30.8779044,76.8766835,university,,
University,30.8748449,76.8700719,university,,
University,30.8765266,76.8746759,university,,
Chitkara University,30.8777456,76.872415,university,,
Late VM Mehta High school,17.6363259,75.9032261,university,,
"V. G. Shivdare College Of Arts, Commerce And Science",17.634685,75.9039968,university,,
"D.S.T.S. Mandal's College Of Pharmacy, Solapur",17.6340559,75.903923,university,,
Vasundhara Kala Mahavidyalaya,17.6357463,75.9065729,university,,
KLE English Medium School,17.6349364,75.9119419,university,,
Vidya Vikas Pratishthan Institute Of Engineering & Technology,17.6430739,75.8981903,university,,
Government I T I,17.6432617,75.8976609,university,,
Annasaheb Patil Prashala,17.6543766,75.8939549,university,,
Jagruti Vidhya Mandir,17.6394049,75.8956939,university,,
Shivaji Adhyapak Vidyalaya,17.6368819,75.8952922,university,,
Sevasadan Kanya Prashala,17.6739081,75.8987632,university,,
Bilaspur University,22.0761393,82.1651215,university,,
Gujrat Vidhyapeeth,23.043903,72.5692367,university,,
University,26.3519044,79.954953,university,,
University,27.2291994,78.2118426,university,,
Acharya Nagarjuna University,16.3767534,80.5263919,university,,
Jawaharlal Nehru Architecture and Fine Arts University,17.4032686,78.4559742,university,,
University,25.0172604,85.377831,university,,
University,9.994863,76.3580945,university,,
Sanjay Ghodawat University - SGU,16.7449489,74.3826931,university,,
Utkal University,20.3028539,85.8428843,university,,
Saurashtra University,22.2906239,70.7438662,university,,
"National Institute of Technology, Warangal",17.9834132,79.5319294,university,,
Anna University Bharathidasan Institute of Technology,10.6564824,78.7466019,university,,
Cochin University of Science and Technology,10.0447065,76.328154,university,,
University,9.4161416,76.3476501,university,,
North Campus,8.5678716,76.8876423,university,,
University,25.242205,80.6556401,university,,
University,25.241918,80.6550143,university,,
University,22.253099,84.9015888,university,,
Hindu College,16.2922125,80.4439561,university,,
Guntur Medical College,16.2979591,80.4378268,university,,
Amrakunja,23.6808185,87.6866912,university,,
Ice Stupa Alternative University,34.1653286,77.4674518,university,,
University Institute of Technology,23.2575632,87.8467744,university,,
Bhupendra Narayan Mandal University,25.936739,86.7944007,university,,
Khalsa College,30.3340716,76.3767965,university,,
Institute of Technical Education & Research (SOA University),20.2477154,85.8012646,university,,
Kerala University of Fisheries and Ocean Studies,9.9105432,76.3173895,university,,
Manipal University Jaipur,26.8429208,75.5652211,university,,
OP Jindal Global University,28.926087,77.056426,university,Haryana,Sonipat
"Amity University, Noida",28.543945,77.3332743,university,,
jaya  iit oiympiad,17.1397723,79.6254656,university,,
Chhatrapati Shahu Ji Maharaj University,26.5030206,80.2674919,university,,
Visvesvaraya Technological University,15.7776294,74.4641046,university,,
Karnataka Lingayat Education Society University,15.8849351,74.5171949,university,,
St. Xavier's University,22.5607349,88.488005,university,,
Aliah University,22.5904748,88.485872,university,,
Don Bosco Grounds,19.0816009,72.8888922,university,,
Manonmaniam Sundaranar University,8.764224,77.6510614,university,,
"Amity University, Kolkata",22.5960594,88.4881002,university,,
Indian Institute of Natural Resins and Gums,23.3307579,85.372112,university,,
Central University of Jharkhand,23.4417959,85.1456969,university,,
Sher-e-Kashmir University of Agricultural Sciences & Technology of Kashmir,34.1473845,74.8807026,university,,Srinagar
Insitute of Advanced Study in Science and Technology,26.1110986,91.6852742,university,,Kamrup M.
"National Institute of Foundry and Forge Technology, Ranchi",23.2948124,85.3096579,university,,
Assam Engineering College,26.1449459,91.6622026,university,,
Banda University of Agriculture and Technology,25.5299786,80.3359076,university,,
Medical College University Ground,10.6098001,76.1994618,university,,
Hindustan University,12.7992422,80.2281533,university,,
Vinoba Bhave University,24.0217407,85.3730253,university,,
Saveetha University,13.0570581,80.1235545,university,,
Forest Research Institute,30.3419058,78.0015153,university,,
University,24.5993921,73.7774403,university,,
Kristu Jayanti University,13.058229,77.6424351,university,,
GITAM deemed to be university,17.5494785,78.1662948,university,,
SRM University,28.7974521,77.5389165,university,,
"Uka Tarsadia University, Maliba Campus",21.0676917,73.1311809,university,Gujarat,Bardoli
Kannur University,11.867599,75.3745096,university,,
Guru Nanak Dev University,31.6382145,74.8226058,university,,
Guru Nanak Institutions,17.161281,78.6586735,university,,
Noorul Islam Centre for Higher Education,8.2495285,77.3502409,university,,
Bennett University,28.450643,77.5837983,university,,
National Institute of technology - NIT Silchar,24.7551019,92.7868228,university,,
Indian Institute of Technology Palakkad,10.8018655,76.8185065,university,,
Veer Surendra Sai University of Technology,21.497843,83.9028829,university,Odisha,
Fakir Mohan University,21.548525,86.8164449,university,Odisha,
Somnath Sanskrit University,20.9143204,70.35372,university,,
Anurag University,17.4193102,78.6565403,university,,
T.S. Chanakya Maritime University,19.0192092,73.006714,university,,
Medical University,19.0418679,73.0236759,university,,
University,10.8263388,78.6902899,university,,
Bharati Vidyapeeth,19.0291417,73.042851,university,,
Rajiv Gandhi University of Knowledge Technologies,18.879246,77.920735,university,,
Ravenshaw University Campus,20.4881303,85.8025607,university,,
Eliim University - Malabassey Campus,27.1468202,88.2113488,university,,
University,23.3613919,86.3394928,university,,
Mandsaur University,24.0773388,75.0291383,university,,
Ashoka University,28.9470078,77.1012554,university,,
JIPMER Kalam Campus,10.9311223,79.8281674,university,,
Sri  Prathibha Degree College,17.149411,79.6239406,university,,
Anjali school,17.1457538,79.6207695,university,,
Indian Institute of Technology Jodhpur,26.4655883,73.1170742,university,,
Indian Institute of Technology Jodhpur,26.4732118,73.1166508,university,,
Gondwana University,20.1769427,79.963771,university,,
Rayalseema University,15.774815,78.0648423,university,,
PN COLLEGE GROUND,20.180119,85.6391993,university,,
"Tezpur University, Jonai Campus (under construction)",27.7616505,95.0599475,university,,
Indian Institute of Technology Ropar,30.9655546,76.4705872,university,,
"Indian Institute of Technology, Bhubaneswar",20.1479715,85.6700718,university,,Khordha
"Indian Institute of Information Technology, Sri City",13.5550252,80.0275115,university,,
Sahrdaya College Of Advanced Studies,10.3502273,76.2884698,university,,
Andhra University,17.7306123,83.322842,university,,
Central Insitute of Fisheries Technology,9.9388818,76.2686022,university,,
Anna University,10.3114215,79.3500399,university,,
Symbiosis International,18.5757257,73.9087771,university,,
University,30.3868549,76.3239069,university,,
Andhra University,17.737563,83.3297783,university,,
Andhra University,17.7243221,83.324526,university,,
st.columba`s college,23.9849903,85.3749399,university,,
Amrita Vishwa Vidyapeetham,10.8531706,77.0350164,university,,Coimbatore
Suguna Group of Institutions,11.0506228,77.0323105,university,,
Suguna College of Engg & Polytechnic,11.0501473,77.0322958,university,,
University,22.6873133,75.875224,university,,
Amritsar Group of Colleges,31.5772524,74.9911549,university,,
Indian Institute of Management Raipur,21.1225802,81.826086,university,,
"All India Institute of Medical Sciences, Kalyani",22.9754038,88.5284831,university,,
"National Institute of Technology, Agartala",23.8425119,91.4252105,university,,
C U Shah University,22.7490064,71.7027878,university,,
Indian Institute Of Technology Indore,22.5269719,75.9268355,university,,
Indian Institute of Management Indore,22.627185,75.7907456,university,,
Fathima Institute of Medical Sciences,14.4829826,78.7895948,university,,
"National Institute of Technology, Manipur",24.8315981,93.9126054,university,,
Manipur University,24.7545772,93.9278966,university,,
"Central Agricultural University, Imphal",24.8127924,93.8906675,university,,
Mizoram University,23.7367351,92.664611,university,,
National University of Study and Research in Law,23.4524458,85.316906,university,,
RK University,22.2406135,70.9017223,university,,
Jaypee University of Engineering and Technology,24.4354286,77.1620357,university,,
Vasantrao Naik Marathwada Agricultural University,19.242672,76.784842,university,,
University,25.8988463,83.4881463,university,,
Kumar Bhaskar Varma Sanskrit and Ancient Studies University,26.4854247,91.4569009,university,,
"Karnataka Veterinary, Animal and Fisheries Sciences University",17.8675355,77.4751514,university,,
Purushottam Institute of Engineering and Technology,22.2263119,84.6949356,university,,Sundergarh
Indian Veterinary Research Institute,28.3993355,79.4356566,university,,
Maharishi Mahesh Yogi Vedic University,23.5133115,80.3166407,university,,
Assam University,24.6840423,92.7508789,university,,
University,26.8539231,82.1771827,university,,
Delhi Institute of Pharmaceutical Sciences and Research,28.5168204,77.2241584,university,,
Veer Bahadur Singh Purvanchal University,25.8318086,82.6793369,university,,
"Sam Higginbottom University of Agriculture, Technology and Sciences",25.4136006,81.8481311,university,,
Nehru Gram Bharti University,25.378026,81.9994788,university,,
Mahatma Gandhi Chitrakoot Gramoday Vishwavidyalaya,25.1470788,80.8545256,university,,
New Horizon College of Engineering,12.9343765,77.6921961,university,,
College of Engineering,18.5341345,73.8802248,university,,
Navrachana University,22.2927843,73.1221882,university,,
University,22.2925183,73.1225481,university,,
Industrial Training Institute (ITI),19.1799003,72.9719491,university,,
PES University,12.9348535,77.5321405,university,,
Jyoti Vidhyapeeth Womens University,26.8257837,75.4612247,university,,
Indian Martime University - Kochi,9.9294371,76.28766,university,,
SRM University - AP,16.4632311,80.5064108,university,,
KREA University,13.5503785,80.0000243,university,,
Academic Block,23.2144387,72.6855637,university,,
Centurion University of Technology and Management,20.1752414,85.7066362,university,,
University,23.1932347,77.410897,university,,
Junagadh Agricultural University,21.497938,70.4405658,university,,
Islamic University Of Science & Technology (IUST),33.925557,75.0184007,university,,
SRM University Building,12.8234395,80.0423596,university,,Chengalpattu
Dr. YSR University of Health Sciences,16.5164248,80.6692407,university,,
G D Goenka University,28.2636993,77.06543,university,,
University of Burdwan - Golapbag Campus,23.2508686,87.8461244,university,,
Palamuru University,16.7184725,77.9818951,university,,
Ahalia Group of Institutions,10.7944567,76.8265208,university,,
PRS College of Engineering & Technology,8.4466469,77.1540095,university,,Thiruvananthapuram
Sambalpur University,21.4801136,83.8820969,university,,
SUIIT,21.4838318,83.8842652,university,,
Govt. HSS Thazhathuvadakara,9.4664557,76.7170278,university,,
University,21.1308558,79.0689222,university,,
Osmania University,15.8263753,78.0475292,university,,
National Institute of Medical Sciences University,27.1892525,75.9531552,university,,
"Rajiv Gandhi Indian Institute of Management, Shillong",25.5584564,91.9044357,university,,
Utkala Sangita Mahavidyalaya,20.274381,85.8334251,university,,
"National Institute of Technology, Srinagar",34.1244217,74.8413647,university,,
Rangarayya medical college,16.9783798,82.2373183,university,,
University,30.6832652,74.7380704,university,,
University,30.6799921,74.7378594,university,,
University,16.4987488,80.4925105,university,,
VIT-AP University,16.494119,80.4982302,university,,
Islamiya college for Orphan's Thalikulam,10.4383379,76.0865299,university,,
Sardar Vallabhbhai Patel Institute of Technology,22.4681674,73.0764161,university,,
kakatiya university,18.0226591,79.5518708,university,,
Pandit Jawaharlal Nehru College of Agriculture and Research Center,10.949624,79.7802875,university,,
Gauhati University,26.1535112,91.6646853,university,,
University,27.2107705,77.5154932,university,,
IISER Mohali,30.663127,76.7270163,university,,
IIT Mandi - North Campus,31.7812939,76.997502,university,,
"All India Institute of Medical Sciences, Bathinda",30.1572758,74.9284427,university,,
swarnandhra college of enginnering,16.4189158,81.6572172,university,,
Andhra Kesari University,15.4851428,80.0436189,university,,PRAKASAM
IQ CITY NURSING COLLEGE,23.5713252,87.33627,university,,
Bathinda Central University,30.171526,74.9658484,university,,
Shadan College,17.3535541,78.3738842,university,,
Chirst University - Kengeri Campus,12.860892,77.4387988,university,,
The National University of Advanced Legal Studies,10.0596332,76.3602248,university,,
"Indian Institute of Science Education and Research, Thiruvananthapuram",8.682862,77.132113,university,,
AMU Malappuram Off Campus,10.9228564,76.2434593,university,,
Aligarh Muslim University Malapuram Off Campus,10.9233835,76.2428141,university,,
AMU,10.9228606,76.2440569,university,,
AMU,10.9231559,76.2440041,university,,
AMU,10.9230154,76.2440507,university,,
AMU,10.922719,76.244064,university,,
AMU,10.9232027,76.2447723,university,,
Central University Of Kerala,12.3932302,75.0932617,university,,Kasaragod
University,28.432414,77.3073597,university,,
University,9.9535705,76.280373,university,,
Amrita School of Business,10.0366327,76.2884274,university,,
IISc Challakere Campus,14.4154052,76.5713274,university,,
Sher-e-Kashmir University of Agricultural Sciences and Technology of Kashmir,34.280125,74.7775527,university,,
University,19.0650004,73.0201532,university,,
Gopal Narayan Singh University,24.9427382,84.1021747,university,,
IIIT- RK Valley Campus,14.334889,78.5354206,university,,
Naval Base Parade Ground,9.9558461,76.2768394,university,,
"Kerala Veterinary and Animal Sciences University, Lakkidi",11.5414838,76.0214826,university,,
"Physical Research Laboratory, Thaltej Campus",23.0434499,72.4942867,university,,
Sardarkrushinagar Dantiwada Agricultural University,24.3227405,72.3166895,university,,
Swarnim Gujarat Sports University,23.2318282,72.6384528,university,,
Gati Shakti Vishwavidyalaya,22.2819629,73.2002028,university,,Varodara
Bharati Vidyapeeth Campus,18.4577521,73.8544558,university,,
Tamil Nadu Agricultural University (TNAU) - Madurai Campus,9.968486,78.2049867,university,,
Hillside School,17.4295448,78.3949197,university,,
Walden's Path School,17.4302024,78.3952,university,,
"Indira Gandhi National Tribal University, Amarkantak",22.8024555,81.7511371,university,,
IIT Palakkad Nila Campus,10.8069399,76.7254788,university,,
Subharti University,28.9580985,77.6360753,university,,
"Birla Campus, HNBGU",30.2214547,78.7822927,university,,
HEMVATI NANDAN BAHUGUNA GARHWAL UNIVERSITY,30.22445,78.8026143,university,,
"Indian Institute of Information Technology, Guwahati",26.0804271,91.5602744,university,,
Uttarakhand Open University,29.1866907,79.5117311,university,,
North East Frontier Technical University,28.1563852,94.7973103,university,,
Indian Institute of Management Tiruchirappalli,10.6678408,78.7451632,university,,
National Institute of Watersports,15.4601696,73.8018237,university,,
Government Industrial Training Institute,30.7131136,76.8000459,university,,
Institute Of Engineering & Technology,30.9393158,76.600497,university,,
Indian Institute of Infrastructure and Construction,8.9710904,76.5325473,university,,
University,9.4365446,76.6377507,university,,
Chhatrapati Shivaji College Of Agriculture,16.1088764,73.7068082,university,,
Hidayatullah National Law University,21.1070471,81.7581296,university,,
Pt. Deendayal Upadhyay Memorial Health Sciences and Ayush University of Chhattisgarh,21.1046965,81.7531111,university,,
indur institute of engineering and technology,18.0679358,78.8550327,university,,
University,31.1497839,76.0628973,university,,
Chandra Shekhar Azad University of Agriculture and Technology,26.4903819,80.3009337,university,,
IGNOU University,26.7777235,80.9486938,university,,
RUNGTA COLLEGE OF ENGINEERING AND TECHNOLOGY BHILAI,21.2353036,81.3464414,university,,
Kannur University Mangattuparamba Campus,11.9823641,75.3653858,university,,
University,10.0854296,78.792218,university,,
CSIR-CECRI,10.0852632,78.7998785,university,,
University,10.0887384,78.7912068,university,,
Central Electro Chemical Research Institute,10.0852632,78.7998785,university,,
AUCPE,10.0969669,78.7913006,university,,
Galgotias University,28.3671465,77.5420809,university,,
Noida International University,28.373873,77.5413187,university,,
Marine Engineering and Research Institute - Mumbai Port Campus,18.9811878,72.8598979,university,,
kerala vetinary and animal sciences University,10.300011,76.4333725,university,,
University,29.8826927,73.9365854,university,,
Kerala University Of Health Science University Ground,10.6093713,76.1984597,university,,
Savitribai Phule Pune University,18.5512351,73.8261069,university,,Pune
Karnavati University,23.2022954,72.5836088,university,,
Karnavati University North Extension,23.2068398,72.582497,university,,
Dr. Babasaheb Ambedkar Marathwada University Sub Campus,18.2338987,76.043069,university,,
Manoharbhai Patel Institute of Engineering and Technology,21.4860171,80.1757416,university,,
National Flying Training Institute,21.5205102,80.2958053,university,,
Kameshwar Singh Darbhanga Sanskrit University,26.1661614,85.896179,university,,
The Bombay Flying Club's College Of Aviation,20.9288399,74.7391789,university,,
Site for Nagarukhra Govt Collage,22.9345812,88.6403318,university,,
VJIT Ground,17.3466929,78.3229271,university,,
National Institute of Oceanography,15.4557135,73.8012319,university,,
Bharati Vidyapeeth Deemed University Department of Engineering and Technology,19.0306419,73.0590002,university,,
"Saraswati College of Engineering, Kharghar",19.0401916,73.0598065,university,,
Saraswati Institute of Technology,19.0402757,73.0588748,university,,
Assam Science and Technology University,26.1412711,91.6664819,university,,
University of Burdwan,23.2391145,87.8514381,university,,
Lord Krishna Polytechnic College,31.4475891,75.3892217,university,,
Maharaja Ganga Singh University,28.0371753,73.2648444,university,,
Lakshmibai National Institute of Physical Education,26.2195382,78.1923553,university,,
Dravidian University,12.7978292,78.3042061,university,,
Kerala University,8.5031773,76.9469918,university,,
Manav Bharti University,30.8724207,77.0856383,university,,
Nagaland University,25.7271651,94.0937197,university,,
Government Medical College,16.117068,73.6913752,university,,
Government College Kasaragod,12.519768,75.0123771,university,,
"Indian Institute of Management, Sambalpur",21.4146697,83.9138031,university,,Sambalpur
National Centre for Polar and Ocean Research,15.3963369,73.792866,university,,
Institute of Maritime Studies,15.4024681,73.8026614,university,,
Indian Institute of Geomagnetism,18.8970669,72.8123711,university,,
LAD College for Women,21.1637149,79.0452817,university,,
Nagpur Vetinary College,21.1653983,79.0463224,university,,
National Law School of India University,12.9529327,77.5159691,university,,
Cotton University Department of Geology,26.1874143,91.7472508,university,,
Cotton University,26.187291,91.7467034,university,,
Cotton University Department of English,26.1868926,91.7468356,university,,
Cotton University Departments of Hindi and Philosophy,26.1871388,91.744299,university,,
Cotton University Department of Chemistry,26.1876301,91.7452276,university,,
Cotton University Department of Physics,26.1875479,91.7441245,university,,
Veer Narmad South Gujarat University,21.1548532,72.7873172,university,,
IIIT Kalyani,22.9586677,88.4338537,university,,
National Institite of Fashion Technology Panchkula,30.6850497,76.8816169,university,,
Indian Institute of Management Visakhapatnam,17.8806044,83.3622592,university,,
Shobhit University,28.6202795,77.3033489,university,,
Sathyabama Institute of Science and Technology,12.8735085,80.2205283,university,,
Central University of Rajasthan,26.6273902,75.0243805,university,,
Azim Premji University,12.8439822,77.777077,university,,
IIIT Kottayam,9.7554594,76.6493416,university,,
Mody University,27.8022716,75.0307175,university,,Sikar
Prof. Rajendra Singh University,25.3572327,81.8919396,university,,
Thunchath Ezhuthachan Malayalam University,10.8832602,75.8948805,university,,
"Manipal Academy of Higher Education, Bengaluru",13.1264517,77.5890581,university,,
University,17.0272312,82.2387855,university,,
North Orissa University,21.9307963,86.768267,university,,
"All India Institute of Medical Sciences, Bilaspur",31.2850031,76.7828167,university,,
"Graphic Era Hill University, Haldwani Campus",29.1242363,79.5174713,university,,
University,23.6795994,87.6838377,university,,
Marwadi University,22.3675808,70.795732,university,,
Guru Ghasidas Central University,22.1310849,82.1395308,university,,
SVS/SRC group of school and college,10.8328213,78.6980992,university,,
Dr. CV Raman University,22.281667,82.0088005,university,,
Dayananda Sagar University,12.6599299,77.4511912,university,,
KIIT Campus 6 (Main Campus),20.3529235,85.8201539,university,,
Centre for Development Studies and Activities,18.5068621,73.7710024,university,,
Centre for Development Studies and Activities,18.5071552,73.773957,university,,
NBU Cricket Ground,26.7139503,88.3570016,university,,Darjeeling
CEC,27.9129856,78.0748042,university,,
"Graphic Era Hill University, Bhimtal Campus",29.374965,79.5298698,university,,
"Birla Institute Of Applied Sciences, Bhimtal",29.3571824,79.5525793,university,,
Graphic Era (Deemed to be) University,30.2679993,77.9960119,university,,
"Graphic Era Hill University, Dehradun Campus",30.2727542,78.0000012,university,,
Mahanambrata Biochemic Medical College & Hospital,22.9445601,88.6379416,university,,
"R Square Academy for Tnpsc, Tnusrb SI, Tet, Police, Ssc, Rrb, Bank Exam Coaching Centre",13.110074,80.2439951,university,,
Homi Bhabha National Institute,19.033916,72.9256032,university,,
Mother Teresa Women's University,10.2698258,77.4799364,university,,
GITAM University,13.2883202,77.5970854,university,,
University of Patanjali,29.908558,78.0013221,university,,
NIT Uttarakhand (Office),30.2184692,78.7668115,university,,
Jain University School of Allied Healthcare & Sciences,12.9852447,77.7331674,university,,
SRM University,28.9189714,77.1290279,university,,
Dev Sanskriti Vishwavidyalaya (DSVV),29.9996541,78.1946001,university,,
"JIS Engineering Campus, Kalyani",22.959063,88.4469223,university,,
National Sugar Institute,26.5065628,80.2520911,university,,
Manipal University Jaipur,26.8423356,75.5620455,university,,
Maharana Institute of Professional Studies,26.5597024,80.2608819,university,,
Institute Of Pharmaceutical Education And Research,20.7200257,78.6041192,university,,
Swami Vivekananda Yoga Anusandhana Samsthana,12.7542356,77.6240033,university,,
International School of Business and Media,18.5437119,73.7334391,university,,
Narsee Monjee Institute Of Management Studies,19.1032717,72.8364587,university,,
Chandigarh University,30.7685833,76.5738548,university,Punjab,Sahibzada Ajit Singh Nagar
Babasaheb Bhimrao Ambedkar University,26.7684847,80.9248296,university,,
Centre for Nano and Soft Matter Sciences,13.042418,77.4247433,university,,
"Government Postgraduate College, Panchkula",30.7012238,76.8698998,university,,
Amity University,13.2779236,77.6180301,university,,
Chanakya University,13.2246535,77.7578299,university,,Bangalore Rural District
CMR University Campus (Lakeside),13.1186237,77.658857,university,,
Jain University,12.641723,77.440578,university,,
Motilal Nehru School of Sports,28.9279275,77.1065679,university,,
Dr. BR Ambedkar National Law University,28.9466053,77.1063477,university,,
IIT Delhi Sonipat Campus,28.9522946,77.103978,university,,
World University of Design,28.9498443,77.1011455,university,,
Surajmal University,28.8839234,79.5111845,university,,
Pharmacy Institute,26.5292327,88.7275552,university,,JALPAIGURI
جامعہ احمدیہ قادیان,31.8143245,75.3856442,university,,Gurdaspur
A.C Training College,26.5160338,88.7322171,university,,
P.D Women's College,26.5183724,88.7305548,university,,
Brainware University,22.7317737,88.4992791,university,,North 24 Parganas
Sidho Kanho Birsha University-Campus-II,23.374079,86.4413892,university,,
Students PU College,13.0193312,76.1144718,university,,
College Of Engineering Rurkee (COER) University,29.8905551,77.9601633,university,,
Jain Vishva Bharathi,27.6517864,74.390949,university,,
University,18.6819427,73.6542594,university,,
"School Of Legal Studies, Kannur University",11.7939025,75.4669315,university,,
University,16.4579904,80.4530635,university,,
Indian Institute of Management Kashipur,29.232437,79.0107022,university,,
Hemwati Nandan Bahuguna Uttarakhand Medical Education University,30.3452674,77.8591301,university,,
Himgiri Zee University,30.3405176,77.8769857,university,,
Veer Madho Singh Bhandari Uttarakhand Technical University,30.3435466,77.9409213,university,,
Uttaranchal University,30.3399398,77.9509359,university,,
ICFAI University,25.5267391,90.1602644,university,,
Calicut University Malappuram,11.1335646,75.8954933,university,,
Rayat-Bahra University,30.7809803,76.6176228,university,,
Acharya N.G Ranga Agricultural University,16.3620006,80.4344956,university,,
Siddharth University,27.4393654,83.1321097,university,,Siddharth Nagar
Gurukul Kangri University,29.920774,78.1234997,university,,
"Faculty of Technology, Gurukul Kangri University",29.9169757,78.0636503,university,,
Sri Venkateswara animal husbandry University,15.7075308,77.4249822,university,,
Amrita Vishwa Vidyapeetham,16.4560493,80.5381622,university,,Guntur
S. B Patil College,18.650608,73.7452413,university,,
University of Kalyani,22.9850743,88.4458864,university,,Nadia
Dharmaram Vidya Kshetra,12.935714,77.6026979,university,,
University,29.3835621,79.4588576,university,,
University,29.3811054,79.4569604,university,,
University,29.3829174,79.4565363,university,,
Department Of Biotechnology,29.3545757,79.5463138,university,,
Department of Management Studies and Pharmaceucital Sciences,29.3546678,79.5522953,university,,
Indian Maritime University,17.8272612,83.080538,university,,Anakapalli
University,19.8635354,75.3203708,university,,
JAWAHARLAL NEHRU TECHNOLOGICAL UNIVERSITY,16.9807103,82.2423613,university,,KAKINADA CITY
Koneru Lakshmaiah Education Foundation,16.4423332,80.6251056,university,,
Play Ground klu,16.442924,80.6243099,university,,
Kalinga University,21.167943,81.8218735,university,,
Amrita Vishwa Vidyapeetham,10.0460891,76.2955337,university,,Ernakulam
Amrita Vishwa Vidyapeetham,13.261307,80.0263949,university,,Thiruvallur
Amrita Vishwa Vidyapeetham,8.2290064,77.4153933,university,,Kanyakumari
National Institute of Technology Goa,15.1677329,74.0154773,university,,
Indian Institute of Technology Dharwad,15.4863367,74.9388536,university,,
Government College Nahar,28.4116432,76.4133449,university,,
Veltech University,13.1769044,80.0978744,university,,
University,13.1762018,80.0979859,university,,
University,13.1753746,80.097447,university,,
University,13.1758134,80.097088,university,,
University,13.1742818,80.0974836,university,,
University,13.1739081,80.0972717,university,,
University,13.1736666,80.0980143,university,,
Dr. B.R Ambedkar University,18.2819679,83.8180876,university,,
Art's Quadrangle,26.8638173,80.9375457,university,,
PMP,26.865927,80.937007,university,,
Sri Chandrasekharendra Saraswathi Viswa Mahavidyalaya,12.8601492,79.7289912,university,,
JNTUA COLLEGE OF ENGINEERING ANANTAPURAM,14.6500868,77.6068175,university,,
University,14.8381569,79.5885378,university,,
Dr. Y.S.R. Horticultural University,16.8841954,81.4542934,university,,
Amet University,12.8541398,80.2384474,university,,
Central Sanskrit University,30.1415297,78.5994825,university,,
Thevanesam Erudhaya Ammal Polytechnic College,9.0900099,78.3557135,university,,
Aditya Engineering College,17.0905684,82.0692515,university,,
Adikavi Nannaya University,17.0664067,81.873411,university,,
Godavari Global University (GGU),17.0627851,81.8677494,university,,
Indian Institute of Petroleum and Energy,17.83058,83.0862221,university,,Anakapalli
University,30.8658108,77.1178254,university,,
"All India Institute of Medical Sciences, Rajkot",22.3727431,70.745069,university,,Rajkot
University,21.2228246,72.8770727,university,,
Ashoka University North Campus,28.9498599,77.0983016,university,,
"Indian Institute of Management, Jammu",32.8214191,74.8888362,university,,Jammu
"All India Institute of Medical Sciences, Mangalagiri",16.446253,80.5802456,university,,
Damodaram Sanjivayya National Law University,17.789055,83.1107397,university,,
Mohan Babu University,13.6200354,79.2903415,university,,
Basket Ball,16.9622446,82.2443884,university,,
University,16.6059644,80.5056819,university,,
NISER Bhubaneswar,20.1751114,85.6839324,university,,
Himalayan Institute of Alternatives (HIAL),34.1712511,77.4629322,university,,Leh
IIPM - Indian Institute for Production Management,22.2280824,84.674193,university,,Sundergarh
University,23.2448111,72.6619692,university,,
ICAR-Indian Institute of Spices Research,11.2996311,75.8418176,university,,
CHARUSAT UNIVERSITY,22.6012136,72.8201243,university,,
ADMINISTRATIVE BUILDING,22.599664,72.8203113,university,,
National Forensic Sciences University,23.2095896,72.6624089,university,,Gandhinagar
University,23.671132,87.6613245,university,,
Rajasthan College of Agriculture,24.5826908,73.7042005,university,,
GIET University,19.0478807,83.8341585,university,,
PICT CAMPUS,18.457842,73.8508247,university,,
"Indian Institute of Information Technology(IIIT), Pune",18.7638004,73.6973919,university,,Pune
University,23.6747385,87.6733071,university,,
Department of Water Resources and Ocean Engineering,13.0122953,74.7945797,university,,
"Rajiv Gandhi Institute of Petroleum Technology, Bangalore",13.1255163,77.8108668,university,,
Indian Institute of Technology Patna,25.5427507,84.8530009,university,Bihar,
DIbrugarh University,27.4492517,94.8965863,university,,DIbrugarh
Maulana Mazharul Haque Arabic and Persian University,25.5862575,85.1330813,university,,Patna
IGNOU Regional Centre,25.5864316,85.1313589,university,,Patna
Aryabhatta Knowledge University,25.5923741,85.1350592,university,,
NIFT Patna,25.594444,85.1356996,university,,
Gargi College,28.5548512,77.2182649,university,DL,
sports complex,21.163843,81.8222579,university,,
sports complex,21.1637217,81.8237399,university,,
Central University of Punjab,30.137856,74.7921943,university,,Bathinda
Somaiya Vidyavihar University,19.0744505,72.8993705,university,,Mumbai
Central University of Haryana,28.3518706,76.143383,university,,
Jerusalem College of Engineering,12.9455165,80.2078467,university,,
Mohamed Sathak AJ College of Engineering,12.8361021,80.2180724,university,,
Amrita Vishwa Vidyapeetham,29.8950037,78.1375386,university,,Haridwar
Lalit Narayan Mithila University,26.1628408,85.8985055,university,,
JSPM University,18.585857,74.0027971,university,,
DY Patil University,19.0435469,73.0247164,university,,
Pronite Ground,26.4763815,73.1172318,university,,
"Indian Institute of Technology, Bhilai",21.2446004,81.3182306,university,,
Symboisis University of Applied Sciences,22.7536328,75.7921739,university,,
Symboisis University of Applied Sciences,22.7531585,75.7949312,university,,
Jubilee Centre for Medical Research (JCMR),10.5203398,76.2262774,university,,
Indian Institute of Technology Jammu,32.8016324,74.8903387,university,,
KIIT Campus 3,20.3529877,85.8170965,university,,
Kerala University Senate House Campus,8.5058751,76.9524962,university,,
Rishihood University,28.9839613,77.0906179,university,,Sonipat
Prasad V Potlutri Siddhartha Institute of Technology,16.4878468,80.6940426,university,,Krishna
Jai Hind College,18.9347249,72.8251612,university,,
Vikrama Simhapuri University,14.3569926,79.9234287,university,,
National Law University Jodhpur (NLUJ),26.3620167,73.0568743,university,,Jodhpur
LTC,10.727815,79.0202061,university,,
SASHE,10.7280558,79.0207185,university,,
Cluster University,15.7591293,78.0327451,university,,
Sido Kanhu Murmu University,24.2733226,87.2859134,university,,Dumka
University,26.9799172,83.1337937,university,,
The Law College (Utkal University & Madhusudan Law University),20.4721003,85.850692,university,,Cuttack
ABIT-PMCA,20.4697842,85.8515345,university,,Cuttack
Savitribai Phule Pune University SubCenter Area,18.9942363,74.7544139,university,,Ahilyanagar
Savitribai Phule Pune University SubCentre Area,18.9918932,74.7547359,university,,Ahilyanagar
Bangalore North University,13.1353292,78.168674,university,,
SBG room,23.1885442,72.6270018,university,,
University,18.1427408,83.3997011,university,,
University College of Engineering JNTUK Narasaraopet,16.1467368,80.0033885,university,,
BEST Innovation University (BESTIU),13.9405318,77.8503348,university,,
"JNTUA College of Engineering , Pulivendula",14.4495064,78.2366418,university,,
N.P. SCIENCE LAB (ઍન.પિ. સાયન્સ લેબ),22.2409349,68.9674703,university,,
Gandhi Instute Of Technology(GITAM),17.7829371,83.3771687,university,,
Central Institute of Classical Tamil,12.9050271,80.2113879,university,,
"National Academy Of Customs, Indirect Taxes & Narcotics",13.9628991,77.6629758,university,,
KU College of Engineering and Technology,18.0342725,79.5613776,university,,
Savitribai Phule Pune University SubCenter Area,18.996703,74.7402614,university,,Ahilyanagar
Maseehul Uloom University,13.1050337,77.6657847,university,,
Chinmaya VishwaVidyapeeth Deemed-to-be University,9.8822313,76.5256766,university,,
Government Engineering College Koni,22.134707,82.1297943,university,,
Jadavpur University New Town Campus,22.5975484,88.4847713,university,,kolkata
Centenary Grounds,12.8730213,74.8446081,university,,
